{"type":"FeatureCollection","name":"US submarine cable landing points","generated":"2026-09-18","note":"Landing stations on US soil. Source: TeleGeography Submarine Cable Map. LICENCE NOT CLEARED for redistribution — this layer is off by default and must not be shipped to a tenant until the terms are confirmed with TeleGeography.","features":[{"type":"Feature","properties":{"id":"boca-raton-fl-united-states","name":"Boca Raton, FL","cables":"Bahamas Internet Cable System (BICS), Colombia-Florida Subsea Fiber (CFX-1), GigNet-1, GlobeNet, Monet, South America-1 (SAm-1)","cableCount":6,"meta":"6 submarine cables · Bahamas Internet Cable System (BICS), Colombia-Florida Subsea Fiber (CFX-1), GigNet-1, GlobeNet +2 more","attrib":"TeleGeography Submarine Cable Map"},"geometry":{"type":"Point","coordinates":[-80.08894,26.35032]}},{"type":"Feature","properties":{"id":"wall-township-nj-united-states","name":"Wall Township, NJ","cables":"Confluence-1, Havfrue/AEC-2, Seabras-1, Tata TGN-Atlantic, WALL-LI","cableCount":5,"meta":"5 submarine cables · Confluence-1, Havfrue/AEC-2, Seabras-1, Tata TGN-Atlantic +1 more","attrib":"TeleGeography Submarine Cable Map"},"geometry":{"type":"Point","coordinates":[-74.06286,40.1529]}},{"type":"Feature","properties":{"id":"hillsboro-or-united-states","name":"Hillsboro, OR","cables":"Hawaiki, NorthStar, Southern Cross Cable Network (SCCN), Tata TGN-Pacific","cableCount":4,"meta":"4 submarine cables · Hawaiki, NorthStar, Southern Cross Cable Network (SCCN), Tata TGN-Pacific","attrib":"TeleGeography Submarine Cable Map"},"geometry":{"type":"Point","coordinates":[-122.9898,45.5229]}},{"type":"Feature","properties":{"id":"hollywood-fl-united-states","name":"Hollywood, FL","cables":"America Movil Submarine Cable System-1 (AMX-1), Americas-II, Maya-1, Mid-Atlantic Crossing (MAC)","cableCount":4,"meta":"4 submarine cables · America Movil Submarine Cable System-1 (AMX-1), Americas-II, Maya-1, Mid-Atlantic Crossing (MAC)","attrib":"TeleGeography Submarine Cable Map"},"geometry":{"type":"Point","coordinates":[-80.16023,26.0102]}},{"type":"Feature","properties":{"id":"kawaihae-hi-united-states","name":"Kawaihae, HI","cables":"HICS (Hawaii Inter-Island Cable System), HIFN (Hawaii Island Fibre Network), Honotua, Paniolo Cable Network","cableCount":4,"meta":"4 submarine cables · HICS (Hawaii Inter-Island Cable System), HIFN (Hawaii Island Fibre Network), Honotua, Paniolo Cable Network","attrib":"TeleGeography Submarine Cable Map"},"geometry":{"type":"Point","coordinates":[-155.83141,20.03999]}},{"type":"Feature","properties":{"id":"makaha-hi-united-states","name":"Makaha, HI","cables":"HIFN (Hawaii Island Fibre Network), Japan-U.S. Cable Network (JUS), Paniolo Cable Network, SEA-US","cableCount":4,"meta":"4 submarine cables · HIFN (Hawaii Island Fibre Network), Japan-U.S. Cable Network (JUS), Paniolo Cable Network, SEA-US","attrib":"TeleGeography Submarine Cable Map"},"geometry":{"type":"Point","coordinates":[-158.22065,21.46343]}},{"type":"Feature","properties":{"id":"virginia-beach-va-united-states","name":"Virginia Beach, VA","cables":"BRUSA, Confluence-1, Dunant, MAREA","cableCount":4,"meta":"4 submarine cables · BRUSA, Confluence-1, Dunant, MAREA","attrib":"TeleGeography Submarine Cable Map"},"geometry":{"type":"Point","coordinates":[-76.0592,36.75501]}},{"type":"Feature","properties":{"id":"grover-beach-ca-united-states","name":"Grover Beach, CA","cables":"CAP-1, Pacific Crossing-1 (PC-1), Pan-American Crossing (PAC)","cableCount":3,"meta":"3 submarine cables · CAP-1, Pacific Crossing-1 (PC-1), Pan-American Crossing (PAC)","attrib":"TeleGeography Submarine Cable Map"},"geometry":{"type":"Point","coordinates":[-120.62142,35.12063]}},{"type":"Feature","properties":{"id":"homer-ak-united-states","name":"Homer, AK","cables":"ACS Alaska-Oregon Network (AKORN), Kodiak Kenai Fiber Link (KKFL), TERRA SW","cableCount":3,"meta":"3 submarine cables · ACS Alaska-Oregon Network (AKORN), Kodiak Kenai Fiber Link (KKFL), TERRA SW","attrib":"TeleGeography Submarine Cable Map"},"geometry":{"type":"Point","coordinates":[-151.54431,59.64637]}},{"type":"Feature","properties":{"id":"jacksonville-fl-united-states","name":"Jacksonville, FL","cables":"America Movil Submarine Cable System-1 (AMX-1), Confluence-1, Pacific Caribbean Cable System (PCCS)","cableCount":3,"meta":"3 submarine cables · America Movil Submarine Cable System-1 (AMX-1), Confluence-1, Pacific Caribbean Cable System (PCCS)","attrib":"TeleGeography Submarine Cable Map"},"geometry":{"type":"Point","coordinates":[-81.65574,30.33176]}},{"type":"Feature","properties":{"id":"ketchikan-ak-united-states","name":"Ketchikan, AK","cables":"Alaska United Southeast (AU-SE), Alaska United West (AU-West), KetchCan1 Submarine Fiber Cable System","cableCount":3,"meta":"3 submarine cables · Alaska United Southeast (AU-SE), Alaska United West (AU-West), KetchCan1 Submarine Fiber Cable System","attrib":"TeleGeography Submarine Cable Map"},"geometry":{"type":"Point","coordinates":[-131.64782,55.3421]}},{"type":"Feature","properties":{"id":"lena-point-ak-united-states","name":"Lena Point, AK","cables":"Lynn Canal Fiber, NorthStar, SEALink","cableCount":3,"meta":"3 submarine cables · Lynn Canal Fiber, NorthStar, SEALink","attrib":"TeleGeography Submarine Cable Map"},"geometry":{"type":"Point","coordinates":[-134.74729,58.55094]}},{"type":"Feature","properties":{"id":"anchorage-ak-united-states","name":"Anchorage, AK","cables":"ACS Alaska-Oregon Network (AKORN), Kodiak Kenai Fiber Link (KKFL)","cableCount":2,"meta":"2 submarine cables · ACS Alaska-Oregon Network (AKORN), Kodiak Kenai Fiber Link (KKFL)","attrib":"TeleGeography Submarine Cable Map"},"geometry":{"type":"Point","coordinates":[-149.85837,61.21746]}},{"type":"Feature","properties":{"id":"bellport-ny-united-states","name":"Bellport, NY","cables":"Grace Hopper, Yellow","cableCount":2,"meta":"2 submarine cables · Grace Hopper, Yellow","attrib":"TeleGeography Submarine Cable Map"},"geometry":{"type":"Point","coordinates":[-72.93781,40.75554]}},{"type":"Feature","properties":{"id":"brookhaven-ny-united-states","name":"Brookhaven, NY","cables":"Atlantic Crossing-1 (AC-1), Mid-Atlantic Crossing (MAC)","cableCount":2,"meta":"2 submarine cables · Atlantic Crossing-1 (AC-1), Mid-Atlantic Crossing (MAC)","attrib":"TeleGeography Submarine Cable Map"},"geometry":{"type":"Point","coordinates":[-72.91228,40.77315]}},{"type":"Feature","properties":{"id":"el-segundo-ca-united-states","name":"El Segundo, CA","cables":"Curie, Pacific Light Cable Network (PLCN)","cableCount":2,"meta":"2 submarine cables · Curie, Pacific Light Cable Network (PLCN)","attrib":"TeleGeography Submarine Cable Map"},"geometry":{"type":"Point","coordinates":[-118.41595,33.91992]}},{"type":"Feature","properties":{"id":"hermosa-beach-ca-united-states","name":"Hermosa Beach, CA","cables":"JUPITER, SEA-US","cableCount":2,"meta":"2 submarine cables · JUPITER, SEA-US","attrib":"TeleGeography Submarine Cable Map"},"geometry":{"type":"Point","coordinates":[-118.39955,33.86223]}},{"type":"Feature","properties":{"id":"kaunakakai-hi-united-states","name":"Kaunakakai, HI","cables":"HIFN (Hawaii Island Fibre Network), Paniolo Cable Network","cableCount":2,"meta":"2 submarine cables · HIFN (Hawaii Island Fibre Network), Paniolo Cable Network","attrib":"TeleGeography Submarine Cable Map"},"geometry":{"type":"Point","coordinates":[-157.02389,21.09336]}},{"type":"Feature","properties":{"id":"keawaula-hi-united-states","name":"Keawaula, HI","cables":"Asia-America Gateway (AAG) Cable System, Telstra Endeavour","cableCount":2,"meta":"2 submarine cables · Asia-America Gateway (AAG) Cable System, Telstra Endeavour","attrib":"TeleGeography Submarine Cable Map"},"geometry":{"type":"Point","coordinates":[-158.24204,21.54877]}},{"type":"Feature","properties":{"id":"kihei-maui-hi-united-states","name":"Kihei, Maui, HI","cables":"HICS (Hawaii Inter-Island Cable System), HIFN (Hawaii Island Fibre Network)","cableCount":2,"meta":"2 submarine cables · HICS (Hawaii Inter-Island Cable System), HIFN (Hawaii Island Fibre Network)","attrib":"TeleGeography Submarine Cable Map"},"geometry":{"type":"Point","coordinates":[-156.4631,20.78216]}},{"type":"Feature","properties":{"id":"kodiak-ak-united-states","name":"Kodiak, AK","cables":"AU-Aleutian, Kodiak Kenai Fiber Link (KKFL)","cableCount":2,"meta":"2 submarine cables · AU-Aleutian, Kodiak Kenai Fiber Link (KKFL)","attrib":"TeleGeography Submarine Cable Map"},"geometry":{"type":"Point","coordinates":[-152.39528,57.79414]}},{"type":"Feature","properties":{"id":"koko-head-hi-united-states","name":"Koko Head, HI","cables":"HICS (Hawaii Inter-Island Cable System), HIFN (Hawaii Island Fibre Network)","cableCount":2,"meta":"2 submarine cables · HICS (Hawaii Inter-Island Cable System), HIFN (Hawaii Island Fibre Network)","attrib":"TeleGeography Submarine Cable Map"},"geometry":{"type":"Point","coordinates":[-157.69601,21.27756]}},{"type":"Feature","properties":{"id":"lihue-hi-united-states","name":"Lihue, HI","cables":"HICS (Hawaii Inter-Island Cable System), HIFN (Hawaii Island Fibre Network)","cableCount":2,"meta":"2 submarine cables · HICS (Hawaii Inter-Island Cable System), HIFN (Hawaii Island Fibre Network)","attrib":"TeleGeography Submarine Cable Map"},"geometry":{"type":"Point","coordinates":[-159.36857,21.97494]}},{"type":"Feature","properties":{"id":"los-angeles-ca-united-states","name":"Los Angeles, CA","cables":"Southern Cross NEXT, Tata TGN-Pacific","cableCount":2,"meta":"2 submarine cables · Southern Cross NEXT, Tata TGN-Pacific","attrib":"TeleGeography Submarine Cable Map"},"geometry":{"type":"Point","coordinates":[-118.24535,34.05339]}},{"type":"Feature","properties":{"id":"lynn-ma-united-states","name":"Lynn, MA","cables":"Amitie, GTT Atlantic","cableCount":2,"meta":"2 submarine cables · Amitie, GTT Atlantic","attrib":"TeleGeography Submarine Cable Map"},"geometry":{"type":"Point","coordinates":[-70.95027,42.46367]}},{"type":"Feature","properties":{"id":"manasquan-nj-united-states","name":"Manasquan, NJ","cables":"Apollo, Gemini Bermuda","cableCount":2,"meta":"2 submarine cables · Apollo, Gemini Bermuda","attrib":"TeleGeography Submarine Cable Map"},"geometry":{"type":"Point","coordinates":[-74.04704,40.12334]}},{"type":"Feature","properties":{"id":"morro-bay-ca-united-states","name":"Morro Bay, CA","cables":"Japan-U.S. Cable Network (JUS), Southern Cross Cable Network (SCCN)","cableCount":2,"meta":"2 submarine cables · Japan-U.S. Cable Network (JUS), Southern Cross Cable Network (SCCN)","attrib":"TeleGeography Submarine Cable Map"},"geometry":{"type":"Point","coordinates":[-120.8472,35.36668]}},{"type":"Feature","properties":{"id":"petersburg-ak-united-states","name":"Petersburg, AK","cables":"Alaska United Southeast (AU-SE), SEALink","cableCount":2,"meta":"2 submarine cables · Alaska United Southeast (AU-SE), SEALink","attrib":"TeleGeography Submarine Cable Map"},"geometry":{"type":"Point","coordinates":[-132.97005,56.80761]}},{"type":"Feature","properties":{"id":"seward-ak-united-states","name":"Seward, AK","cables":"Alaska United West (AU-West), Kodiak Kenai Fiber Link (KKFL)","cableCount":2,"meta":"2 submarine cables · Alaska United West (AU-West), Kodiak Kenai Fiber Link (KKFL)","attrib":"TeleGeography Submarine Cable Map"},"geometry":{"type":"Point","coordinates":[-149.44314,60.11219]}},{"type":"Feature","properties":{"id":"shirley-ny-united-states","name":"Shirley, NY","cables":"AEConnect-1, Apollo","cableCount":2,"meta":"2 submarine cables · AEConnect-1, Apollo","attrib":"TeleGeography Submarine Cable Map"},"geometry":{"type":"Point","coordinates":[-72.87224,40.80028]}},{"type":"Feature","properties":{"id":"valdez-ak-united-states","name":"Valdez, AK","cables":"Alaska United East (AU-East), NorthStar","cableCount":2,"meta":"2 submarine cables · Alaska United East (AU-East), NorthStar","attrib":"TeleGeography Submarine Cable Map"},"geometry":{"type":"Point","coordinates":[-146.35334,61.13035]}},{"type":"Feature","properties":{"id":"vero-beach-fl-united-states","name":"Vero Beach, FL","cables":"Americas-I North, Bahamas 2","cableCount":2,"meta":"2 submarine cables · Americas-I North, Bahamas 2","attrib":"TeleGeography Submarine Cable Map"},"geometry":{"type":"Point","coordinates":[-80.39427,27.63839]}},{"type":"Feature","properties":{"id":"west-palm-beach-fl-united-states","name":"West Palm Beach, FL","cables":"Caribbean Express (CX), Columbus-II b","cableCount":2,"meta":"2 submarine cables · Caribbean Express (CX), Columbus-II b","attrib":"TeleGeography Submarine Cable Map"},"geometry":{"type":"Point","coordinates":[-80.05335,26.71536]}},{"type":"Feature","properties":{"id":"whittier-ak-united-states","name":"Whittier, AK","cables":"Alaska United East (AU-East), NorthStar","cableCount":2,"meta":"2 submarine cables · Alaska United East (AU-East), NorthStar","attrib":"TeleGeography Submarine Cable Map"},"geometry":{"type":"Point","coordinates":[-148.68474,60.77293]}},{"type":"Feature","properties":{"id":"akutan-ak-united-states","name":"Akutan, AK","cables":"AU-Aleutian","cableCount":1,"meta":"1 submarine cable · AU-Aleutian","attrib":"TeleGeography Submarine Cable Map"},"geometry":{"type":"Point","coordinates":[-165.77306,54.13565]}},{"type":"Feature","properties":{"id":"angoon-ak-united-states","name":"Angoon, AK","cables":"Alaska United Southeast (AU-SE)","cableCount":1,"meta":"1 submarine cable · Alaska United Southeast (AU-SE)","attrib":"TeleGeography Submarine Cable Map"},"geometry":{"type":"Point","coordinates":[-134.58225,57.50184]}},{"type":"Feature","properties":{"id":"bandon-or-united-states","name":"Bandon, OR","cables":"FASTER","cableCount":1,"meta":"1 submarine cable · FASTER","attrib":"TeleGeography Submarine Cable Map"},"geometry":{"type":"Point","coordinates":[-124.40824,43.11856]}},{"type":"Feature","properties":{"id":"buffalo-ny-united-states","name":"Buffalo, NY","cables":"Crosslake Fibre","cableCount":1,"meta":"1 submarine cable · Crosslake Fibre","attrib":"TeleGeography Submarine Cable Map"},"geometry":{"type":"Point","coordinates":[-78.87846,42.88544]}},{"type":"Feature","properties":{"id":"charlestown-ri-united-states","name":"Charlestown, RI","cables":"Challenger Bermuda-1 (CB-1)","cableCount":1,"meta":"1 submarine cable · Challenger Bermuda-1 (CB-1)","attrib":"TeleGeography Submarine Cable Map"},"geometry":{"type":"Point","coordinates":[-71.64587,41.4119]}},{"type":"Feature","properties":{"id":"chignik-bay-ak-united-states","name":"Chignik Bay, AK","cables":"AU-Aleutian","cableCount":1,"meta":"1 submarine cable · AU-Aleutian","attrib":"TeleGeography Submarine Cable Map"},"geometry":{"type":"Point","coordinates":[-158.40881,56.29453]}},{"type":"Feature","properties":{"id":"chignik-lagoon-ak-united-states","name":"Chignik Lagoon, AK","cables":"AU-Aleutian","cableCount":1,"meta":"1 submarine cable · AU-Aleutian","attrib":"TeleGeography Submarine Cable Map"},"geometry":{"type":"Point","coordinates":[-158.50723,56.32135]}},{"type":"Feature","properties":{"id":"chignik-lake-ak-united-states","name":"Chignik Lake, AK","cables":"AU-Aleutian","cableCount":1,"meta":"1 submarine cable · AU-Aleutian","attrib":"TeleGeography Submarine Cable Map"},"geometry":{"type":"Point","coordinates":[-158.77209,56.25498]}},{"type":"Feature","properties":{"id":"cloverdale-or-united-states","name":"Cloverdale, OR","cables":"JUPITER","cableCount":1,"meta":"1 submarine cable · JUPITER","attrib":"TeleGeography Submarine Cable Map"},"geometry":{"type":"Point","coordinates":[-123.95636,45.23105]}},{"type":"Feature","properties":{"id":"coffman-cove-ak-united-states","name":"Coffman Cove, AK","cables":"SEALink","cableCount":1,"meta":"1 submarine cable · SEALink","attrib":"TeleGeography Submarine Cable Map"},"geometry":{"type":"Point","coordinates":[-132.82951,56.0152]}},{"type":"Feature","properties":{"id":"cold-bay-ak-united-states","name":"Cold Bay, AK","cables":"AU-Aleutian","cableCount":1,"meta":"1 submarine cable · AU-Aleutian","attrib":"TeleGeography Submarine Cable Map"},"geometry":{"type":"Point","coordinates":[-162.70403,55.20414]}},{"type":"Feature","properties":{"id":"crescent-beach-ri-united-states","name":"Crescent Beach, RI","cables":"sea2shore","cableCount":1,"meta":"1 submarine cable · sea2shore","attrib":"TeleGeography Submarine Cable Map"},"geometry":{"type":"Point","coordinates":[-71.59368,41.19196]}},{"type":"Feature","properties":{"id":"dania-beach-fl-united-states","name":"Dania Beach, FL","cables":"GTMO-1","cableCount":1,"meta":"1 submarine cable · GTMO-1","attrib":"TeleGeography Submarine Cable Map"},"geometry":{"type":"Point","coordinates":[-80.14394,26.05232]}},{"type":"Feature","properties":{"id":"eureka-ca-united-states","name":"Eureka, CA","cables":"Echo","cableCount":1,"meta":"1 submarine cable · Echo","attrib":"TeleGeography Submarine Cable Map"},"geometry":{"type":"Point","coordinates":[-124.15955,40.80326]}},{"type":"Feature","properties":{"id":"false-pass-ak-united-states","name":"False Pass, AK","cables":"AU-Aleutian","cableCount":1,"meta":"1 submarine cable · AU-Aleutian","attrib":"TeleGeography Submarine Cable Map"},"geometry":{"type":"Point","coordinates":[-163.415,54.85093]}},{"type":"Feature","properties":{"id":"fish-camp-ak-united-states","name":"Fish Camp, AK","cables":"TERRA SW","cableCount":1,"meta":"1 submarine cable · TERRA SW","attrib":"TeleGeography Submarine Cable Map"},"geometry":{"type":"Point","coordinates":[-154.85885,59.9492]}},{"type":"Feature","properties":{"id":"florence-or-united-states","name":"Florence, OR","cables":"ACS Alaska-Oregon Network (AKORN)","cableCount":1,"meta":"1 submarine cable · ACS Alaska-Oregon Network (AKORN)","attrib":"TeleGeography Submarine Cable Map"},"geometry":{"type":"Point","coordinates":[-124.09984,43.98213]}},{"type":"Feature","properties":{"id":"freeport-tx-united-states","name":"Freeport, TX","cables":"Gulf of Mexico Fiber Optic Network","cableCount":1,"meta":"1 submarine cable · Gulf of Mexico Fiber Optic Network","attrib":"TeleGeography Submarine Cable Map"},"geometry":{"type":"Point","coordinates":[-95.34437,28.94957]}},{"type":"Feature","properties":{"id":"haines-ak-united-states","name":"Haines, AK","cables":"Lynn Canal Fiber","cableCount":1,"meta":"1 submarine cable · Lynn Canal Fiber","attrib":"TeleGeography Submarine Cable Map"},"geometry":{"type":"Point","coordinates":[-135.445,59.23583]}},{"type":"Feature","properties":{"id":"harbour-pointe-wa-united-states","name":"Harbour Pointe, WA","cables":"Pacific Crossing-1 (PC-1)","cableCount":1,"meta":"1 submarine cable · Pacific Crossing-1 (PC-1)","attrib":"TeleGeography Submarine Cable Map"},"geometry":{"type":"Point","coordinates":[-122.30218,47.88622]}},{"type":"Feature","properties":{"id":"hawaii-kai-hi-united-states","name":"Hawaii Kai, HI","cables":"Paniolo Cable Network","cableCount":1,"meta":"1 submarine cable · Paniolo Cable Network","attrib":"TeleGeography Submarine Cable Map"},"geometry":{"type":"Point","coordinates":[-157.6689,21.272]}},{"type":"Feature","properties":{"id":"hawk-inlet-ak-united-states","name":"Hawk Inlet, AK","cables":"Alaska United Southeast (AU-SE)","cableCount":1,"meta":"1 submarine cable · Alaska United Southeast (AU-SE)","attrib":"TeleGeography Submarine Cable Map"},"geometry":{"type":"Point","coordinates":[-134.74182,58.12811]}},{"type":"Feature","properties":{"id":"igiugig-ak-united-states","name":"Igiugig, AK","cables":"TERRA SW","cableCount":1,"meta":"1 submarine cable · TERRA SW","attrib":"TeleGeography Submarine Cable Map"},"geometry":{"type":"Point","coordinates":[-155.89474,59.3278]}},{"type":"Feature","properties":{"id":"illiamna-ak-united-states","name":"Illiamna, AK","cables":"TERRA SW","cableCount":1,"meta":"1 submarine cable · TERRA SW","attrib":"TeleGeography Submarine Cable Map"},"geometry":{"type":"Point","coordinates":[-154.90612,59.75477]}},{"type":"Feature","properties":{"id":"island-park-ny-united-states","name":"Island Park, NY","cables":"FLAG Atlantic-1 (FA-1)","cableCount":1,"meta":"1 submarine cable · FLAG Atlantic-1 (FA-1)","attrib":"TeleGeography Submarine Cable Map"},"geometry":{"type":"Point","coordinates":[-73.65593,40.6003]}},{"type":"Feature","properties":{"id":"juneau-ak-united-states","name":"Juneau, AK","cables":"Alaska United East (AU-East)","cableCount":1,"meta":"1 submarine cable · Alaska United East (AU-East)","attrib":"TeleGeography Submarine Cable Map"},"geometry":{"type":"Point","coordinates":[-134.40686,58.29951]}},{"type":"Feature","properties":{"id":"kahe-point-hi-united-states","name":"Kahe Point, HI","cables":"Southern Cross Cable Network (SCCN)","cableCount":1,"meta":"1 submarine cable · Southern Cross Cable Network (SCCN)","attrib":"TeleGeography Submarine Cable Map"},"geometry":{"type":"Point","coordinates":[-158.13058,21.35398]}},{"type":"Feature","properties":{"id":"kapolei-hi-united-states","name":"Kapolei, HI","cables":"Hawaiki","cableCount":1,"meta":"1 submarine cable · Hawaiki","attrib":"TeleGeography Submarine Cable Map"},"geometry":{"type":"Point","coordinates":[-158.0569,21.33543]}},{"type":"Feature","properties":{"id":"kekaha-hi-united-states","name":"Kekaha, HI","cables":"Paniolo Cable Network","cableCount":1,"meta":"1 submarine cable · Paniolo Cable Network","attrib":"TeleGeography Submarine Cable Map"},"geometry":{"type":"Point","coordinates":[-159.7242,21.97031]}},{"type":"Feature","properties":{"id":"kenai-ak-united-states","name":"Kenai, AK","cables":"Kodiak Kenai Fiber Link (KKFL)","cableCount":1,"meta":"1 submarine cable · Kodiak Kenai Fiber Link (KKFL)","attrib":"TeleGeography Submarine Cable Map"},"geometry":{"type":"Point","coordinates":[-151.25979,60.55291]}},{"type":"Feature","properties":{"id":"king-cove-ak-united-states","name":"King Cove, AK","cables":"AU-Aleutian","cableCount":1,"meta":"1 submarine cable · AU-Aleutian","attrib":"TeleGeography Submarine Cable Map"},"geometry":{"type":"Point","coordinates":[-162.30442,55.04922]}},{"type":"Feature","properties":{"id":"ko-olina-hi-united-states","name":"Ko Olina, HI","cables":"HICS (Hawaii Inter-Island Cable System)","cableCount":1,"meta":"1 submarine cable · HICS (Hawaii Inter-Island Cable System)","attrib":"TeleGeography Submarine Cable Map"},"geometry":{"type":"Point","coordinates":[-158.1195,21.3397]}},{"type":"Feature","properties":{"id":"kokhanok-ak-united-states","name":"Kokhanok, AK","cables":"TERRA SW","cableCount":1,"meta":"1 submarine cable · TERRA SW","attrib":"TeleGeography Submarine Cable Map"},"geometry":{"type":"Point","coordinates":[-154.75275,59.44216]}},{"type":"Feature","properties":{"id":"kotzebue-ak-united-states","name":"Kotzebue, AK","cables":"Quintillion Subsea Cable Network","cableCount":1,"meta":"1 submarine cable · Quintillion Subsea Cable Network","attrib":"TeleGeography Submarine Cable Map"},"geometry":{"type":"Point","coordinates":[-162.59667,66.89834]}},{"type":"Feature","properties":{"id":"lahaina-hi-united-states","name":"Lahaina, HI","cables":"Paniolo Cable Network","cableCount":1,"meta":"1 submarine cable · Paniolo Cable Network","attrib":"TeleGeography Submarine Cable Map"},"geometry":{"type":"Point","coordinates":[-156.6845,20.9009]}},{"type":"Feature","properties":{"id":"larsen-bay-ak-united-states","name":"Larsen Bay, AK","cables":"AU-Aleutian","cableCount":1,"meta":"1 submarine cable · AU-Aleutian","attrib":"TeleGeography Submarine Cable Map"},"geometry":{"type":"Point","coordinates":[-153.98597,57.53733]}},{"type":"Feature","properties":{"id":"lynnwood-wa-united-states","name":"Lynnwood, WA","cables":"Alaska United East (AU-East)","cableCount":1,"meta":"1 submarine cable · Alaska United East (AU-East)","attrib":"TeleGeography Submarine Cable Map"},"geometry":{"type":"Point","coordinates":[-122.31585,47.824]}},{"type":"Feature","properties":{"id":"makena-hi-united-states","name":"Makena, HI","cables":"Paniolo Cable Network","cableCount":1,"meta":"1 submarine cable · Paniolo Cable Network","attrib":"TeleGeography Submarine Cable Map"},"geometry":{"type":"Point","coordinates":[-156.44,20.6636]}},{"type":"Feature","properties":{"id":"manchester-ca-united-states","name":"Manchester, CA","cables":"Japan-U.S. Cable Network (JUS)","cableCount":1,"meta":"1 submarine cable · Japan-U.S. Cable Network (JUS)","attrib":"TeleGeography Submarine Cable Map"},"geometry":{"type":"Point","coordinates":[-123.68695,38.96921]}},{"type":"Feature","properties":{"id":"manele-bay-hi-united-states","name":"Manele Bay, HI","cables":"HIFN (Hawaii Island Fibre Network)","cableCount":1,"meta":"1 submarine cable · HIFN (Hawaii Island Fibre Network)","attrib":"TeleGeography Submarine Cable Map"},"geometry":{"type":"Point","coordinates":[-156.89689,20.74344]}},{"type":"Feature","properties":{"id":"mchugh-point-ak-united-states","name":"McHugh Point, AK","cables":"Alaska United Turnagain Arm (AUTA)","cableCount":1,"meta":"1 submarine cable · Alaska United Turnagain Arm (AUTA)","attrib":"TeleGeography Submarine Cable Map"},"geometry":{"type":"Point","coordinates":[-149.7322,61.01572]}},{"type":"Feature","properties":{"id":"myrtle-beach-sc-united-states","name":"Myrtle Beach, SC","cables":"Confluence-1","cableCount":1,"meta":"1 submarine cable · Confluence-1","attrib":"TeleGeography Submarine Cable Map"},"geometry":{"type":"Point","coordinates":[-78.88268,33.69357]}},{"type":"Feature","properties":{"id":"narragansett-ri-united-states","name":"Narragansett, RI","cables":"sea2shore","cableCount":1,"meta":"1 submarine cable · sea2shore","attrib":"TeleGeography Submarine Cable Map"},"geometry":{"type":"Point","coordinates":[-71.44281,41.44137]}},{"type":"Feature","properties":{"id":"narrow-cape-ak-united-states","name":"Narrow Cape, AK","cables":"Kodiak Kenai Fiber Link (KKFL)","cableCount":1,"meta":"1 submarine cable · Kodiak Kenai Fiber Link (KKFL)","attrib":"TeleGeography Submarine Cable Map"},"geometry":{"type":"Point","coordinates":[-152.32917,57.42684]}},{"type":"Feature","properties":{"id":"nedonna-beach-or-united-states","name":"Nedonna Beach, OR","cables":"Trans-Pacific Express (TPE) Cable System","cableCount":1,"meta":"1 submarine cable · Trans-Pacific Express (TPE) Cable System","attrib":"TeleGeography Submarine Cable Map"},"geometry":{"type":"Point","coordinates":[-123.94007,45.64373]}},{"type":"Feature","properties":{"id":"newhalen-ak-united-states","name":"Newhalen, AK","cables":"TERRA SW","cableCount":1,"meta":"1 submarine cable · TERRA SW","attrib":"TeleGeography Submarine Cable Map"},"geometry":{"type":"Point","coordinates":[-154.89977,59.71815]}},{"type":"Feature","properties":{"id":"nikiski-ak-united-states","name":"Nikiski, AK","cables":"ACS Alaska-Oregon Network (AKORN)","cableCount":1,"meta":"1 submarine cable · ACS Alaska-Oregon Network (AKORN)","attrib":"TeleGeography Submarine Cable Map"},"geometry":{"type":"Point","coordinates":[-151.29172,60.68982]}},{"type":"Feature","properties":{"id":"nome-ak-united-states","name":"Nome, AK","cables":"Quintillion Subsea Cable Network","cableCount":1,"meta":"1 submarine cable · Quintillion Subsea Cable Network","attrib":"TeleGeography Submarine Cable Map"},"geometry":{"type":"Point","coordinates":[-165.40641,64.50111]}},{"type":"Feature","properties":{"id":"nondalton-ak-united-states","name":"Nondalton, AK","cables":"TERRA SW","cableCount":1,"meta":"1 submarine cable · TERRA SW","attrib":"TeleGeography Submarine Cable Map"},"geometry":{"type":"Point","coordinates":[-154.84772,59.97265]}},{"type":"Feature","properties":{"id":"north-miami-beach-fl-united-states","name":"North Miami Beach, FL","cables":"ARCOS","cableCount":1,"meta":"1 submarine cable · ARCOS","attrib":"TeleGeography Submarine Cable Map"},"geometry":{"type":"Point","coordinates":[-80.16238,25.93294]}},{"type":"Feature","properties":{"id":"northport-ny-united-states","name":"Northport, NY","cables":"FLAG Atlantic-1 (FA-1)","cableCount":1,"meta":"1 submarine cable · FLAG Atlantic-1 (FA-1)","attrib":"TeleGeography Submarine Cable Map"},"geometry":{"type":"Point","coordinates":[-73.34411,40.90946]}},{"type":"Feature","properties":{"id":"pacific-city-or-united-states","name":"Pacific City, OR","cables":"New Cross Pacific (NCP) Cable System","cableCount":1,"meta":"1 submarine cable · New Cross Pacific (NCP) Cable System","attrib":"TeleGeography Submarine Cable Map"},"geometry":{"type":"Point","coordinates":[-123.96263,45.20193]}},{"type":"Feature","properties":{"id":"pascagoula-ms-united-states","name":"Pascagoula, MS","cables":"Gulf of Mexico Fiber Optic Network","cableCount":1,"meta":"1 submarine cable · Gulf of Mexico Fiber Optic Network","attrib":"TeleGeography Submarine Cable Map"},"geometry":{"type":"Point","coordinates":[-88.55612,30.36576]}},{"type":"Feature","properties":{"id":"pedro-bay-ak-united-states","name":"Pedro Bay, AK","cables":"TERRA SW","cableCount":1,"meta":"1 submarine cable · TERRA SW","attrib":"TeleGeography Submarine Cable Map"},"geometry":{"type":"Point","coordinates":[-154.10612,59.78721]}},{"type":"Feature","properties":{"id":"perryville-ak-united-states","name":"Perryville, AK","cables":"AU-Aleutian","cableCount":1,"meta":"1 submarine cable · AU-Aleutian","attrib":"TeleGeography Submarine Cable Map"},"geometry":{"type":"Point","coordinates":[-159.14479,55.91751]}},{"type":"Feature","properties":{"id":"pile-bay-ak-united-states","name":"Pile Bay, AK","cables":"TERRA SW","cableCount":1,"meta":"1 submarine cable · TERRA SW","attrib":"TeleGeography Submarine Cable Map"},"geometry":{"type":"Point","coordinates":[-153.88049,59.77605]}},{"type":"Feature","properties":{"id":"point-hope-ak-united-states","name":"Point Hope, AK","cables":"Quintillion Subsea Cable Network","cableCount":1,"meta":"1 submarine cable · Quintillion Subsea Cable Network","attrib":"TeleGeography Submarine Cable Map"},"geometry":{"type":"Point","coordinates":[-166.80807,68.34777]}},{"type":"Feature","properties":{"id":"port-alsworth-ak-united-states","name":"Port Alsworth, AK","cables":"TERRA SW","cableCount":1,"meta":"1 submarine cable · TERRA SW","attrib":"TeleGeography Submarine Cable Map"},"geometry":{"type":"Point","coordinates":[-154.33693,60.20037]}},{"type":"Feature","properties":{"id":"portage-ak-united-states","name":"Portage, AK","cables":"Alaska United Turnagain Arm (AUTA)","cableCount":1,"meta":"1 submarine cable · Alaska United Turnagain Arm (AUTA)","attrib":"TeleGeography Submarine Cable Map"},"geometry":{"type":"Point","coordinates":[-148.98982,60.82829]}},{"type":"Feature","properties":{"id":"prudhoe-bay-ak-united-states","name":"Prudhoe Bay, AK","cables":"Quintillion Subsea Cable Network","cableCount":1,"meta":"1 submarine cable · Quintillion Subsea Cable Network","attrib":"TeleGeography Submarine Cable Map"},"geometry":{"type":"Point","coordinates":[-148.33845,70.25564]}},{"type":"Feature","properties":{"id":"redondo-beach-ca-united-states","name":"Redondo Beach, CA","cables":"Unity/EAC-Pacific","cableCount":1,"meta":"1 submarine cable · Unity/EAC-Pacific","attrib":"TeleGeography Submarine Cable Map"},"geometry":{"type":"Point","coordinates":[-118.38802,33.84447]}},{"type":"Feature","properties":{"id":"san-luis-obispo-ca-united-states","name":"San Luis Obispo, CA","cables":"Asia-America Gateway (AAG) Cable System","cableCount":1,"meta":"1 submarine cable · Asia-America Gateway (AAG) Cable System","attrib":"TeleGeography Submarine Cable Map"},"geometry":{"type":"Point","coordinates":[-120.66273,35.28501]}},{"type":"Feature","properties":{"id":"sand-point-ak-united-states","name":"Sand Point, AK","cables":"AU-Aleutian","cableCount":1,"meta":"1 submarine cable · AU-Aleutian","attrib":"TeleGeography Submarine Cable Map"},"geometry":{"type":"Point","coordinates":[-160.4963,55.34155]}},{"type":"Feature","properties":{"id":"sarasota-fl-united-states","name":"Sarasota, FL","cables":"AURORA Cable System","cableCount":1,"meta":"1 submarine cable · AURORA Cable System","attrib":"TeleGeography Submarine Cable Map"},"geometry":{"type":"Point","coordinates":[-82.53963,27.33887]}},{"type":"Feature","properties":{"id":"sitka-ak-united-states","name":"Sitka, AK","cables":"Alaska United Southeast (AU-SE)","cableCount":1,"meta":"1 submarine cable · Alaska United Southeast (AU-SE)","attrib":"TeleGeography Submarine Cable Map"},"geometry":{"type":"Point","coordinates":[-135.3344,57.05291]}},{"type":"Feature","properties":{"id":"skagway-ak-united-states","name":"Skagway, AK","cables":"Lynn Canal Fiber","cableCount":1,"meta":"1 submarine cable · Lynn Canal Fiber","attrib":"TeleGeography Submarine Cable Map"},"geometry":{"type":"Point","coordinates":[-135.31389,59.45834]}},{"type":"Feature","properties":{"id":"spanish-river-park-fl-united-states","name":"Spanish River Park, FL","cables":"Bahamas Internet Cable System (BICS)","cableCount":1,"meta":"1 submarine cable · Bahamas Internet Cable System (BICS)","attrib":"TeleGeography Submarine Cable Map"},"geometry":{"type":"Point","coordinates":[-80.0677,26.37806]}},{"type":"Feature","properties":{"id":"spencer-beach-hi-united-states","name":"Spencer Beach, HI","cables":"Southern Cross Cable Network (SCCN)","cableCount":1,"meta":"1 submarine cable · Southern Cross Cable Network (SCCN)","attrib":"TeleGeography Submarine Cable Map"},"geometry":{"type":"Point","coordinates":[-155.82209,20.02311]}},{"type":"Feature","properties":{"id":"sunny-isles-fl-united-states","name":"Sunny Isles, FL","cables":"Confluence-1","cableCount":1,"meta":"1 submarine cable · Confluence-1","attrib":"TeleGeography Submarine Cable Map"},"geometry":{"type":"Point","coordinates":[-80.12157,25.93849]}},{"type":"Feature","properties":{"id":"tuckerton-nj-united-states","name":"Tuckerton, NJ","cables":"GlobeNet","cableCount":1,"meta":"1 submarine cable · GlobeNet","attrib":"TeleGeography Submarine Cable Map"},"geometry":{"type":"Point","coordinates":[-74.33791,39.60389]}},{"type":"Feature","properties":{"id":"unalaska-ak-united-states","name":"Unalaska, AK","cables":"AU-Aleutian","cableCount":1,"meta":"1 submarine cable · AU-Aleutian","attrib":"TeleGeography Submarine Cable Map"},"geometry":{"type":"Point","coordinates":[-166.53324,53.88453]}},{"type":"Feature","properties":{"id":"utqiavik-ak-united-states","name":"Utqiaġvik, AK","cables":"Quintillion Subsea Cable Network","cableCount":1,"meta":"1 submarine cable · Quintillion Subsea Cable Network","attrib":"TeleGeography Submarine Cable Map"},"geometry":{"type":"Point","coordinates":[-156.78864,71.29055]}},{"type":"Feature","properties":{"id":"wainwright-ak-united-states","name":"Wainwright, AK","cables":"Quintillion Subsea Cable Network","cableCount":1,"meta":"1 submarine cable · Quintillion Subsea Cable Network","attrib":"TeleGeography Submarine Cable Map"},"geometry":{"type":"Point","coordinates":[-160.03834,70.63695]}},{"type":"Feature","properties":{"id":"warrenton-or-united-states","name":"Warrenton, OR","cables":"Alaska United West (AU-West)","cableCount":1,"meta":"1 submarine cable · Alaska United West (AU-West)","attrib":"TeleGeography Submarine Cable Map"},"geometry":{"type":"Point","coordinates":[-123.92386,46.16513]}},{"type":"Feature","properties":{"id":"westbury-ny-united-states","name":"Westbury, NY","cables":"WALL-LI","cableCount":1,"meta":"1 submarine cable · WALL-LI","attrib":"TeleGeography Submarine Cable Map"},"geometry":{"type":"Point","coordinates":[-73.58683,40.7571]}},{"type":"Feature","properties":{"id":"williamsport-ak-united-states","name":"Williamsport, AK","cables":"TERRA SW","cableCount":1,"meta":"1 submarine cable · TERRA SW","attrib":"TeleGeography Submarine Cable Map"},"geometry":{"type":"Point","coordinates":[-153.63215,59.6824]}},{"type":"Feature","properties":{"id":"wrangell-ak-united-states","name":"Wrangell, AK","cables":"Alaska United Southeast (AU-SE)","cableCount":1,"meta":"1 submarine cable · Alaska United Southeast (AU-SE)","attrib":"TeleGeography Submarine Cable Map"},"geometry":{"type":"Point","coordinates":[-132.38382,56.4708]}}]}