{"type":"FeatureCollection","features":[{"type":"Feature","geometry":{"type":"MultiLineString","coordinates":[[[-165.320693092966,64.4863902119163],[-165.320727018741,64.4855242131573]],[[-165.320693092966,64.4863902119163],[-165.321161433232,64.4644113391251],[-165.325745879284,64.4585644879499],[-165.484684932759,64.3879023750258],[-165.519982666983,64.3813285369622],[-166.195343228411,64.3983294201374],[-166.57427520339,64.4533324380886],[-167.078944987627,64.5413740819679],[-168.286821904255,64.7451704859919],[-168.899965351226,64.9082793670862],[-168.968605482846,64.9239851218507],[-168.976713008254,64.9292411448385]],[[-165.320692959117,64.4864459738848],[-165.320693092966,64.4863902119163]],[[-165.320692959117,64.4864459738848],[-165.320690460004,64.4864301439435],[-165.320693092966,64.4863902119163]],[[-165.320704800709,64.4865209860605],[-165.320692959117,64.4864459738848]],[[-165.320704800709,64.4865209860605],[-165.320692826166,64.486501421169],[-165.320692959117,64.4864459738848]],[[-165.320704951626,64.4865219448617],[-165.320704800709,64.4865209860605]],[[-165.320716666555,64.4865305558855],[-165.320704800709,64.4865209860605]],[[-165.406132449831,64.4984463468189],[-165.320731990916,64.4865270859392]],[[-147.709857590308,64.8363143719873],[-147.710871389411,64.8382739411573],[-147.705487133737,64.8386530000259],[-147.701602877737,64.8457818788501],[-147.693938650261,64.8448948639613],[-147.693949508197,64.8502083859988],[-147.675798444214,64.858746056007],[-147.675549674661,64.8659199490888],[-147.661381382219,64.875643924984],[-147.659957162625,64.8788999508672],[-147.678102350728,64.8860667168687],[-147.664521855621,64.8936773939602],[-147.6617295818,64.9021606311715],[-147.655852133068,64.9068363228763],[-147.643048864836,64.9067721880201],[-147.64317682895,64.9299183290679]],[[-169.028293333129,64.9117250001507],[-168.976713008254,64.9292411448385]],[[-168.976713008254,64.9292411448385],[-168.976713333444,64.9292416670898]],[[-168.976713008254,64.9292411448385],[-168.975417670852,64.9367323471512],[-168.792242564187,65.1572328551206],[-168.760448514692,65.221328001164],[-168.744298176713,65.2448065170148],[-168.706064489425,65.3245988380908],[-168.620858303766,65.4424510880947],[-168.571291177105,65.5034466999232],[-168.548418073017,65.5685646791276],[-168.546677873716,65.5816792271219],[-168.535787145674,65.6003977220151],[-168.530807095945,65.6289142421736],[-168.510288969391,65.6732257700861],[-168.494433385724,65.7205942558831],[-168.488655070576,65.7483011880989],[-168.490446428033,65.7684528179629],[-168.479834327748,65.8035766948297],[-168.47852172293,65.8296076030303],[-168.474146373235,65.8472676771106],[-168.478469131061,65.8642003741333],[-168.47040184928,65.8982269921705],[-168.466145506598,65.9467109358403],[-168.455868694408,65.9881016591235],[-168.462763046821,65.998226995889],[-168.486697372975,66.0856760891473],[-168.49497559805,66.1060783818926],[-168.500378307816,66.1330182021395],[-168.516577346162,66.1759960570121],[-168.544739697405,66.2867357460247],[-168.559798012783,66.3216484980999],[-168.57131475339,66.3807978170529],[-168.58743719329,66.4339636711105],[-168.602026061676,66.4668418041265],[-168.612793613624,66.5204583610174],[-168.645765199048,66.5858361458703],[-168.662768929361,66.6305038859817],[-168.678009876727,66.6538710808677],[-168.711673935674,66.7252400158664],[-168.711208311014,66.8566535199911],[-168.708241551127,66.8634756650888],[-168.48632169932,67.0936034661643],[-168.204526620341,67.5258477349183],[-168.174612749228,67.5462088088825],[-168.116687627095,67.5690173189109],[-166.931010270331,67.8856423229579],[-166.912255857379,67.8933459368569],[-166.910677271286,67.8965523671412]],[[-147.643220760161,64.9298645198414],[-147.64317682895,64.9299183290679]],[[-147.643046843627,64.9299003411577],[-147.643174784385,64.929919139831]],[[-147.64317682895,64.9299183290679],[-147.643176835239,64.9299187188432],[-147.643176446268,64.9299187980163]],[[-147.64317682895,64.9299183290679],[-147.643176446268,64.9299187980163]],[[-147.643176446268,64.9299187980163],[-147.643174784385,64.929919139831]],[[-147.643176446268,64.9299187980163],[-147.64317601867,64.9299193221576]],[[-147.643174784385,64.929919139831],[-147.64317601867,64.9299193221576]],[[-147.643174784385,64.929919139831],[-147.641966912349,64.9301674080635],[-147.641829968675,64.9334265461864],[-147.644004377651,64.9386126909694],[-147.642233985076,64.9444648359905],[-147.638748720301,64.9465128669184],[-147.628028177191,64.9493860518526],[-147.626896166085,64.9497172741433],[-147.625502056222,64.9501687330255],[-147.615389471337,64.9546274970969],[-147.61411039434,64.9583472310951]],[[-147.64317601867,64.9299193221576],[-147.643305193713,64.9299383020021]],[[-147.64317601867,64.9299193221576],[-147.643131278077,64.9299741228392]],[[-147.642603787342,64.9300362720132],[-147.642023835893,64.9301554739661]],[[-147.629051183129,64.9491170418396],[-147.627532703312,64.9495312810895]],[[-147.61411039434,64.9583472310951],[-147.614102507132,64.9583396738993]],[[-147.61411039434,64.9583472310951],[-147.61411237243,64.9583491201085]],[[-147.61411237243,64.9583491201085],[-147.614134294916,64.9583698669275]],[[-147.614134294916,64.9583698669275],[-147.614124286786,64.9583604481026],[-147.61411237243,64.9583491201085]],[[-147.614134294916,64.9583698669275],[-147.614134695565,64.958370244882]],[[-147.614134695565,64.958370244882],[-147.614158364376,64.9583922449411]],[[-147.614158364376,64.9583922449411],[-147.61414638085,64.9583811618323],[-147.614134695565,64.958370244882]],[[-147.614158364376,64.9583922449411],[-147.614158568294,64.9583924331577]],[[-147.614158568294,64.9583924331577],[-147.614181150143,64.9584130510433]],[[-147.614181150143,64.9584130510433],[-147.614170842874,64.9584036900294],[-147.614158568294,64.9583924331577]],[[-147.614181150143,64.9584130510433],[-147.614183217167,64.9584149240822]],[[-147.614183217167,64.9584149240822],[-147.614206137681,64.9584354769304]],[[-147.614206137681,64.9584354769304],[-147.614193593607,64.9584242771073],[-147.614183217167,64.9584149240822]],[[-147.614206137681,64.9584354769304],[-147.614208238841,64.9584373408421]],[[-147.614208238841,64.9584373408421],[-147.614229372606,64.9584559651228]],[[-147.614229372606,64.9584559651228],[-147.614218769791,64.9584466630603],[-147.614208238841,64.9584373408421]],[[-147.614229372606,64.9584559651228],[-147.614233629722,64.9584596830571]],[[-147.614233629722,64.9584596830571],[-147.61425507161,64.9584782449639]],[[-147.61425507161,64.9584782449639],[-147.614244316081,64.9584689740884],[-147.614233629722,64.9584596830571]],[[-147.61425507161,64.9584782449639],[-147.614257229363,64.9584800989866]],[[-147.614257229363,64.9584800989866],[-147.614281139821,64.9585004479792]],[[-147.614281139821,64.9585004479792],[-147.61427023068,64.958491209051],[-147.614257229363,64.9584800989866]],[[-147.614281139821,64.9585004479792],[-147.614283329914,64.9585022940154]],[[-147.614283329914,64.9585022940154],[-147.614305361994,64.9585207281341]],[[-147.614305361994,64.9585207281341],[-147.614294310021,64.958511521913],[-147.614283329914,64.9585022940154]],[[-147.614305361994,64.9585207281341],[-147.614309797875,64.9585244091768]],[[-147.614309797875,64.9585244091768],[-147.61433213179,64.9585427809219]],[[-147.61433213179,64.9585427809219],[-147.614320929798,64.9585336070283],[-147.614309797875,64.9585244091768]],[[-147.61433213179,64.9585427809219],[-147.614336630553,64.9585464459918]],[[-147.614336630553,64.9585464459918],[-147.614359268098,64.9585647538427]],[[-147.614359268098,64.9585647538427],[-147.614347915189,64.9585556111357],[-147.614336630553,64.9585464459918]],[[-147.614359268098,64.9585647538427],[-147.614361545327,64.9585665808628]],[[-147.614361545327,64.9585665808628],[-147.614384465842,64.9585848191173]],[[-147.614384465842,64.9585848191173],[-147.614372970999,64.9585757110183],[-147.614361545327,64.9585665808628]],[[-147.614384465842,64.9585848191173],[-147.614389076894,64.9585884621278]],[[-147.614389076894,64.9585884621278],[-147.614412295649,64.9586066338267]],[[-147.614412295649,64.9586066338267],[-147.614400651686,64.9585975599562],[-147.614389076894,64.9585884621278]],[[-147.614412295649,64.9586066338267],[-147.61441697138,64.9586102620053]],[[-147.61441697138,64.9586102620053],[-147.614440489274,64.9586283671488]],[[-147.614440489274,64.9586283671488],[-147.614428696191,64.9586193259855],[-147.61441697138,64.9586102620053]],[[-147.614440489274,64.9586283671488],[-147.614445224294,64.9586319801151]],[[-147.614445224294,64.9586319801151],[-147.614466651809,64.9586482091795]],[[-147.614466651809,64.9586482091795],[-147.61445471769,64.958639204145],[-147.614445224294,64.9586319801151]],[[-147.614466651809,64.9586482091795],[-147.614471438032,64.9586518118769]],[[-147.614471438032,64.9586518118769],[-147.614495530848,64.9586697789682]],[[-147.614495530848,64.9586697789682],[-147.614483451203,64.9586608081618],[-147.614471438032,64.9586518118769]],[[-147.614495530848,64.9586697789682],[-147.615526495859,64.959509678072]],[[-147.615379419189,64.9594937111212],[-147.615526491367,64.959509703927]],[[-147.615526495859,64.959509678072],[-147.615499217617,64.9595067169208]],[[-147.615526495859,64.959509678072],[-147.615526491367,64.959509703927]],[[-147.615526491367,64.959509703927],[-147.615505366585,64.9595646980875]],[[-147.615526491367,64.959509703927],[-147.616750789098,64.9596428348623],[-147.621393404658,64.9620136031051],[-147.62147058072,64.9620548690194]],[[-147.615427894078,64.9595168889377],[-147.615504891376,64.9595648349663]],[[-147.615505366585,64.9595646980875],[-147.61561803239,64.9595322060798]],[[-147.615505366585,64.9595646980875],[-147.61550518782,64.9595650201329]],[[-147.615504891376,64.9595648349663],[-147.615505366585,64.9595646980875]],[[-147.615504891376,64.9595648349663],[-147.61550518782,64.9595650201329]],[[-147.61550518782,64.9595650201329],[-147.615505063853,64.9595652429412]],[[-147.61550518782,64.9595650201329],[-147.615581888674,64.9596127801485]],[[-147.615391751261,64.9595974638129],[-147.615504891376,64.9595648349663]],[[-147.616749038282,64.9596423941898],[-147.615526495859,64.959509678072]],[[-147.617406990447,64.9599779559807],[-147.618230874022,64.9603987059384]],[[-147.62147058072,64.9620548690194],[-147.621417906207,64.962027077968]],[[-147.62147058072,64.9620548690194],[-147.624535799556,64.9644225789581],[-147.63512249279,64.9779376751401],[-147.636736748288,64.981498658174],[-147.631180900021,64.9934436308397],[-147.640809789736,64.9969615831247],[-147.633591263185,65.0007993600417]],[[-147.621660296823,64.9621549608948],[-147.62147058072,64.9620548690194]],[[-147.634613927762,64.9779365888404],[-147.634032955827,64.9779353710752]],[[-147.633938646197,65.0006374240213],[-147.633591263185,65.0007993600417]],[[-147.633591263185,65.0007993600417],[-147.628516979284,65.0087663309547],[-147.64045325379,65.0140201559339],[-147.656337488324,65.0327880399655]],[[-147.656320522742,65.0326802108682],[-147.656337488324,65.0327880399655]],[[-147.656337488324,65.0327880399655],[-147.656345448296,65.0328256779529],[-147.656355034218,65.0328995568808]],[[-147.656337488324,65.0327880399655],[-147.656355034218,65.0328995568808]],[[-147.656355034218,65.0328995568808],[-147.65637202136,65.0330075291781]],[[-147.656355034218,65.0328995568808],[-147.66145947636,65.0469337849541],[-147.656644731016,65.0530021308627],[-147.663407851244,65.0618622529147]],[[-147.663312168989,65.0615497251098],[-147.663407851244,65.0618622529147]],[[-147.663407851244,65.0618622529147],[-147.673291946942,65.0728787340758],[-147.677196854312,65.0746983040176],[-147.679283133169,65.0752307419302],[-147.679724584164,65.0753187241566],[-147.683183083635,65.075979247104]],[[-147.683183083635,65.075979247104],[-147.682263153986,65.0758031928411]],[[-147.683183083635,65.075979247104],[-147.725705019966,65.0841319999261]],[[-147.683443251012,65.0760290358573],[-147.683183083635,65.075979247104]],[[-147.725602524887,65.0841050010142],[-147.725705019966,65.0841319999261]],[[-147.725705019966,65.0841319999261],[-147.725762806792,65.0841467768242],[-147.725798141125,65.0841565290578]],[[-147.725705019966,65.0841319999261],[-147.725798141125,65.0841565290578]],[[-147.725798141125,65.0841565290578],[-147.725850032308,65.0841701978465],[-147.725981071355,65.0842070200555]],[[-147.725798141125,65.0841565290578],[-147.725981071355,65.0842070200555]],[[-147.725981071355,65.0842070200555],[-147.72604724575,65.0842252858171],[-147.726067563845,65.0842313250773]],[[-147.725981071355,65.0842070200555],[-147.726067563845,65.0842313250773]],[[-147.726067563845,65.0842313250773],[-147.726092882862,65.0842384398826],[-147.726294215978,65.0842986980442]],[[-147.726067563845,65.0842313250773],[-147.726294215978,65.0842986980442]],[[-147.726294215978,65.0842986980442],[-147.726325106346,65.0843078799039],[-147.726328222602,65.0843088759739]],[[-147.726294215978,65.0842986980442],[-147.726328222602,65.0843088759739]],[[-147.726328222602,65.0843088759739],[-147.726563777937,65.0843838180235]],[[-147.726328222602,65.0843088759739],[-147.730140760702,65.0867752799524],[-147.731063417636,65.0928500248907],[-147.749985069945,65.1012669020563]],[[-147.749985069945,65.1012669020563],[-147.749907907357,65.1012324778249]],[[-147.749985069945,65.1012669020563],[-147.766217655875,65.1078470178348]],[[-147.750219691032,65.1013715681624],[-147.749985069945,65.1012669020563]],[[-147.766217655875,65.1078470178348],[-147.765806185254,65.1080582511472]],[[-147.766217655875,65.1078470178348],[-147.770934256681,65.1141301929279],[-147.781918152594,65.1176099701402]],[[-147.781918152594,65.1176099701402],[-147.782907481589,65.1166061678449]],[[-147.781918152594,65.1176099701402],[-147.798538435231,65.1184064039969],[-147.821917801068,65.1273464301032],[-147.852753418223,65.1320346180827],[-147.864471003263,65.1388610798324],[-147.860370621589,65.1431330660608],[-147.862904813023,65.1470389130039],[-147.859509198317,65.150360315019]],[[-147.781916780867,65.1176113618347],[-147.781918152594,65.1176099701402]],[[-147.859509100401,65.1503451320775],[-147.859509198317,65.150360315019]],[[-147.859509198317,65.150360315019],[-147.859509369895,65.1503872161242]],[[-147.859509198317,65.150360315019],[-147.859508724007,65.1503716368164],[-147.859509369895,65.1503872161242]],[[-147.859509369895,65.1503872161242],[-147.859511340799,65.1504347101362]],[[-147.859509369895,65.1503872161242],[-147.859509521711,65.1504107970382],[-147.859511340799,65.1504347101362]],[[-147.859511340799,65.1504347101362],[-147.859513372788,65.1504614329835]],[[-147.859511340799,65.1504347101362],[-147.859511990281,65.1504503550929],[-147.859513372788,65.1504614329835]],[[-147.859513372788,65.1504614329835],[-147.859519614283,65.1505113980069]],[[-147.859513372788,65.1504614329835],[-147.859514513649,65.1504764289935],[-147.859519614283,65.1505113980069]],[[-147.859519614283,65.1505113980069],[-147.859523033271,65.1505348410216]],[[-147.859519614283,65.1505113980069],[-147.859521809765,65.1505289768723],[-147.859523033271,65.1505348410216]],[[-147.859523033271,65.1505348410216],[-147.85953740901,65.1506037490198]],[[-147.859523033271,65.1505348410216],[-147.859524072621,65.1505419709405],[-147.85953740901,65.1506037490198]],[[-147.85953740901,65.1506037490198],[-147.859539470644,65.1506118411754]],[[-147.85953740901,65.1506037490198],[-147.85953817168,65.1506074058922],[-147.859539470644,65.1506118411754]],[[-147.859539470644,65.1506118411754],[-147.859556853045,65.1506725609535]],[[-147.859539470644,65.1506118411754],[-147.871756714815,65.1558903361509],[-147.903709326838,65.1561524600435],[-147.913671404387,65.1593212109322]],[[-147.913671404387,65.1593212109322],[-147.913548850826,65.1593003660127]],[[-147.913671404387,65.1593212109322],[-147.913689170369,65.1593242488337],[-147.913768778171,65.1593365351604]],[[-147.913768778171,65.1593365351604],[-147.913671404387,65.1593212109322]],[[-147.913768778171,65.1593365351604],[-147.913798195302,65.1593410738957]],[[-147.913798195302,65.1593410738957],[-147.913791148018,65.1593400549729],[-147.913768778171,65.1593365351604]],[[-147.913798195302,65.1593410738957],[-147.9138457054,65.1593484071196],[-147.913914100431,65.1593578438497]],[[-147.913914100431,65.1593578438497],[-147.913798195302,65.1593410738957]],[[-147.913914100431,65.1593578438497],[-147.930600102018,65.1533859630579],[-147.938289912615,65.1602479060787]],[[-147.938289912615,65.1602479060787],[-147.938852402612,65.1601803310803]],[[-147.938289912615,65.1602479060787],[-147.963625887294,65.1709726029148],[-147.970233341162,65.1767976620837],[-147.981156423825,65.1774553648431],[-147.97681307302,65.183885646952],[-147.976932743887,65.1847456370241],[-147.977436452623,65.1855677670716],[-147.977555579111,65.1856555089507],[-147.977630787863,65.1856949978665],[-147.977686192357,65.1857194009344],[-147.977776525145,65.1857528279247],[-147.97790890897,65.1857909100993],[-147.978052581025,65.1858209119363],[-147.978204764618,65.1858422551426],[-147.978800068275,65.1858402068923],[-147.989201960987,65.1843584841649],[-147.991995805064,65.184561000069],[-147.99832780133,65.1857403660883],[-147.998826332176,65.1857817500695],[-147.998935072343,65.1857786861695],[-147.99898880058,65.1857747849462],[-147.999015391611,65.1857722499801],[-147.999041757165,65.185769327832],[-147.999067864902,65.1857660241567],[-147.99909368428,65.1857623408392],[-147.999119183857,65.1857582839113],[-147.999144333092,65.1857538571428],[-147.999169101441,65.1857490658117],[-147.99919345926,65.1857439178348],[-147.999212154099,65.185739618114]],[[-147.99942671401,65.1856655048426],[-147.999436255017,65.1856607730622]],[[-147.99942671401,65.1856655048426],[-147.999923008052,65.1827567308205],[-148.008084377579,65.1805968640391],[-148.031567556323,65.1799107511576],[-148.047069292701,65.1837663051423],[-148.058589179209,65.1783964639135],[-148.075539668171,65.1771379348685],[-148.090627643224,65.1929588379556],[-148.081999173105,65.1977280038636]],[[-147.999426037579,65.1856658399993],[-147.99942671401,65.1856655048426]],[[-147.99940861116,65.1856741408769],[-147.999419107974,65.1856692779006],[-147.999426037579,65.1856658399993]],[[-147.99940861116,65.1856741408769],[-147.999426037579,65.1856658399993]],[[-147.99940807307,65.1856743900766],[-147.99940861116,65.1856741408769]],[[-147.999389919016,65.185682453816],[-147.999401286298,65.1856775339136],[-147.99940807307,65.1856743900766]],[[-147.999389919016,65.185682453816],[-147.99940807307,65.1856743900766]],[[-147.999389328823,65.1856827090477],[-147.999389919016,65.185682453816]],[[-147.999370709442,65.185690425187],[-147.999382807952,65.1856855320533],[-147.999389328823,65.1856827090477]],[[-147.999370709442,65.185690425187],[-147.999389328823,65.1856827090477]],[[-147.999369826398,65.1856907829636],[-147.999370709442,65.185690425187]],[[-147.977633868187,65.1856945790153],[-147.978054649845,65.1858194721656]],[[-147.999351032744,65.1856980478271],[-147.999363697193,65.1856932621409],[-147.999369826398,65.1856907829636]],[[-147.999351032744,65.1856980478271],[-147.999369826398,65.1856907829636]],[[-147.999349599033,65.1856985899585],[-147.999351032744,65.1856980478271]],[[-147.999330986838,65.1857052979854],[-147.999343972884,65.1857007158825],[-147.999349599033,65.1856985899585]],[[-147.999330986838,65.1857052979854],[-147.999349599033,65.1856985899585]],[[-147.999328668287,65.1857061168373],[-147.999330986838,65.1857052979854]],[[-147.999310676828,65.185712159828],[-147.999323660179,65.1857078849844],[-147.999328668287,65.1857061168373]],[[-147.999310676828,65.185712159828],[-147.999328668287,65.1857061168373]],[[-147.999307061109,65.1857133511593],[-147.999308081595,65.1857130310832],[-147.999310676828,65.185712159828]],[[-147.999307061109,65.1857133511593],[-147.999310676828,65.185712159828]],[[-147.999290235664,65.1857186099811],[-147.999302779738,65.1857147600214],[-147.999307061109,65.1857133511593]],[[-147.999290235664,65.1857186099811],[-147.999307061109,65.1857133511593]],[[-147.999284806246,65.1857202770904],[-147.999286205821,65.1857198699267],[-147.999290235664,65.1857186099811]],[[-147.999284806246,65.1857202770904],[-147.999290235664,65.1857186099811]],[[-147.99926984211,65.1857246239398],[-147.999281359411,65.1857213349621],[-147.999284806246,65.1857202770904]],[[-147.99926984211,65.1857246239398],[-147.999284806246,65.1857202770904]],[[-147.999261935139,65.1857268818129],[-147.99926377938,65.1857263860535],[-147.99926984211,65.1857246239398]],[[-147.999261935139,65.1857268818129],[-147.99926984211,65.1857246239398]],[[-147.999249748594,65.1857301658889],[-147.999259419856,65.1857276011353],[-147.999261935139,65.1857268818129]],[[-147.999249748594,65.1857301658889],[-147.999261935139,65.1857268818129]],[[-147.999238473839,65.1857331570329],[-147.999240825628,65.1857325700388],[-147.999249748594,65.1857301658889]],[[-147.999238473839,65.1857331570329],[-147.999249748594,65.1857301658889]],[[-147.999230330611,65.1857351868184],[-147.999236988025,65.1857335510013],[-147.999238473839,65.1857331570329]],[[-147.999230330611,65.1857351868184],[-147.999238473839,65.1857331570329]],[[-147.999214452888,65.1857390891786],[-147.999217376904,65.1857384169819],[-147.999230330611,65.1857351868184]],[[-147.999214452888,65.1857390891786],[-147.999230330611,65.1857351868184]],[[-147.999212154099,65.185739618114],[-147.999214452888,65.1857390891786]],[[-147.998991487441,65.1857743709972],[-147.999212154099,65.185739618114]],[[-148.081999173105,65.1977280038636],[-148.081991798835,65.1977090518173]],[[-148.081999173105,65.1977280038636],[-148.081999269225,65.1977282480511],[-148.081999510871,65.1977287530067]],[[-148.081999510871,65.1977287530067],[-148.081999173105,65.1977280038636]],[[-148.081999510871,65.1977287530067],[-148.082004990595,65.1977402060757]],[[-148.082004990595,65.1977402060757],[-148.082003020589,65.1977365379891],[-148.081999510871,65.1977287530067]],[[-148.082004990595,65.1977402060757],[-148.082005693976,65.1977416760988],[-148.082007471742,65.1977448271708]],[[-148.082007471742,65.1977448271708],[-148.082004990595,65.1977402060757]],[[-148.082007471742,65.1977448271708],[-148.082011832164,65.1977525529857]],[[-148.082011832164,65.1977525529857],[-148.082010325689,65.1977501420132],[-148.082007471742,65.1977448271708]],[[-148.082011832164,65.1977525529857],[-148.082013213773,65.1977550031486],[-148.082016762118,65.197760447996]],[[-148.082016762118,65.197760447996],[-148.082011832164,65.1977525529857]],[[-148.082016762118,65.197760447996],[-148.082019740932,65.1977650208531]],[[-148.082019740932,65.1977650208531],[-148.08201875009,65.1977636310965],[-148.082016762118,65.197760447996]],[[-148.082019740932,65.1977650208531],[-148.08202182143,65.197768212997],[-148.082027273305,65.197775575916]],[[-148.082027273305,65.197775575916],[-148.082019740932,65.1977650208531]],[[-148.082027273305,65.197775575916],[-148.082028759119,65.1977775829225]],[[-148.082028759119,65.1977775829225],[-148.082028282113,65.197776990166],[-148.082027273305,65.197775575916]],[[-148.082028759119,65.1977775829225],[-148.08203150437,65.1977812920781],[-148.08203888403,65.1977901691032]],[[-148.08203888403,65.1977901691032],[-148.082028759119,65.1977775829225]],[[-148.08203888403,65.1977901691032],[-148.082038914573,65.1977902071632]],[[-148.082038914573,65.1977902071632],[-148.082042251814,65.1977942219275],[-148.082054052982,65.1978069901099],[-148.082066890806,65.1978195800449],[-148.082080752709,65.1978319781669],[-148.082095620725,65.197844167142],[-148.082108006697,65.197853514054]],[[-148.082108006697,65.197853514054],[-148.082038914573,65.1977902071632]],[[-148.082108006697,65.197853514054],[-148.082111477787,65.1978561349119],[-148.082123188225,65.1978642989483]],[[-148.082123188225,65.1978642989483],[-148.082108006697,65.197853514054]],[[-148.082123188225,65.1978642989483],[-148.08212548342,65.1978658989711]],[[-148.08212548342,65.1978658989711],[-148.082124903109,65.1978655179954],[-148.082123188225,65.1978642989483]],[[-148.08212548342,65.1978658989711],[-148.082128305029,65.1978678671572],[-148.082137949342,65.1978740961656]],[[-148.082137949342,65.1978740961656],[-148.08212548342,65.1978658989711]],[[-148.082137949342,65.1978740961656],[-148.082144334567,65.1978782198212]],[[-148.082144334567,65.1978782198212],[-148.082142777786,65.1978772698317],[-148.082137949342,65.1978740961656]],[[-148.082144334567,65.1978782198212],[-148.082146082688,65.1978793491819],[-148.082152311606,65.1978830839478]],[[-148.082152311606,65.1978830839478],[-148.082144334567,65.1978782198212]],[[-148.082152311606,65.1978830839478],[-148.082164465812,65.1978903729761]],[[-148.082164465812,65.1978903729761],[-148.082161612763,65.1978887559975],[-148.082152311606,65.1978830839478]],[[-148.08216599744,65.1978912400625],[-148.082164465812,65.1978903729761]],[[-148.08216599744,65.1978912400625],[-148.109719751757,65.2043232890651],[-148.100857564255,65.2098564571422]],[[-148.082293415378,65.1979513071098],[-148.08216599744,65.1978912400625]],[[-148.100862533735,65.2098059650774],[-148.100857564255,65.2098564571422]],[[-148.100857564255,65.2098564571422],[-148.100858704217,65.209869332882]],[[-148.100857564255,65.2098564571422],[-148.100857752901,65.2098614591856],[-148.100858704217,65.209869332882]],[[-148.100858704217,65.209869332882],[-148.100858890168,65.209870876057]],[[-148.100858704217,65.209869332882],[-148.100858786862,65.2098702718948],[-148.100858890168,65.209870876057]],[[-148.100858890168,65.209870876057],[-148.100860829631,65.2098822101222]],[[-148.100858890168,65.209870876057],[-148.100859428259,65.2098753338244],[-148.100860829631,65.2098822101222]],[[-148.100860829631,65.2098822101222],[-148.100861452164,65.2098852599345]],[[-148.100860829631,65.2098822101222],[-148.100861146736,65.2098840621572],[-148.100861452164,65.2098852599345]],[[-148.100861452164,65.2098852599345],[-148.10086397104,65.2098951619347]],[[-148.100861452164,65.2098852599345],[-148.100862249867,65.2098891768166],[-148.10086397104,65.2098951619347]],[[-148.10086397104,65.2098951619347],[-148.100865226884,65.2098995330664]],[[-148.10086397104,65.2098951619347],[-148.100864643878,65.2098978090967],[-148.100865226884,65.2098995330664]],[[-148.100865226884,65.2098995330664],[-148.100868150901,65.2099081758897]],[[-148.100865226884,65.2098995330664],[-148.100866215031,65.2099029700825],[-148.100868150901,65.2099081758897]],[[-148.100868150901,65.2099081758897],[-148.10087019367,65.2099136728533]],[[-148.100868150901,65.2099081758897],[-148.100869273795,65.2099114968935],[-148.10087019367,65.2099136728533]],[[-148.10087019367,65.2099136728533],[-148.100873394367,65.2099212391805]],[[-148.10087019367,65.2099136728533],[-148.10087131836,65.2099166970492],[-148.100873394367,65.2099212391805]],[[-148.100873394367,65.2099212391805],[-148.100876329163,65.2099276619691]],[[-148.100873394367,65.2099212391805],[-148.100875031097,65.2099251089749],[-148.100876329163,65.2099276619691]],[[-148.100876329163,65.2099276619691],[-148.100879720303,65.2099343269477]],[[-148.100876329163,65.2099276619691],[-148.100877553567,65.2099303411438],[-148.100879720303,65.2099343269477]],[[-148.100879720303,65.2099343269477],[-148.100883610008,65.2099414868542]],[[-148.100879720303,65.2099343269477],[-148.100881907701,65.2099386298977],[-148.100883610008,65.2099414868542]],[[-148.100883610008,65.2099414868542],[-148.100887145777,65.209947422995]],[[-148.100883610008,65.2099414868542],[-148.100884912565,65.2099438861702],[-148.100887145777,65.209947422995]],[[-148.100887145777,65.209947422995],[-148.100892008358,65.2099551271696]],[[-148.100887145777,65.209947422995],[-148.100889897317,65.2099520419594],[-148.100892008358,65.2099551271696]],[[-148.100892008358,65.2099551271696],[-148.100895694145,65.2099605160225]],[[-148.100892008358,65.2099551271696],[-148.100893389068,65.2099573159321],[-148.100895694145,65.2099605160225]],[[-148.100895694145,65.2099605160225],[-148.100901493669,65.2099685659656]],[[-148.100895694145,65.2099605160225],[-148.100898988268,65.2099653300936],[-148.100901493669,65.2099685659656]],[[-148.100901493669,65.2099685659656],[-148.100905377086,65.2099735800408]],[[-148.100901493669,65.2099685659656],[-148.100902969601,65.2099706138569],[-148.100905377086,65.2099735800408]],[[-148.100905377086,65.2099735800408],[-148.100912044382,65.2099817930729]],[[-148.100905377086,65.2099735800408],[-148.100909169773,65.2099784781044],[-148.100912044382,65.2099817930729]],[[-148.100912044382,65.2099817930729],[-148.100916207175,65.2099865950871]],[[-148.100912044382,65.2099817930729],[-148.10091364518,65.2099837648782],[-148.100916207175,65.2099865950871]],[[-148.100916207175,65.2099865950871],[-148.100923621869,65.2099947870224]],[[-148.100916207175,65.2099865950871],[-148.100920431952,65.2099914701722],[-148.100923621869,65.2099947870224]],[[-148.100923621869,65.2099947870224],[-148.100928198786,65.2099995468486]],[[-148.100923621869,65.2099947870224],[-148.100925399635,65.2099967520469],[-148.100928198786,65.2099995468486]],[[-148.100928198786,65.2099995468486],[-148.100936200978,65.2100075399044]],[[-148.100928198786,65.2099995468486],[-148.100932758634,65.210004290101],[-148.100936200978,65.2100075399044]],[[-148.100936200978,65.2100075399044],[-148.10094135641,65.2100124078291]],[[-148.100936200978,65.2100075399044],[-148.100938223086,65.21000955992],[-148.10094135641,65.2100124078291]],[[-148.10094135641,65.2100124078291],[-148.100949745776,65.2100200351466]],[[-148.10094135641,65.2100124078291],[-148.100946138142,65.2100169228247],[-148.100949745776,65.2100200351466]],[[-148.100949745776,65.2100200351466],[-148.100955687233,65.2100251588194]],[[-148.100949745776,65.2100200351466],[-148.100952096667,65.2100221730551],[-148.100955687233,65.2100251588194]],[[-148.100955687233,65.2100251588194],[-148.100964226619,65.2100322640861]],[[-148.100955687233,65.2100251588194],[-148.100960549814,65.2100293540306],[-148.100964226619,65.2100322640861]],[[-148.100964226619,65.2100322640861],[-148.100971193054,65.2100377779735]],[[-148.100964226619,65.2100322640861],[-148.100967006006,65.2100345760092],[-148.100971193054,65.2100377779735]],[[-148.100971193054,65.2100377779735],[-148.100979606675,65.2100442131635]],[[-148.100971193054,65.2100377779735],[-148.100975981074,65.2100415678995],[-148.100979606675,65.2100442131635]],[[-148.100979606675,65.2100442131635],[-148.100982932238,65.2100467548465]],[[-148.100979606675,65.2100442131635],[-148.12502903756,65.210428259907],[-148.138680840934,65.2161929459005],[-148.129023153027,65.2243947570466]],[[-148.12904964704,65.2243680721636],[-148.129023153027,65.2243947570466]],[[-148.129023153027,65.2243947570466],[-148.128933600875,65.2244849569092]],[[-148.129023153027,65.2243947570466],[-148.128949148916,65.224467952957],[-148.128933600875,65.2244849569092]],[[-148.128933600875,65.2244849569092],[-148.128892052894,65.2245303991074]],[[-148.128933600875,65.2244849569092],[-148.128924353617,65.2244942710754],[-148.128892052894,65.2245303991074]],[[-148.128892052894,65.2245303991074],[-148.128844373912,65.2245837259799]],[[-148.128892052894,65.2245303991074],[-148.128853772087,65.2245722668306],[-148.128844373912,65.2245837259799]],[[-148.128844373912,65.2245837259799],[-148.128809910945,65.2246222710735]],[[-148.128844373912,65.2245837259799],[-148.128891386345,65.2303816418242],[-148.136815942895,65.2367181249143],[-148.141635605617,65.2469948951297],[-148.124304581317,65.2681289589745],[-148.132162399331,65.2774555579401]],[[-148.132072374665,65.2770197869719],[-148.132162399331,65.2774555579401]],[[-148.132162399331,65.2774555579401],[-148.138381076717,65.2841603909616]],[[-148.137077609561,65.2831617098495],[-148.138381076717,65.2841603909616]],[[-148.138381076717,65.2841603909616],[-148.13853394213,65.2842502160235]],[[-148.138381076717,65.2841603909616],[-148.138510217623,65.284237109058],[-148.13853394213,65.2842502160235]],[[-148.13853394213,65.2842502160235],[-148.138549941125,65.2842596169319]],[[-148.13853394213,65.2842502160235],[-148.182341010104,65.2913599039442],[-148.178858193238,65.2960339908953],[-148.181073260863,65.2984603619193],[-148.209976276651,65.3022460998199],[-148.212411632743,65.3044435489707],[-148.210034874656,65.3089929599424]],[[-148.210048759017,65.3089185781238],[-148.210034874656,65.3089929599424]],[[-148.210034874656,65.3089929599424],[-148.210035316627,65.3089979000855]],[[-148.210034874656,65.3089929599424],[-148.210034956402,65.3089949738998],[-148.210035316627,65.3089979000855]],[[-148.210035316627,65.3089979000855],[-148.210035816989,65.3090019550174]],[[-148.210035316627,65.3089979000855],[-148.210035532223,65.3090003099294],[-148.210035816989,65.3090019550174]],[[-148.210035816989,65.3090019550174],[-148.210055388584,65.3090583059717]],[[-148.210035816989,65.3090019550174],[-148.210041909363,65.3090285409601],[-148.210055388584,65.3090583059717]],[[-148.210055388584,65.3090583059717],[-148.210060704813,65.3090671051453]],[[-148.210055388584,65.3090583059717],[-148.210057204977,65.3090616201561],[-148.210060704813,65.3090671051453]],[[-148.210060704813,65.3090671051453],[-148.210063379996,65.309071295906]],[[-148.210060704813,65.3090671051453],[-148.210062258001,65.3090696778401],[-148.210063379996,65.309071295906]],[[-148.210063379996,65.309071295906],[-148.210065482054,65.3090743301543]],[[-148.210063379996,65.309071295906],[-148.210064131886,65.3090724760582],[-148.210065482054,65.3090743301543]],[[-148.210065482054,65.3090743301543],[-148.210070067954,65.3090809461355],[-148.210078815748,65.3090920920954],[-148.210088490604,65.3091031040877],[-148.210110571193,65.309124669132],[-148.210122949978,65.3091351959172],[-148.210150309068,65.3091556760991],[-148.21019759369,65.3091847719043]],[[-148.210065482054,65.3090743301543],[-148.231447437568,65.3099341648739],[-148.263584694705,65.3188377310628],[-148.277804130033,65.3110718141587],[-148.280566436057,65.3104104319301],[-148.280823041614,65.3104174539476],[-148.280916206791,65.3104568108311],[-148.280943270335,65.3104823060214],[-148.280951894162,65.3104978580528],[-148.280955054435,65.3105108780457]],[[-148.280955054435,65.3105108780457],[-148.280953470705,65.3105297061621]],[[-148.280955054435,65.3105108780457],[-148.28061129882,65.3104291869488],[-148.27784414369,65.3110936560033],[-148.264437122248,65.3184959480356]],[[-148.280955735358,65.3105306438528],[-148.280955054435,65.3105108780457]],[[-148.263801678271,65.3189205660393],[-148.276322094867,65.3228805510899],[-148.313679039912,65.3232374320391],[-148.309723368745,65.3284855170216]],[[-148.309723368745,65.3284855170216],[-148.309716335835,65.3292099580903]],[[-148.309723368745,65.3284855170216],[-148.307791389013,65.3348680921616],[-148.308766114995,65.3350797029978],[-148.300853460224,65.3436236799165],[-148.281414180682,65.3475269289952],[-148.270129906104,65.3517617519951],[-148.257518338354,65.3606081501394],[-148.261873404089,65.3696330678629],[-148.256622933612,65.3761802220976],[-148.258706671134,65.383158717857],[-148.242068212884,65.3895860089139],[-148.224477113733,65.4059751679196],[-148.230577226976,65.411221213184],[-148.241533729663,65.410564521827],[-148.243899239046,65.4138343989838],[-148.249148807616,65.4149227948804]],[[-148.307905848754,65.3348914389058],[-148.30860139182,65.3350436548364]],[[-148.296660298751,65.3448045701471],[-148.294907858108,65.3451092720236]],[[-148.249052812746,65.4148841951238],[-148.249148807616,65.4149227948804]],[[-148.249148807616,65.4149227948804],[-148.249149869424,65.4149232209424],[-148.249166171152,65.4149302371371]],[[-148.249148807616,65.4149227948804],[-148.249166171152,65.4149302371371]],[[-148.249166171152,65.4149302371371],[-148.249239568002,65.4149616969342],[-148.249244414413,65.4149639120798]],[[-148.249166171152,65.4149302371371],[-148.249244414413,65.4149639120798]],[[-148.249244414413,65.4149639120798],[-148.249249006601,65.4149658891541],[-148.249277487687,65.4149790368813]],[[-148.249244414413,65.4149639120798],[-148.249277487687,65.4149790368813]],[[-148.249277487687,65.4149790368813],[-148.249328340417,65.4150022908401],[-148.249336680376,65.4150063619626]],[[-148.249277487687,65.4149790368813],[-148.249336680376,65.4150063619626]],[[-148.249336680376,65.4150063619626],[-148.249344504702,65.4150099741349],[-148.249372834871,65.4150240079709]],[[-148.249336680376,65.4150063619626],[-148.249372834871,65.4150240079709]],[[-148.249372834871,65.4150240079709],[-148.249413916626,65.4150440600858],[-148.249425502198,65.4150500989263]],[[-148.249372834871,65.4150240079709],[-148.249425502198,65.4150500989263]],[[-148.249425502198,65.4150500989263],[-148.249436247845,65.4150554220596],[-148.249462081596,65.4150691680941]],[[-148.249425502198,65.4150500989263],[-148.249462081596,65.4150691680941]],[[-148.249462081596,65.4150691680941],[-148.24949621039,65.4150869579486],[-148.249510781963,65.4150950788637]],[[-148.249462081596,65.4150691680941],[-148.249510781963,65.4150950788637]],[[-148.249510781963,65.4150950788637],[-148.249524121945,65.4151021768606],[-148.249546751405,65.4151151238232]],[[-148.249510781963,65.4150950788637],[-148.249546751405,65.4151151238232]],[[-148.249546751405,65.4151151238232],[-148.24957513188,65.4151309410697],[-148.249592446008,65.4151412700008]],[[-148.249546751405,65.4151151238232],[-148.249592446008,65.4151412700008]],[[-148.249592446008,65.4151412700008],[-148.249608021897,65.415150182097],[-148.249627239556,65.4151620261432]],[[-148.249592446008,65.4151412700008],[-148.249627239556,65.4151620261432]],[[-148.249627239556,65.4151620261432],[-148.249650602042,65.4151759631004],[-148.249670414385,65.415188636079]],[[-148.249627239556,65.4151620261432],[-148.249670414385,65.415188636079]],[[-148.249670414385,65.415188636079],[-148.249687845295,65.4151993790854],[-148.249703675407,65.4152099109274]],[[-148.249670414385,65.415188636079],[-148.249703675407,65.4152099109274]],[[-148.249703675407,65.4152099109274],[-148.249722540028,65.4152219780661],[-148.249744636787,65.4152371628899]],[[-148.249703675407,65.4152099109274],[-148.249744636787,65.4152371628899]],[[-148.249744636787,65.4152371628899],[-148.249763492425,65.4152497069006],[-148.249776067042,65.4152587621]],[[-148.249744636787,65.4152371628899],[-148.249776067042,65.4152587621]],[[-148.249776067042,65.4152587621],[-148.249790872177,65.4152689358812],[-148.249815090757,65.4152868620129]],[[-148.249776067042,65.4152587621],[-148.249815090757,65.4152868620129]],[[-148.249815090757,65.4152868620129],[-148.249834871659,65.4153011061125],[-148.249844392005,65.4153085490093]],[[-148.249815090757,65.4152868620129],[-148.249844392005,65.4153085490093]],[[-148.249844392005,65.4153085490093],[-148.249855525724,65.4153167898241]],[[-148.249844392005,65.4153085490093],[-148.249738781568,65.4201930758262],[-148.239838293413,65.4299433729345],[-148.242424554795,65.4321525280933]],[[-148.242155327009,65.4320725918815],[-148.242424554795,65.4321525280933]],[[-148.242424554795,65.4321525280933],[-148.242860402099,65.4322816039642],[-148.242892713601,65.4322915279956]],[[-148.242424554795,65.4321525280933],[-148.242892713601,65.4322915279956]],[[-148.242892713601,65.4322915279956],[-148.243117726309,65.4323583361142]],[[-148.242892713601,65.4322915279956],[-148.245976249984,65.4394386189316],[-148.242556416698,65.4593703850585],[-148.256674657707,65.4638094131472]],[[-148.256674657707,65.4638094131472],[-148.273379897614,65.4731148980712],[-148.288795845781,65.4750698381607]],[[-148.256924134235,65.4638440451808],[-148.256674657707,65.4638094131472]],[[-148.26903158721,65.4707794740118],[-148.269828099118,65.4712815701114]],[[-148.288795845781,65.4750698381607],[-148.288795987714,65.4750700618893]],[[-148.288795845781,65.4750698381607],[-148.345371244708,65.4682668101828],[-148.355275741145,65.469975305955],[-148.372629537738,65.4826891639819],[-148.407216017361,65.4862546030632],[-148.432843109074,65.4834902418407],[-148.452972504062,65.4868164890248],[-148.457820872449,65.4866676291227],[-148.500779858929,65.492700917969],[-148.544675629249,65.4899655418514],[-148.570733851213,65.496957542012],[-148.582287870108,65.5043782788154]],[[-148.364130466342,65.4781022688404],[-148.364292456842,65.4782518449176]],[[-148.457281040658,65.4870179550981],[-148.457742715426,65.4867187511005]],[[-148.654596133851,65.489117004906],[-148.654911602416,65.4891088510273]],[[-148.654596133851,65.489117004906],[-148.69015740683,65.497374608832],[-148.699588171313,65.5026542021495]],[[-148.65425467972,65.4891258299797],[-148.654596133851,65.489117004906]],[[-148.773145937717,65.4992877910766],[-148.773199597682,65.4994784681745]],[[-148.773199597682,65.4994784681745],[-148.773222352906,65.4995593240407]],[[-148.773199597682,65.4994784681745],[-148.783464208954,65.4997959911539],[-148.793018462144,65.5069966608886],[-148.795846846443,65.5135416488303],[-148.803643457745,65.5168171411152]],[[-148.700241772039,65.5026520178832],[-148.699588171313,65.5026542021495]],[[-148.700241772039,65.5026520178832],[-148.748618833967,65.5043529990071],[-148.773199597682,65.4994784681745]],[[-148.699588171313,65.5026542021495],[-148.699583258426,65.5026542181665]],[[-148.699588171313,65.5026542021495],[-148.69989480315,65.5026568989582],[-148.700241772039,65.5026520178832]],[[-148.581991034399,65.5041953169914],[-148.582287870108,65.5043782788154]],[[-148.582287870108,65.5043782788154],[-148.582470573962,65.5044908930763]],[[-148.582287870108,65.5043782788154],[-148.582362685398,65.5044277511416],[-148.582470573962,65.5044908930763]],[[-148.582470573962,65.5044908930763],[-148.582546710674,65.5045378209113]],[[-148.582470573962,65.5044908930763],[-148.585560932151,65.5060086879599]],[[-148.585406926776,65.5059472979316],[-148.585560932151,65.5060086879599]],[[-148.585560932151,65.5060086879599],[-148.58574348958,65.5060814610569]],[[-148.585560932151,65.5060086879599],[-148.585615969234,65.5060316581591],[-148.58574348958,65.5060814610569]],[[-148.58574348958,65.5060814610569],[-148.586071969343,65.506212401171]],[[-148.58574348958,65.5060814610569],[-148.600854809152,65.5097672981403]],[[-148.601510246933,65.5097579400804],[-148.601348368722,65.5097611198848]],[[-148.601348368722,65.5097611198848],[-148.646757372698,65.4895578040004],[-148.654596133851,65.489117004906]],[[-148.601348368722,65.5097611198848],[-148.601241931836,65.5097632100873]],[[-148.601241931836,65.5097632100873],[-148.60128136608,65.5097627911531],[-148.601348368722,65.5097611198848]],[[-148.601241931836,65.5097632100873],[-148.601181232672,65.5097644028397],[-148.600872705389,65.5097671391316]],[[-148.600872705389,65.5097671391316],[-148.601241931836,65.5097632100873]],[[-148.600872705389,65.5097671391316],[-148.600854809152,65.5097672981403]],[[-148.600854809152,65.5097672981403],[-148.600857028889,65.5097673059605],[-148.600872705389,65.5097671391316]],[[-148.600854809152,65.5097672981403],[-148.60085192556,65.5097673230902]],[[-148.801629820255,65.5160877770437],[-148.802200889163,65.51629440818]],[[-148.803342667652,65.5167067768945],[-148.803643457745,65.5168171411152]],[[-148.803643457745,65.5168171411152],[-148.804502614567,65.5171323770292]],[[-148.803643457745,65.5168171411152],[-148.817866952559,65.5139902049628],[-148.857028445025,65.522144244178],[-148.860468661085,65.526169361012],[-148.859025124119,65.5289054269901],[-148.865018777119,65.5341101420984],[-148.886414033988,65.5396881720439],[-148.89296483111,65.5477363390635],[-148.913571085987,65.5559809739078],[-148.91553902528,65.5583439869794],[-148.912998825015,65.5615646488754],[-148.916767888249,65.5654087828787],[-148.94009619115,65.5746230158608]],[[-148.893532675964,65.5474167921328],[-148.893103019849,65.5476591299839]],[[-149.033103654858,65.5739639648355],[-149.033870419056,65.5738811659577]],[[-149.02972153195,65.5743286560335],[-149.030743935117,65.5742183148621]],[[-148.940095400633,65.5746210021743],[-148.94009619115,65.5746230158608]],[[-148.94009619115,65.5746230158608],[-148.940106085195,65.5746482279752]],[[-148.94009619115,65.5746230158608],[-148.940096835242,65.5746250559208],[-148.940106085195,65.5746482279752]],[[-148.940106085195,65.5746482279752],[-148.940115348622,65.5746714360405]],[[-148.940106085195,65.5746482279752],[-148.940114468273,65.5746695898861],[-148.940115348622,65.5746714360405]],[[-148.940115348622,65.5746714360405],[-148.940127350114,65.5746965779022]],[[-148.940115348622,65.5746714360405],[-148.94011609602,65.5746733059682],[-148.940127350114,65.5746965779022]],[[-148.940127350114,65.5746965779022],[-148.940138463172,65.574719558963]],[[-148.940127350114,65.5746965779022],[-148.940137518145,65.5747178810829],[-148.940138463172,65.574719558963]],[[-148.940138463172,65.574719558963],[-148.940152575705,65.5747446108852]],[[-148.940138463172,65.574719558963],[-148.940139285131,65.5747212598734],[-148.940152575705,65.5747446108852]],[[-148.940152575705,65.5747446108852],[-148.940165506954,65.5747673300255]],[[-148.940152575705,65.5747446108852],[-148.940164524197,65.5747658200476],[-148.940165506954,65.5747673300255]],[[-148.940165506954,65.5747673300255],[-148.940181747596,65.5747922860656]],[[-148.940165506954,65.5747673300255],[-148.94016637832,65.5747688611764],[-148.940181747596,65.5747922860656]],[[-148.940181747596,65.5747922860656],[-148.940196449424,65.5748146931399]],[[-148.940181747596,65.5747922860656],[-148.940195455887,65.5748133499492],[-148.940196449424,65.5748146931399]],[[-148.940196449424,65.5748146931399],[-148.940214853209,65.5748395688997]],[[-148.940196449424,65.5748146931399],[-148.940197343248,65.5748160560177],[-148.940214853209,65.5748395688997]],[[-148.940214853209,65.5748395688997],[-148.940231252853,65.5748615929612]],[[-148.940214853209,65.5748395688997],[-148.940230276384,65.5748604169286],[-148.940231252853,65.5748615929612]],[[-148.940231252853,65.5748615929612],[-148.940251859307,65.5748863980996]],[[-148.940231252853,65.5748615929612],[-148.94023214488,65.5748627901669],[-148.940251859307,65.5748863980996]],[[-148.940251859307,65.5748863980996],[-148.940269881308,65.5749079789741]],[[-148.940251859307,65.5748863980996],[-148.940268946162,65.5749069671273],[-148.940269881308,65.5749079789741]],[[-148.940269881308,65.5749079789741],[-148.940292735348,65.5749327179491]],[[-148.940269881308,65.5749079789741],[-148.940270742793,65.5749090108796],[-148.940292735348,65.5749327179491]],[[-148.940292735348,65.5749327179491],[-148.940312288078,65.5749537958343]],[[-148.940292735348,65.5749327179491],[-148.940311419407,65.5749529440866],[-148.940312288078,65.5749537958343]],[[-148.940312288078,65.5749537958343],[-148.940337512771,65.5749785429377]],[[-148.940312288078,65.5749537958343],[-148.940313093867,65.5749546650404],[-148.940337512771,65.5749785429377]],[[-148.940337512771,65.5749785429377],[-148.940358422856,65.5749989900553]],[[-148.940337512771,65.5749785429377],[-148.94035764761,65.5749982969204],[-148.940358422856,65.5749989900553]],[[-148.940358422856,65.5749989900553],[-148.940386240986,65.5750238801258]],[[-148.940358422856,65.5749989900553],[-148.940359149593,65.5749997010201],[-148.940386240986,65.5750238801258]],[[-148.940386240986,65.5750238801258],[-148.940408236235,65.5750435111227]],[[-148.940386240986,65.5750238801258],[-148.94040757777,65.5750429721424],[-148.940408236235,65.5750435111227]],[[-148.940408236235,65.5750435111227],[-148.940439014314,65.5750687581177]],[[-148.940408236235,65.5750435111227],[-148.940408856971,65.5750440660754],[-148.940439014314,65.5750687581177]],[[-148.940439014314,65.5750687581177],[-148.940461669825,65.5750873088934]],[[-148.940439014314,65.5750687581177],[-148.940461152395,65.5750869170098],[-148.940461669825,65.5750873088934]],[[-148.940461669825,65.5750873088934],[-148.940496440016,65.5751135691707]],[[-148.940461669825,65.5750873088934],[-148.940462159407,65.5750877089491],[-148.940496440016,65.5751135691707]],[[-148.940496440016,65.5751135691707],[-148.940518306807,65.5751300828658]],[[-148.940496440016,65.5751135691707],[-148.948963868256,65.5782538169175],[-148.959102683049,65.5767221790328],[-148.972166914566,65.5762329939668],[-148.973062583413,65.5762185599077],[-148.987288014096,65.5786270920317],[-148.997863994921,65.5772083129442],[-149.015249749978,65.5758881641114],[-149.041431344766,65.573065635962],[-149.044255660596,65.5729894640952],[-149.071504395551,65.5791435731442],[-149.073674593225,65.5805423201658],[-149.080880626906,65.58819105611],[-149.080941501241,65.5882581060337],[-149.081236917613,65.5889603890009],[-149.065318488707,65.5973321689225],[-149.070628548929,65.6116203911489],[-149.030264386571,65.6260677180342],[-149.028903146963,65.6297587981802],[-149.033376845113,65.6339241349496],[-149.028088484595,65.6416929870688],[-149.032586386952,65.6492684940833],[-149.041027478384,65.6546824948347],[-149.080271381396,65.6547265451257],[-149.085667384339,65.6571323750641],[-149.086811541567,65.6624173349959],[-149.090805325556,65.6634828339404],[-149.099501851143,65.666745821034],[-149.100168009418,65.6671095160609],[-149.100610853701,65.668559791108],[-149.090612528232,65.6777918448791],[-149.088212440897,65.6849782958665],[-149.134619768699,65.6977548870813],[-149.179871132715,65.70557856613],[-149.182208464643,65.7101250708644],[-149.214192179935,65.7185463989128],[-149.228313638709,65.7123597111703],[-149.292414179855,65.7176932408458],[-149.297408493933,65.7218383130887],[-149.291956993071,65.7314590820676],[-149.29302037828,65.7372408849761],[-149.313155034701,65.7359293359986],[-149.339129335153,65.7443628899814],[-149.351659064583,65.7419950858732],[-149.365952088102,65.7440748778589],[-149.360875350902,65.7541498989722],[-149.390385014273,65.7648416999547],[-149.372826268846,65.7742209338284],[-149.37595952159,65.7798523208795],[-149.388476711437,65.7819046171041],[-149.39263001017,65.787077249997],[-149.406236147686,65.7908487620177],[-149.4408651293,65.7844555669875],[-149.452274984762,65.7948269569235],[-149.450727722923,65.7972147709413]],[[-148.966987145992,65.5764285260203],[-148.968006656585,65.5763905241523]],[[-149.078219601439,65.5853671108361],[-149.078531583642,65.5856982291205]],[[-149.079218627748,65.5864273799617],[-149.079482635423,65.5867075548777]],[[-149.092978651164,65.6642983749167],[-149.092586526661,65.6641511991844]],[[-149.096034717066,65.6654433380888],[-149.097456329749,65.6659768138935]],[[-149.094439649583,65.6740186798738],[-149.093963424803,65.6744398891491]],[[-149.209714969372,65.7173957511153],[-149.210442028034,65.7175873299425]],[[-149.450755734191,65.7972078060298],[-149.450727722923,65.7972147709413]],[[-149.450727722923,65.7972147709413],[-149.450644997967,65.7972353401052]],[[-149.450727722923,65.7972147709413],[-149.450693274329,65.7972229589083],[-149.450644997967,65.7972353401052]],[[-149.450644997967,65.7972353401052],[-149.450599000631,65.7972471368367]],[[-149.450644997967,65.7972353401052],[-149.450617064853,65.7972422858587],[-149.450599000631,65.7972471368367]],[[-149.450599000631,65.7972471368367],[-149.450502288008,65.7972731089984]],[[-149.450599000631,65.7972471368367],[-149.45056200711,65.797256624083],[-149.450502288008,65.7972731089984]],[[-149.450502288008,65.7972731089984],[-149.450469671078,65.7972821130531]],[[-149.450502288008,65.7972731089984],[-149.450481395889,65.7972787200984],[-149.450469671078,65.7972821130531]],[[-149.450469671078,65.7972821130531],[-149.450366109699,65.797312082107]],[[-149.450469671078,65.7972821130531],[-149.450433567787,65.797292079049],[-149.450366109699,65.797312082107]],[[-149.450366109699,65.797312082107],[-149.450340546341,65.7973196620153]],[[-149.450366109699,65.797312082107],[-149.450348889893,65.7973170649155],[-149.450340546341,65.7973196620153]],[[-149.450340546341,65.7973196620153],[-149.45023741256,65.7973517640919]],[[-149.450340546341,65.7973196620153],[-149.45030810099,65.79732928292],[-149.45023741256,65.7973517640919]],[[-149.45023741256,65.7973517640919],[-149.450212360343,65.7973597321534]],[[-149.45023741256,65.7973517640919],[-149.450219707664,65.7973572750032],[-149.450212360343,65.7973597321534]],[[-149.450212360343,65.7973597321534],[-149.450117467706,65.7973914570639]],[[-149.450212360343,65.7973597321534],[-149.450185747753,65.7973681951778],[-149.450117467706,65.7973914570639]],[[-149.450117467706,65.7973914570639],[-149.450085747295,65.7974022641628]],[[-149.450117467706,65.7973914570639],[-149.450094003711,65.7973993021085],[-149.450085747295,65.7974022641628]],[[-149.450085747295,65.7974022641628],[-149.450008177771,65.7974300911787]],[[-149.450085747295,65.7974022641628],[-149.450066646418,65.7974087708849],[-149.450008177771,65.7974300911787]],[[-149.450008177771,65.7974300911787],[-149.449961259662,65.7974471991071]],[[-149.450008177771,65.7974300911787],[-149.449971929851,65.7974430939272],[-149.449961259662,65.7974471991071]],[[-149.449961259662,65.7974471991071],[-149.449912526058,65.7974659458541]],[[-149.449961259662,65.7974471991071],[-149.449950929934,65.7974509658403],[-149.449912526058,65.7974659458541]],[[-149.449912526058,65.7974659458541],[-149.449839397803,65.7974944699476]],[[-149.449912526058,65.7974659458541],[-149.449853634304,65.7974885999964],[-149.449839397803,65.7974944699476]],[[-149.449839397803,65.7974944699476],[-149.449835639252,65.797496020021]],[[-149.449839397803,65.7974944699476],[-149.449838731254,65.7974947310552],[-149.449835639252,65.797496020021]],[[-149.449835639252,65.797496020021],[-149.449739259006,65.7975357628561],[-149.449628942295,65.7975845279927],[-149.449522815328,65.7976348361047],[-149.449421008358,65.7976866249451],[-149.44932364266,65.7977398330034]],[[-149.449835639252,65.797496020021],[-149.441886448202,65.8006786698361]],[[-149.441891579378,65.8006721830882],[-149.441886448202,65.8006786698361]],[[-149.441886448202,65.8006786698361],[-149.441881343076,65.8006856930939],[-149.441866855945,65.8007034421575]],[[-149.441886448202,65.8006786698361],[-149.441866855945,65.8007034421575]],[[-149.441866855945,65.8007034421575],[-149.441856454352,65.8007165931228],[-149.44185199242,65.8007216511279]],[[-149.441866855945,65.8007034421575],[-149.44185199242,65.8007216511279]],[[-149.44185199242,65.8007216511279],[-149.441845703315,65.8007293548625],[-149.44182764628,65.8007492469912]],[[-149.44185199242,65.8007216511279],[-149.44182764628,65.8007492469912]],[[-149.44182764628,65.8007492469912],[-149.441817724387,65.8007604938197],[-149.441813602917,65.8007647181453]],[[-149.44182764628,65.8007492469912],[-149.441813602917,65.8007647181453]],[[-149.441813602917,65.8007647181453],[-149.441806534972,65.8007725039821],[-149.441785961755,65.8007930471061]],[[-149.441813602917,65.8007647181453],[-149.441785961755,65.8007930471061]],[[-149.441785961755,65.8007930471061],[-149.441775431704,65.800803839153],[-149.441771191656,65.8008077950329]],[[-149.441785961755,65.8007930471061],[-149.441771191656,65.8008077950329]],[[-149.441771191656,65.8008077950329],[-149.441763882962,65.8008150940587],[-149.441742273988,65.8008347780723]],[[-149.441771191656,65.8008077950329],[-149.441742273988,65.8008347780723]],[[-149.441742273988,65.8008347780723],[-149.441729626607,65.8008465779419],[-149.441724686772,65.8008507978346]],[[-149.441742273988,65.8008347780723],[-149.441724686772,65.8008507978346]],[[-149.441724686772,65.8008507978346],[-149.441717794897,65.8008570761206],[-149.441697070763,65.8008743879798]],[[-149.441724686772,65.8008507978346],[-149.441697070763,65.8008743879798]],[[-149.441697070763,65.8008743879798],[-149.441680360302,65.8008886630561],[-149.441674019993,65.8008936440679]],[[-149.441697070763,65.8008743879798],[-149.441674019993,65.8008936440679]],[[-149.441674019993,65.8008936440679],[-149.441668321081,65.8008984048788],[-149.441650872205,65.8009118311784]],[[-149.441674019993,65.8008936440679],[-149.441650872205,65.8009118311784]],[[-149.441650872205,65.8009118311784],[-149.441627684891,65.8009300481024],[-149.441619141014,65.8009362449909]],[[-149.441650872205,65.8009118311784],[-149.441619141014,65.8009362449909]],[[-149.441619141014,65.8009362449909],[-149.441615518108,65.8009390328353],[-149.441604213709,65.8009470741687]],[[-149.441619141014,65.8009362449909],[-149.441604213709,65.8009470741687]],[[-149.441604213709,65.8009470741687],[-149.441571662356,65.8009706859511],[-149.44156000402,65.8009785181221]],[[-149.441604213709,65.8009470741687],[-149.44156000402,65.8009785181221]],[[-149.44156000402,65.8009785181221],[-149.441559442573,65.800978916911],[-149.441557657621,65.8009800941299]],[[-149.44156000402,65.8009785181221],[-149.441557657621,65.8009800941299]],[[-149.441557657621,65.8009800941299],[-149.441512353785,65.8010105298411],[-149.441449828346,65.8010495381667],[-149.441384151617,65.8010876641671]],[[-149.441557657621,65.8009800941299],[-149.44019492142,65.8043470200638],[-149.499292933395,65.8336486611607],[-149.546727234095,65.8217435809586],[-149.576189230162,65.8209238081346],[-149.634169959808,65.833043805825],[-149.661950872908,65.8468790869402],[-149.708507618389,65.8476874299766],[-149.730002917038,65.8551312941403]],[[-149.730002917038,65.8551312941403],[-149.738146274446,65.8619541270411]],[[-149.730002917038,65.8551312941403],[-149.727175371765,65.8555840268231],[-149.73448563068,65.863238774181],[-149.736816375261,65.8628655699454]],[[-149.738146274446,65.8619541270411],[-149.738959527357,65.8625224040452]],[[-149.738146274446,65.8619541270411],[-149.736816375261,65.8628655699454]],[[-149.739931140677,65.8623488641639],[-149.730002917038,65.8551312941403]],[[-149.739931140677,65.8623488641639],[-149.738146274446,65.8619541270411]],[[-149.738959527357,65.8625224040452],[-149.739931140677,65.8623488641639]],[[-149.738959527357,65.8625224040452],[-149.733465986238,65.8682317539185]],[[-149.736816375261,65.8628655699454],[-149.738959527357,65.8625224040452]],[[-149.736816375261,65.8628655699454],[-149.728138123204,65.8690391970546]],[[-149.733465986238,65.8682317539185],[-149.730408147961,65.8674842180875],[-149.728138123204,65.8690391970546]],[[-149.733465986238,65.8682317539185],[-149.730983196405,65.8697347430238]],[[-149.735198963982,65.8686554079269],[-149.743225001414,65.8631540469965],[-149.739931140677,65.8623488641639]],[[-149.735198963982,65.8686554079269],[-149.733465986238,65.8682317539185]],[[-149.728138123204,65.8690391970546],[-149.730983196405,65.8697347430238]],[[-149.728138123204,65.8690391970546],[-149.720346803878,65.8745984011408]],[[-149.730983196405,65.8697347430238],[-149.735198963982,65.8686554079269]],[[-149.730983196405,65.8697347430238],[-149.726407471198,65.8725839559017]],[[-149.726407471198,65.8725839559017],[-149.724109313004,65.8720221070865],[-149.720346803878,65.8745984011408]],[[-149.726407471198,65.8725839559017],[-149.722965415389,65.8752386239074]],[[-149.728904538855,65.8731944341641],[-149.735198963982,65.8686554079269]],[[-149.728904538855,65.8731944341641],[-149.726407471198,65.8725839559017]],[[-149.720346803878,65.8745984011408],[-149.722965415389,65.8752386239074]],[[-149.720346803878,65.8745984011408],[-149.713805462422,65.8790774389373],[-149.716447571166,65.8797234400642]],[[-149.722965415389,65.8752386239074],[-149.728904538855,65.8731944341641]],[[-149.722965415389,65.8752386239074],[-149.717769131289,65.8796226379685]],[[-149.71691907979,65.8793474630075],[-149.716447571166,65.8797234400642]],[[-149.716447571166,65.8797234400642],[-149.718841665839,65.8803088009705],[-149.728904538855,65.8731944341641]],[[-149.716447571166,65.8797234400642],[-149.715242541399,65.8831557039254],[-149.71912092601,65.8861135218268],[-149.747417638271,65.8923054240171],[-149.782571633965,65.9082978360696],[-149.828830754118,65.9222305240855],[-149.861503173603,65.9359165551502],[-149.927565591312,65.9506229141745],[-149.944325024783,65.9580588088645],[-149.985924212554,65.9653211191203],[-150.022845345329,65.9915480918857],[-150.061347052168,65.996959824169],[-150.083642600614,66.0065170021251],[-150.103067831403,66.0203835858788],[-150.124707297078,66.0280933020643],[-150.152600991865,66.0484348999598],[-150.161062499309,66.0637016931588],[-150.166609852208,66.0805555789591],[-150.149392702845,66.0998617598733],[-150.164922100147,66.1146014779673],[-150.168042773783,66.1343003860493],[-150.18316296332,66.1522642889016],[-150.207689239721,66.1703782379322],[-150.218515198332,66.1957027879636],[-150.230913913869,66.2065279141177],[-150.306597052014,66.2375685178342],[-150.308826084848,66.2426944431708],[-150.331386267994,66.259805778829],[-150.399190459751,66.3037756240573],[-150.404710334084,66.3169141661221],[-150.448962204667,66.3386077161207],[-150.452947311829,66.3469553429454],[-150.464188947872,66.3575211058441],[-150.510166185672,66.3827262878652],[-150.512540356611,66.3936290851467],[-150.619043672567,66.4327697658385],[-150.63402382643,66.4428310668502],[-150.661016387917,66.4722688909109],[-150.685903455584,66.4783932158705],[-150.739664923206,66.5111925510623],[-150.789574652045,66.5342954829591],[-150.815524167978,66.5591617998447],[-150.804237582933,66.5704286040627],[-150.771962463146,66.5816700859917],[-150.722993098831,66.590342191128],[-150.716086965911,66.603698523971],[-150.700887962683,66.6062322058303],[-150.684551273689,66.6147348799593],[-150.683906258162,66.6216121040925],[-150.6631638663,66.6462792220049],[-150.662670004896,66.6532179340646],[-150.666145963124,66.6576377760652],[-150.659306144737,66.6730705979382],[-150.665898566196,66.6807490028681],[-150.656767500354,66.6877060608374],[-150.666011390105,66.6905933338965],[-150.667269964852,66.6944687428674],[-150.662634488204,66.6991530490525],[-150.675166546068,66.7073443770116],[-150.666174516075,66.7149672839725],[-150.666786634398,66.732653008026],[-150.701451795661,66.7401502651053],[-150.672572438801,66.7484553960736],[-150.702230184058,66.7627221298972],[-150.686765008213,66.7771237440714],[-150.687604675188,66.790257697848],[-150.678672791895,66.8049737039709],[-150.670082527124,66.8087382569524],[-150.672555527118,66.816457666107],[-150.649188230147,66.8282017471059],[-150.607502108814,66.8351627429055],[-150.597049404694,66.8415392399407],[-150.57481952579,66.8481824240807],[-150.550759863094,66.8688905339858],[-150.538167027014,66.8746135270542],[-150.521862465369,66.8878949468554],[-150.501995169137,66.8974587411686],[-150.479795752104,66.897964875086],[-150.463771360622,66.9090981059933],[-150.441594345776,66.9168952299271],[-150.419766915712,66.9374559931394],[-150.418363728374,66.9446345308916],[-150.411666609166,66.9507392138492],[-150.390396915215,66.960121236999],[-150.360880216238,66.9664860268359],[-150.311257931222,66.986438227889],[-150.281174787864,67.0081973161392],[-150.289458135133,67.0159556499716],[-150.289974564912,67.0249942081446],[-150.317410533925,67.0468310770544],[-150.34390405073,67.0571885351367],[-150.343592854552,67.0625973408876],[-150.349674025919,67.0688178691597],[-150.348702233835,67.0921786780962],[-150.341941995402,67.1110586231621],[-150.346715917706,67.1277932370026],[-150.359577967198,67.1448000781302],[-150.36024886768,67.1551707748913],[-150.331551160951,67.1736881390602],[-150.307981406173,67.17827341407],[-150.284891649099,67.189526744118],[-150.256350731625,67.2186907711335],[-150.222606447733,67.2274504780604],[-150.212826520676,67.2433810601586],[-150.179043331648,67.2533063498371]],[[-162.599147221339,66.8975750001234],[-162.614230002333,66.8990449988661],[-162.655555459962,66.8828814298706],[-162.682079994695,66.8769316679387],[-162.755306683407,66.8697966668934],[-162.873693322675,66.874718333888],[-162.982113328139,66.8664399999434],[-163.564868933089,66.8588028000232],[-163.717935730094,66.8641825820849],[-164.048399969895,66.9107402100148],[-164.353864674752,66.9679195601705],[-164.514920202156,67.0117991770561],[-165.589472077551,67.4447061278901],[-166.603913654631,67.8462065619141],[-166.650005483325,67.8590015500971],[-166.910677271286,67.8965523671412]],[[-150.176977304411,67.2529904460352],[-150.179043331648,67.2533063498371]],[[-150.179043331648,67.2533063498371],[-150.176991654099,67.2543381761017]],[[-150.179043331648,67.2533063498371],[-150.1734265803,67.2570190341612],[-150.171481494147,67.2716901578292],[-150.160890737833,67.2793828949928],[-150.160450716956,67.2912206959108],[-150.167939462135,67.3121206100053],[-150.139263832402,67.3434266639822],[-150.126750769415,67.360720680828],[-150.122885544225,67.3737579799349],[-150.083793002847,67.4074373320474],[-150.076344532735,67.4174083528641],[-150.078030055178,67.4233240458784],[-150.073560475804,67.434181634153],[-150.080857200701,67.4400928068342],[-150.042249180044,67.4595005511444],[-149.984112749902,67.4695963200233],[-149.937843518312,67.4717681608831],[-149.867257939416,67.4931780729667],[-149.845271487784,67.5206521630234],[-149.855329879105,67.5374319720008],[-149.855613985687,67.5442628649665],[-149.830363282688,67.5582311929939],[-149.821970905995,67.5681855479056],[-149.787749610399,67.5901664411494],[-149.785812229996,67.6068811570047],[-149.795883047711,67.6176506271657],[-149.764147845953,67.6394625280862],[-149.709243606305,67.6546745351221],[-149.707069660859,67.6650185420078],[-149.717414153021,67.6715891148787],[-149.731395783632,67.6924982898305],[-149.735511795992,67.7082333610737],[-149.762995991959,67.7535101739847],[-149.763785030783,67.7602490179964],[-149.775162060007,67.7725136319121],[-149.815642610788,67.7988613170707],[-149.828913657839,67.8231819669219],[-149.82790118914,67.8368515859636],[-149.817689957559,67.8437454940226],[-149.827736280912,67.8535994258727],[-149.815690075073,67.9073590601513],[-149.82561466323,67.9294743780043],[-149.81360767065,67.9370393118616],[-149.797870765212,67.9390575370171],[-149.779367332567,67.951238095966],[-149.771927948914,67.9586503060385],[-149.759893235223,67.9925372090509],[-149.70973739225,68.0233125560268],[-149.69643257124,68.029196008911],[-149.626618361305,68.0381534011311],[-149.609631530998,68.0496359919387],[-149.615717528115,68.0533688768861],[-149.593468298601,68.0715986809233],[-149.554464500892,68.087890587947],[-149.530841679037,68.102770181925],[-149.529767630825,68.1055353681579],[-149.536956977402,68.1142407319203],[-149.543855154841,68.1178568621048],[-149.480725925181,68.1291990168487],[-149.481319919094,68.1337334339539],[-149.477154976399,68.1355316019358],[-149.457446337019,68.135968050167],[-149.448955743025,68.1316454948671],[-149.438113909385,68.1321025508842],[-149.444682995309,68.1404378880383],[-149.441468726204,68.1503900649482],[-149.43343861132,68.1597527521512],[-149.437107047072,68.1719230750622],[-149.423429576136,68.1823787991227],[-149.423608705593,68.1918509261272],[-149.405204338259,68.2033089579198],[-149.411594361201,68.2133754258354],[-149.405871335561,68.2194447900053],[-149.413248878291,68.2320699868574],[-149.423472518301,68.241039710138],[-149.420434487876,68.2537839048741],[-149.384362808322,68.279444253834],[-149.365463383028,68.2881106149087],[-149.355559203695,68.3125785959274],[-149.348233223365,68.320961872076],[-149.351507022026,68.3319237400414],[-149.345443148619,68.3405423778503],[-149.327300376983,68.353821295893],[-149.316581310704,68.3683152199557],[-149.315525074288,68.3749381358522],[-149.320764251146,68.3885233178908],[-149.322005357254,68.4053142900265],[-149.348131569109,68.4264604790021],[-149.367428907649,68.4332960389521],[-149.365538512728,68.4417301268482],[-149.382175507623,68.4619973840841],[-149.459848811178,68.4926794898549],[-149.467345543278,68.5262376879762],[-149.476848032846,68.534750649877],[-149.480553994822,68.5444304661156],[-149.506842863726,68.5779882471075],[-149.525189439743,68.5915379949899],[-149.536098936287,68.6063876488893],[-149.556193898849,68.6203877000959],[-149.560040604372,68.6253786951624],[-149.557165355862,68.63180475487],[-149.529477568413,68.6338524299792],[-149.506465051183,68.6423367299926],[-149.487350499141,68.6451399761411],[-149.404809519709,68.6470673998385],[-149.339909873218,68.6425570209044],[-149.220049622287,68.6707335461511],[-149.123339106246,68.687106828073],[-149.081578266641,68.686745344153],[-149.057759232066,68.6990324829983]],[[-166.910677271286,67.8965523671412],[-166.917246712044,67.907157533916],[-166.952322285712,67.9382093080064],[-167.031138434955,68.0329788709531],[-167.164458727693,68.1784518911221],[-167.166730764676,68.1848952910683],[-167.159717011788,68.2028068320378],[-167.163264990648,68.2057333270872]],[[-167.163264990648,68.2057333270872],[-167.446128332688,68.3405983329169],[-167.676746666612,68.6367333330757],[-167.702416667253,68.7528999998943],[-167.629698333363,69.0739133328995],[-167.27574500031,69.4963883330457],[-167.266198333393,69.5038616669485],[-166.199719032652,70.0876843909183],[-165.600163332888,70.4088483329358],[-165.584519999563,70.4143366669414],[-165.344125000365,70.4729016669909],[-164.977020000074,70.5203600000641],[-164.296062513117,70.6014021339985],[-163.323951666859,70.687291667006],[-161.764581667383,70.8233733329984],[-161.222201666633,70.859389999992],[-161.035251666667,70.8688533331339],[-160.463270518116,70.8650780959591],[-160.407806166312,70.8878605251002],[-160.258921570435,70.9274280799734],[-160.149869300132,70.9516217070565],[-160.100052372652,70.9669289319893],[-159.547975270411,71.1090800680174],[-159.385441897585,71.1481747780538],[-158.570903566032,71.2528260188853],[-158.481924554096,71.2655121450994],[-158.209783974903,71.3152826070154],[-157.881265867792,71.3614912019213],[-157.317692314293,71.4466874619236],[-157.238402568741,71.4538998161303]],[[-166.719408292707,68.3473952360519],[-166.720663661367,68.3321476588517],[-166.725051644967,68.3264210739558],[-166.787481667333,68.280900000103],[-166.824023332868,68.2651050000898],[-167.072618587866,68.2142737149542],[-167.144927733754,68.2054939181185],[-167.163264990648,68.2057333270872]],[[-149.057728499802,68.6990253318396],[-149.041541905818,68.7081208701498],[-149.0174455694,68.7158309670824],[-148.936561449864,68.7331642778485],[-148.858031649398,68.7760991249604],[-148.833504889704,68.8011955331343],[-148.814944164306,68.8106297339596],[-148.821905751127,68.8318377668641],[-148.822167513913,68.8468335980839],[-148.870292474437,68.8823473270327],[-148.867233768386,68.8999987400321],[-148.849194876134,68.9061504620062],[-148.844458303084,68.9112324551092],[-148.84772794075,68.9237765050357],[-148.858507859805,68.9300868958918],[-148.870453835218,68.9440241601131],[-148.870831796882,68.9528576288895],[-148.850781512928,68.9660037719802],[-148.840329698141,68.9768553821378],[-148.819625976954,68.9886442061356],[-148.813084256409,69.0024535088422],[-148.824951092042,69.016157084066],[-148.841901289951,69.0232637581401],[-148.823165208918,69.042524491844],[-148.813491827444,69.0627785280343],[-148.824281058435,69.0736102090396],[-148.818961483257,69.0879236369718],[-148.8517197727,69.1117623420323],[-148.841223441899,69.1431499130436],[-148.829340907308,69.15780096793],[-148.837445090084,69.172087544074],[-148.836497694446,69.1807355901541],[-148.785988234154,69.2203402660005],[-148.769905974998,69.2536607629458],[-148.769504699358,69.2784771008485],[-148.74892620422,69.2976390938455],[-148.723204979845,69.3152207320672],[-148.725699230385,69.3335764629526],[-148.736439487922,69.340345414123],[-148.754557577446,69.3455165221526],[-148.756999986211,69.3651804229507],[-148.721364357879,69.4123501979805],[-148.667203936761,69.4236575939842],[-148.654667546323,69.4283485109297],[-148.641594804167,69.4403936949139],[-148.626380228643,69.4466548328626],[-148.568305676254,69.4569461258986],[-148.556726710245,69.476049933998],[-148.587393768419,69.5225890638589]],[[-148.587393768419,69.5225890638589],[-148.58739368757,69.5225890409176]],[[-148.587393768419,69.5225890638589],[-148.61232227537,69.5600933759629],[-148.636264944178,69.5853472408485],[-148.637971655183,69.5942067970358],[-148.647588324217,69.6093168280114],[-148.703763116748,69.6581356669476],[-148.710314566946,69.6826123341092],[-148.709578652693,69.6970056429071],[-148.712691984397,69.7105326738452],[-148.713368251414,69.7176423640305],[-148.712998557844,69.718720656077],[-148.712749478372,69.7190726200855],[-148.712220005055,69.7196184278776]],[[-148.71175491669,69.7184787439663],[-148.70613036527,69.7180033268467]],[[-148.712220005055,69.7196184278776],[-148.711867283355,69.7185039120247]],[[-148.7121781238,69.7196629750959],[-148.712220005055,69.7196184278776]],[[-148.470856482742,70.1993574358731],[-148.470872664993,70.1993558860582],[-148.470881051665,70.199365966091],[-148.47084463576,70.1993585721402],[-148.470856482742,70.1993574358731]],[[-148.470856482742,70.1993574358731],[-148.470360797758,70.1990037439799],[-148.462893354329,70.1996844941135]],[[-148.47086073357,70.1993604688602],[-148.470856482742,70.1993574358731]],[[-148.462893354329,70.1996844941135],[-148.462863267954,70.1996872370564]],[[-148.462893354329,70.1996844941135],[-148.462858931786,70.199681704004],[-148.462863267954,70.1996872370564]],[[-148.462863267954,70.1996872370564],[-148.462896973641,70.1996883428756],[-148.462893354329,70.1996844941135]],[[-148.462863267954,70.1996872370564],[-148.428738143297,70.2027981641244],[-148.409331124054,70.1985175770764],[-148.425734174292,70.1964679980195],[-148.435123546203,70.1886084708693],[-148.43413943642,70.1796568130176],[-148.456681117864,70.1689029139322],[-148.459108741257,70.14917919713],[-148.503321446193,70.1175542519875],[-148.510741776578,70.1009649150026],[-148.516009089569,70.0963707659711],[-148.545832052972,70.0828723680419],[-148.587790872283,70.0559389259318],[-148.64646949409,70.0300557420379],[-148.661986426369,70.0077612929445],[-148.679141226364,70.0004245539974],[-148.688874511993,69.9888767429754],[-148.724730239247,69.9672958590199],[-148.736290410704,69.9521573510518],[-148.762855541203,69.9340956400755],[-148.800789395103,69.8991972751489],[-148.76241455284,69.8484401399764],[-148.759242915982,69.8344334860272],[-148.761755011555,69.8276401369722],[-148.759516781769,69.813262735028],[-148.722969598783,69.7915604021261],[-148.697593588887,69.7540130871124],[-148.696377527808,69.7285467119602],[-148.712220005055,69.7196184278776]],[[-148.468676069426,70.2033892020122],[-148.468649016661,70.2033844129154],[-148.468684791169,70.2033834849726],[-148.468676069426,70.2033892020122]],[[-148.473745125132,70.2051468851458],[-148.464442470291,70.2026640840154],[-148.462863363175,70.1996876941121]],[[-148.473745125132,70.2051468851458],[-148.473742740105,70.205146677061],[-148.473733378762,70.205158318854],[-148.473767623439,70.2051599859651]],[[-148.473767623439,70.2051599859651],[-148.473745125132,70.2051468851458]],[[-148.473767623439,70.2051599859651],[-148.473755588709,70.2051535411199],[-148.473745125132,70.2051468851458]],[[-148.475882040225,70.2063213379102],[-148.473767623439,70.2051599859651]],[[-148.476139856712,70.206359218101],[-148.476130949916,70.2063549529174],[-148.476164014206,70.2063597699191],[-148.476148762609,70.2063634829795],[-148.476139856712,70.206359218101]],[[-148.476139856712,70.206359218101],[-148.47599876911,70.2063874721442]],[[-148.47599876911,70.2063874721442],[-148.475925647144,70.2063458390923]],[[-148.480298529166,70.2088088208868],[-148.47599876911,70.2063874721442]],[[-148.481022496725,70.2093371160105],[-148.480337085756,70.2088342769229]],[[-148.481514371055,70.209864243052],[-148.481053502077,70.2093637290096]],[[-148.48268059989,70.2119243250722],[-148.481532768552,70.2098921659423]],[[-148.483249888336,70.2130834659884],[-148.482695156191,70.2119525048884]],[[-148.483397301875,70.2135319420529],[-148.483260747172,70.2131118379317]],[[-148.483643109682,70.2137044881197],[-148.483659247916,70.2136984710646],[-148.483663427777,70.21370887494],[-148.483645053637,70.2137097090622],[-148.483643109682,70.2137044881197]],[[-148.483643109682,70.2137044881197],[-148.483465863094,70.2137120849266]],[[-148.483465863094,70.2137120849266],[-148.483408200236,70.2135602370515]],[[-148.484379368889,70.2164595631467],[-148.483465863094,70.2137120849266]],[[-148.484536600115,70.2167772318873],[-148.484390950868,70.2164879009502]],[[-148.484995155932,70.2171350580224],[-148.484561195988,70.2168044701294]],[[-148.486137892025,70.2177901688995],[-148.485034751873,70.2171603280429]],[[-148.486906687313,70.2182075220151],[-148.486182090035,70.2178145530835]],[[-148.488187717247,70.2188039341232],[-148.486954181242,70.2182311830391]],[[-148.489480171956,70.219354329886],[-148.488239724312,70.2188264820689]],[[-148.490012386931,70.21962744302],[-148.489530916888,70.2193771870132]],[[-148.490414094661,70.2198981120231],[-148.490054175659,70.2196523111317]],[[-148.491376002582,70.2206997368768],[-148.490447389819,70.2199244010059]],[[-148.491808188354,70.2208968591295],[-148.491823256694,70.2208903790767],[-148.491830242892,70.2209003531347],[-148.491812210111,70.2209019530083],[-148.491808188354,70.2208968591295]],[[-148.491808188354,70.2208968591295],[-148.491596697088,70.220920409151]],[[-148.491596697088,70.220920409151],[-148.491404575297,70.220726661995]],[[-148.492309741133,70.2216336640514],[-148.491596697088,70.220920409151]],[[-148.492591003649,70.2219457648651],[-148.492335616207,70.2216608980026]],[[-148.493613113965,70.2230475498504],[-148.492615129702,70.2219727758983]],[[-148.4936949972,70.2232472791173],[-148.493631249154,70.2230754670428]],[[-148.493624014123,70.2235593199261],[-148.493697213344,70.223275835854]],[[-148.492684971919,70.2248740460552],[-148.493610012083,70.2235874959945]],[[-148.492834422836,70.2248987780584],[-148.492838712292,70.2249001490691]],[[-148.492788498264,70.2249035530412],[-148.49271445283,70.2248931630225]],[[-148.492838850632,70.224916209126],[-148.492847609206,70.2249050629458],[-148.492805139554,70.2249138251314],[-148.492838850632,70.224916209126]],[[-148.49263424136,70.2250529379295],[-148.492809796421,70.2249222481321]],[[-148.492383358969,70.2253646328813],[-148.492602094249,70.2250793798953]],[[-148.492321278196,70.225506752023],[-148.492367051852,70.2253926569525]],[[-148.49233022901,70.2256565060484],[-148.492317134268,70.2255352260014]],[[-148.492510508311,70.2259137760404],[-148.492340992624,70.2256847649523]],[[-148.492622599194,70.2260368128859],[-148.49253437026,70.2259412179832]],[[-148.492892001253,70.2263955798962],[-148.492641117065,70.2260632499418]],[[-148.493095406782,70.2269517790807],[-148.492906472213,70.2264237189599]],[[-148.493779417277,70.2279567250199],[-148.493110022372,70.2269799340988]],[[-148.497297557696,70.2330891330882],[-148.493798413052,70.2279846048679]],[[-148.497737688168,70.2336031099158],[-148.497317847046,70.2331169060368]],[[-148.498037773982,70.2338473010568],[-148.497767100807,70.2336299069818]],[[-148.49885077267,70.2342843601207],[-148.498076874952,70.2338725569633]],[[-148.501997808266,70.2352350719857],[-148.501988348108,70.2352309440056],[-148.502022475105,70.2352350759348],[-148.502007266628,70.235239199965],[-148.501997808266,70.2352350719857]],[[-148.501997808266,70.2352350719857],[-148.501848572944,70.2352887639026]],[[-148.501848572944,70.2352887639026],[-148.498902085338,70.2343069588713]],[[-148.504738416383,70.2361012900548],[-148.504726200193,70.236097952938],[-148.504772358327,70.2360965851027],[-148.504751715042,70.2361049239453],[-148.504738416383,70.2361012900548]],[[-148.504689630676,70.2361223090789],[-148.504738416383,70.2361012900548]],[[-148.504689630676,70.2361223090789],[-148.504571459995,70.236137323045],[-148.504393139022,70.2361183790249],[-148.501848572944,70.2352887639026]],[[-148.510530100259,70.2378923130089],[-148.510517828374,70.2378891110405],[-148.510553917292,70.2378903259783],[-148.510542371246,70.237895515888],[-148.510530100259,70.2378923130089]],[[-148.510530100259,70.2378923130089],[-148.510361782925,70.237965255002]],[[-148.510361782925,70.237965255002],[-148.504689630676,70.2361223090789]],[[-148.535159294846,70.2423289668976],[-148.535146371682,70.2423262560447],[-148.535182260276,70.2423259848683],[-148.535172218009,70.2423316780537],[-148.535159294846,70.2423289668976]],[[-148.535159294846,70.2423289668976],[-148.535061947113,70.242391832043]],[[-148.535061947113,70.242391832043],[-148.510361782925,70.237965255002]],[[-148.5426112082,70.243291693064],[-148.535061947113,70.242391832043]],[[-148.5426112082,70.243291693064],[-148.542648899712,70.2432905300663],[-148.542641935074,70.243295960931]],[[-148.542641935074,70.243295960931],[-148.5426112082,70.243291693064]],[[-148.542641935074,70.243295960931],[-148.542605124809,70.2432976528948],[-148.5426112082,70.243291693064]],[[-148.583433172688,70.2434928430014],[-148.583417856412,70.2434932939243],[-148.583415939407,70.2434869870762],[-148.583448488963,70.2434923920785],[-148.583433172688,70.2434928430014]],[[-148.583433172688,70.2434928430014],[-148.583476699657,70.2435763488912]],[[-148.58365411962,70.2435657660599],[-148.583683177425,70.2435545859419],[-148.583688870049,70.2435657818497]],[[-148.58365411962,70.2435657660599],[-148.583476699657,70.2435763488912]],[[-148.583688870049,70.2435657818497],[-148.58365411962,70.2435657660599]],[[-148.583688870049,70.2435657818497],[-148.583655026919,70.2435678958657],[-148.58365411962,70.2435657660599]],[[-148.583476699657,70.2435763488912],[-148.569710845276,70.2448202081426]],[[-148.569679775245,70.2447513038645],[-148.569664499394,70.2447518531369],[-148.569662420692,70.2447454771425],[-148.569695051097,70.2447507539847],[-148.569679775245,70.2447513038645]],[[-148.569679775245,70.2447513038645],[-148.569710845276,70.2448202081426]],[[-148.569710845276,70.2448202081426],[-148.550929984125,70.2452461189253]],[[-148.592643610076,70.2449209579134],[-148.592636664302,70.244916245868],[-148.592667078562,70.2449229309055],[-148.592650554951,70.2449256708685],[-148.592643610076,70.2449209579134]],[[-148.592643610076,70.2449209579134],[-148.5924342568,70.2449615198985]],[[-148.5924342568,70.2449615198985],[-148.583688870049,70.2435657818497]],[[-148.551105402642,70.2451838670198],[-148.551094601299,70.2451801360531],[-148.551129799987,70.2451831711072],[-148.551116205781,70.2451875979859],[-148.551105402642,70.2451838670198]],[[-148.551105402642,70.2451838670198],[-148.550929984125,70.2452461189253]],[[-148.550929984125,70.2452461189253],[-148.542641935074,70.243295960931]],[[-148.598226265867,70.2509506918821],[-148.598241797739,70.2509443648574],[-148.598247689789,70.2509545550572],[-148.598229169222,70.2509558238614],[-148.598226265867,70.2509506918821]],[[-148.598226265867,70.2509506918821],[-148.598004206821,70.2509643731101]],[[-148.598004206821,70.2509643731101],[-148.5924342568,70.2449615198985]],[[-148.600587812782,70.2545505149546],[-148.600621455587,70.2545490081337],[-148.60060086171,70.2545508011444]],[[-148.600587812782,70.2545505149546],[-148.600486672362,70.2545516360415]],[[-148.60060086171,70.2545508011444],[-148.600587812782,70.2545505149546]],[[-148.60060086171,70.2545508011444],[-148.600588858421,70.2545518460556],[-148.600587812782,70.2545505149546]],[[-148.600486672362,70.2545516360415],[-148.600467003749,70.2545518539463]],[[-148.600486672362,70.2545516360415],[-148.60046977056,70.254556435106],[-148.600467003749,70.2545518539463]],[[-148.600467003749,70.2545518539463],[-148.600482389195,70.2545449101264],[-148.600486672362,70.2545516360415]],[[-148.600467003749,70.2545518539463],[-148.600326630308,70.2545534090218],[-148.599277892129,70.2532333841396],[-148.598004206821,70.2509643731101]],[[-148.617099627442,70.2589552400534],[-148.63163263499,70.2630789191257],[-148.658600745234,70.2623320540779]],[[-148.658557618914,70.2622393659012],[-148.658556881397,70.2622373320742],[-148.658524784592,70.2622386620709],[-148.658526259626,70.2622427300278],[-148.658557618914,70.2622393659012]],[[-148.658600745234,70.2623320540779],[-148.658557618914,70.2622393659012]],[[-148.658600745234,70.2623320540779],[-148.701382329717,70.2604610410552],[-148.736530745077,70.2548807810435],[-148.838787206356,70.2584261340905],[-148.86783399032,70.2648998161445],[-148.913425309179,70.2864356451155],[-148.94583932917,70.2964259490369],[-148.963853506973,70.2939817030166],[-149.031943398024,70.2965385850844],[-149.10958578516,70.3122197700705],[-149.174489126422,70.3129256270654],[-149.21361765431,70.31775000502],[-149.247597339925,70.3141545600746],[-149.267754881826,70.3187335098542],[-149.294337985817,70.3174975599805],[-149.320848654155,70.3215597808703],[-149.37216110231,70.3198938598757],[-149.399315673163,70.3221755799528],[-149.427773763273,70.3144313209588],[-149.462704891436,70.3194626068549],[-149.487284463985,70.3191095830685],[-149.518632091207,70.3248347021311],[-149.594346955154,70.3257723931495]],[[-148.658695192306,70.2626119721162],[-148.658676475907,70.2626124120022],[-148.65867475204,70.262602021893],[-148.658693661577,70.262601592018],[-148.658695192306,70.2626119721162]],[[-148.658608655798,70.2626144500393],[-148.658600745234,70.2623320540779]],[[-148.658630283637,70.2629263389282],[-148.658609430146,70.2626302950275]],[[-148.658677031066,70.2637467088876],[-148.65863129514,70.2629421839794]],[[-148.658723897073,70.2645659201067],[-148.658677933873,70.2637625551265]],[[-148.658765586089,70.2653857650907],[-148.658724753167,70.2645817660175]],[[-148.655286760438,70.2665219538753],[-148.658749182851,70.2653992271175]],[[-148.653534107793,70.267088948897],[-148.655252899341,70.2665329201154]],[[-148.651783919226,70.2676558269761],[-148.653500237713,70.2670999130148]],[[-148.650027862864,70.2682235380157],[-148.651750042859,70.2676667889717]],[[-148.647785616711,70.2685339330566],[-148.649989163442,70.2682319821257]],[[-148.645536837111,70.2688418519997],[-148.647742145438,70.2685398880027]],[[-148.643284961018,70.2691502700656],[-148.645493363143,70.2688478059466]],[[-148.641037439958,70.2694573321379],[-148.643241479863,70.2691562178578]],[[-148.638792832134,70.2697642188842],[-148.640993953413,70.2694632758986]],[[-148.636693350737,70.270045334886],[-148.636694034355,70.2700461870465]],[[-148.636708143295,70.2700474009959],[-148.638749326724,70.2697701479995]],[[-148.636256871019,70.2701114039],[-148.636664937025,70.270053528968]],[[-148.636256871019,70.2701114039],[-148.636209727432,70.2701085189972],[-148.63622471223,70.2701159649143]],[[-148.63622471223,70.2701159649143],[-148.636256871019,70.2701114039]],[[-148.63622471223,70.2701159649143],[-148.636229108585,70.2701181489848],[-148.636256871019,70.2701114039]],[[-148.63622471223,70.2701159649143],[-148.635766094429,70.2701313850169],[-148.632019055191,70.2688976459225],[-148.610006900064,70.259783101943],[-148.60060086171,70.2545508011444]],[[-149.6089007057,70.3251664890287],[-149.602386246329,70.324926772005],[-149.602341362006,70.3252269670116],[-149.600366159834,70.3252266860398],[-149.60035532166,70.325496052145]],[[-149.600303111576,70.32549581987],[-149.60035532166,70.325496052145]],[[-149.600303111576,70.32549581987],[-149.599003998555,70.3254670860973],[-149.594388550745,70.3255905449185],[-149.594346955154,70.3257723931495]],[[-149.60035532166,70.325496052145],[-149.608739854264,70.325169700101]],[[-149.60035532166,70.325496052145],[-149.600786751948,70.326139089128]],[[-149.594346955154,70.3257723931495],[-149.59553359461,70.325595916858],[-149.598959998174,70.3254898660067],[-149.600303111576,70.32549581987]],[[-149.594346955154,70.3257723931495],[-149.566530876604,70.3265387529892],[-149.573069588691,70.3412682850569],[-149.58263586673,70.3411226339012],[-149.581395746971,70.3395109661154]],[[-149.600763656262,70.3261630368859],[-149.600303111576,70.32549581987]],[[-149.724138562149,70.3374317489751],[-149.725199361109,70.337267284895],[-149.72461125116,70.3384245848775],[-149.730646935435,70.3402542029511],[-149.732949887938,70.342359970865]],[[-149.724513910614,70.3374705020615],[-149.675205705368,70.3341362069411],[-149.642109923364,70.3269794840196],[-149.616107684409,70.327014395],[-149.614918453313,70.32292449304],[-149.610931174025,70.322890575088],[-149.610777487552,70.3249314218685],[-149.608960730229,70.3249275489987],[-149.608996660146,70.3251957800259],[-149.608633846772,70.3251917919741]],[[-149.732998307132,70.3423397810741],[-149.739365441898,70.3436973349394],[-149.749625777189,70.3587364821342],[-149.786817764599,70.3670697641484],[-149.806570730448,70.3848961650199],[-149.815803850297,70.3973339850874],[-149.815389834749,70.4002467600817]],[[-149.818620886179,70.3989079119471],[-149.819393190287,70.3991700679984],[-149.818707697572,70.4000697569062],[-149.818198648352,70.4000458811022],[-149.817976179673,70.4003204430254],[-149.817054801941,70.4003999878819],[-149.815390498604,70.4002525448594]],[[-149.815389834749,70.4002467600817],[-149.815387278143,70.4002522739569],[-149.815390498604,70.4002525448594]],[[-149.815389834749,70.4002467600817],[-149.814309054562,70.4000982971219],[-149.813594577705,70.4002818200819],[-149.804454895222,70.4107581438677],[-149.81436424885,70.4331184900693],[-149.811388134805,70.441161973113],[-149.819660598984,70.4471604301081],[-149.814303525432,70.4606786501484],[-149.816417488569,70.4674853549909],[-149.827872881429,70.4731434281286],[-149.833573117708,70.4796907041407],[-149.844185021262,70.4828276730397],[-149.842071683353,70.4964066851086],[-149.870337029139,70.5115986471267]],[[-149.815390498604,70.4002525448594],[-149.815389834749,70.4002467600817]],[[-149.815390498604,70.4002525448594],[-149.81855193599,70.3988846869215]],[[-149.870204932774,70.5109032329038],[-149.922020017077,70.513958250143],[-149.994683632787,70.5238835830717],[-150.012000917355,70.530516766954],[-150.021932683051,70.5450669828792],[-150.000000000081,70.6024889500099],[-149.998036372701,70.6285560339365],[-150.000000201303,70.7067074001215],[-149.997414117788,70.7248471060232],[-150.00000026688,70.7408001000223],[-150.012514777952,70.7649668181226],[-150.012312070413,70.7728591099451],[-150.000000532781,70.7980843669263],[-150.000000000081,70.8411712329787],[-149.933734514608,70.9622286890222],[-149.93139710812,70.9769393939679],[-149.898565721864,71.0367653269527],[-149.885052544708,71.059640635144],[-149.873924924638,71.0699526491116],[-149.87163074598,71.0799162550163],[-149.851108311106,71.1093447028588],[-149.834604636979,71.1419485008856],[-149.8382104368,71.1474660439394],[-149.855078252909,71.1533702460301]],[[-160.037952094877,70.6372081029527],[-160.146682981209,70.6693610609566],[-160.282484156657,70.7530493059696],[-160.382828302326,70.8196180369501],[-160.453637912969,70.8610838649027],[-160.454284987434,70.8667499889111]],[[-149.846999278656,71.1531599150502],[-149.855078252909,71.1533702460301]],[[-149.855078252909,71.1533702460301],[-149.855084998359,71.1533716670815]],[[-149.855078252909,71.1533702460301],[-150.021714732898,71.1799046548999],[-150.327299435609,71.2202466341022],[-150.346261666616,71.2253166671141],[-150.3133277754,71.229332900889],[-150.295171759005,71.2427901498874]],[[-156.836419999641,71.2659699999416],[-156.92688729722,71.2839344590711],[-156.951092556163,71.2933922950531],[-157.051487588698,71.3497530121016],[-157.231506590377,71.4438191869076],[-157.227683068575,71.4470433499784],[-157.237912792875,71.4480433178954],[-157.240119913104,71.4495638928736],[-157.238402568741,71.4538998161303]],[[-157.238402568741,71.4538998161303],[-157.238402471723,71.4539000601394]],[[-157.238402568741,71.4538998161303],[-157.217852156736,71.4611314380538],[-157.20441402933,71.4610126219621],[-157.202616843603,71.4640897371371],[-157.141432070376,71.4757663450616],[-156.371208281271,71.5502824049992],[-155.974767958148,71.6189279279968],[-155.784927857826,71.6688187960252],[-155.725417278386,71.6793822899714],[-155.624802564645,71.7065790879405],[-155.583755287412,71.714460315024],[-155.21612726281,71.7664798900089],[-154.875859189986,71.7821166239442],[-154.69626142092,71.7935794459891],[-154.3952298436,71.7947621320154],[-153.840729292438,71.7623846851065],[-153.316904245409,71.7145433579746],[-153.183527504335,71.6955966990375],[-152.93157511217,71.6537210181317],[-152.576571521888,71.5691282901316],[-152.096834048967,71.4493610330476],[-151.998995064775,71.433700849942],[-151.938073461993,71.418963170106],[-151.87412054998,71.4107659620254],[-151.713384108657,71.3789736799924],[-150.954385779632,71.3009245430249],[-150.866830106043,71.2895566549388],[-150.818768681562,71.2867929680507],[-150.457440251892,71.2419895149377],[-150.346262381675,71.2253166309741]]]},"properties":{"id":"arcgis-31-0-a7ade09187e87da8","sourceId":"arcgis-31-0","category":"existing","states":["AK"],"routeStatus":"Existing In-Kind","carrier":"QSH Parent Holdco LLC"},"bbox":[-169.028293333129,64.3807092979425,-147.613396554388,71.7954628489538]}]}