{"type":"FeatureCollection","features":[{"type":"Feature","geometry":{"type":"LineString","coordinates":[[-111.0663885,32.3373615],[-111.0522728,32.3238506000001],[-110.9866368,32.2421855000001],[-110.9801504,32.2206118],[-110.9792039,32.1994313000001],[-110.9744963,32.1898953],[-110.9548687,32.1829308000001],[-110.9004153,32.1522681000001],[-110.8874606,32.1338447000001]]},"properties":{"id":"arcgis-40-0-b00dbcf73f42547d","sourceId":"arcgis-40-0","category":"existing","states":["AZ"],"routeStatus":"Active","carrier":"Not published"},"bbox":[-111.0663885,32.1338447000001,-110.8874606,32.3373615]},{"type":"Feature","geometry":{"type":"LineString","coordinates":[[-111.7400616,32.9867215],[-111.6884357,32.9198662000001],[-111.687294,32.8492068],[-111.684956,32.8231132000001],[-111.6806425,32.815473],[-111.5552803,32.737311],[-111.510437,32.7217690000001],[-111.4001312,32.6519232]]},"properties":{"id":"arcgis-40-0-c68bdeb84da4d998","sourceId":"arcgis-40-0","category":"existing","states":["AZ"],"routeStatus":"Active","carrier":"Not published"},"bbox":[-111.7400616,32.6519232,-111.4001312,32.9867215]},{"type":"Feature","geometry":{"type":"LineString","coordinates":[[-112.2664036,33.4619485000001],[-112.3187459,33.4578262],[-112.4610634,33.4619910000001]]},"properties":{"id":"arcgis-40-0-496d81fc76f0e3a0","sourceId":"arcgis-40-0","category":"existing","states":["AZ"],"routeStatus":"Active","carrier":"Not published"},"bbox":[-112.4610634,33.4578262,-112.2664036,33.4622991000001]},{"type":"Feature","geometry":{"type":"LineString","coordinates":[[-112.1867662,33.4630790000001],[-112.2659407,33.4621949],[-112.26836,33.4646272]]},"properties":{"id":"arcgis-40-0-b2e995faa30a654d","sourceId":"arcgis-40-0","category":"existing","states":["AZ"],"routeStatus":"Active","carrier":"Not published"},"bbox":[-112.26836,33.4621949,-112.1867662,33.4646272]},{"type":"Feature","geometry":{"type":"LineString","coordinates":[[-112.0388462,33.4636111],[-112.0836443,33.4611759000001],[-112.1867377,33.4630793000001]]},"properties":{"id":"arcgis-40-0-3d1610cf91bf55b4","sourceId":"arcgis-40-0","category":"existing","states":["AZ"],"routeStatus":"Active","carrier":"Not published"},"bbox":[-112.1867377,33.4611759000001,-112.0388462,33.4636111]},{"type":"Feature","geometry":{"type":"LineString","coordinates":[[-112.4611235,33.4618195],[-112.318523,33.4575369],[-112.2549678,33.4621567],[-112.0387356,33.4610598],[-112.038763704,33.4662107780001]]},"properties":{"id":"arcgis-40-0-46f1599e7e936ed3","sourceId":"arcgis-40-0","category":"existing","states":["AZ"],"routeStatus":"Active","carrier":"Not published"},"bbox":[-112.4611235,33.4575350000001,-112.038108744,33.4662107780001]},{"type":"Feature","geometry":{"type":"LineString","coordinates":[[-112.03777459,33.4382478690001],[-112.0370298,33.4590045]]},"properties":{"id":"arcgis-40-0-f5b89a65c53ca745","sourceId":"arcgis-40-0","category":"existing","states":["AZ"],"routeStatus":"Active","carrier":"Not published"},"bbox":[-112.03777459,33.438233191,-112.0370038,33.4590045]},{"type":"Feature","geometry":{"type":"LineString","coordinates":[[-112.037019052,33.4589957630001],[-112.0377847,33.4382395000001]]},"properties":{"id":"arcgis-40-0-21399469c2fece98","sourceId":"arcgis-40-0","category":"existing","states":["AZ"],"routeStatus":"Active","carrier":"Not published"},"bbox":[-112.0377847,33.4382395000001,-112.037019052,33.4589957630001]},{"type":"Feature","geometry":{"type":"LineString","coordinates":[[-111.9707042,33.4077894000001],[-111.9784262,33.4110241000001],[-112.010821,33.4122956],[-112.0236424,33.424296],[-112.0364365,33.428275],[-112.0373737,33.4381402000001]]},"properties":{"id":"arcgis-40-0-942ec58b27d21d88","sourceId":"arcgis-40-0","category":"existing","states":["AZ"],"routeStatus":"Active","carrier":"Not published"},"bbox":[-112.0374638,33.4077894000001,-111.9707042,33.4381402000001]},{"type":"Feature","geometry":{"type":"LineString","coordinates":[[-112.0377879,33.4382059000001],[-112.0368038,33.4281643],[-112.0238636,33.4240766],[-112.0110733,33.4120826000001],[-111.9772678,33.4105709],[-111.9682684,33.4038595000001],[-111.9723697,33.2945469000001],[-111.968899,33.2826784000001],[-111.9569488,33.2665358]]},"properties":{"id":"arcgis-40-0-422c4d0cb927bc42","sourceId":"arcgis-40-0","category":"existing","states":["AZ"],"routeStatus":"Active","carrier":"Not published"},"bbox":[-112.0378864,33.2665358,-111.9569488,33.4382059000001]},{"type":"Feature","geometry":{"type":"LineString","coordinates":[[-111.9566291,33.2666905],[-111.9709192,33.2881719000001],[-111.9720686,33.3124667000001]]},"properties":{"id":"arcgis-40-0-1bd447a74a26e3ba","sourceId":"arcgis-40-0","category":"existing","states":["AZ"],"routeStatus":"Active","carrier":"Not published"},"bbox":[-111.97207,33.2666905,-111.9566291,33.3124667000001]},{"type":"Feature","geometry":{"type":"LineString","coordinates":[[-112.1463426,33.8711988000001],[-112.1446464,33.8293166],[-112.1375693,33.8074344],[-112.1127469,33.6876134],[-112.1170932,33.5818056000001]]},"properties":{"id":"arcgis-40-0-23868573d5e17cec","sourceId":"arcgis-40-0","category":"existing","states":["AZ"],"routeStatus":"Active","carrier":"Not published"},"bbox":[-112.1463426,33.5818056000001,-112.1125801,33.8711988000001]},{"type":"Feature","geometry":{"type":"LineString","coordinates":[[-112.1168487,33.5818194],[-112.1124465,33.6886208],[-112.1372436,33.8074377],[-112.1442795,33.8292096000001],[-112.1460136,33.8711972]]},"properties":{"id":"arcgis-40-0-de3cd8f4fc7831ab","sourceId":"arcgis-40-0","category":"existing","states":["AZ"],"routeStatus":"Active","carrier":"Not published"},"bbox":[-112.1460136,33.5818194,-112.112223,33.8711972]},{"type":"Feature","geometry":{"type":"LineString","coordinates":[[-112.1170933,33.5817914],[-112.1172773,33.5662824],[-112.112516,33.5545087],[-112.1132241,33.4803389]]},"properties":{"id":"arcgis-40-0-d58f372f5d45a444","sourceId":"arcgis-40-0","category":"existing","states":["AZ"],"routeStatus":"Active","carrier":"Not published"},"bbox":[-112.1174689,33.4803389,-112.112369,33.5817914]},{"type":"Feature","geometry":{"type":"LineString","coordinates":[[-112.1130272,33.4803583],[-112.1123243,33.5548032],[-112.1170757,33.5663020000001],[-112.116849,33.5818024000001]]},"properties":{"id":"arcgis-40-0-795a44f7212b859e","sourceId":"arcgis-40-0","category":"existing","states":["AZ"],"routeStatus":"Active","carrier":"Not published"},"bbox":[-112.1172726,33.4803583,-112.1121799,33.5818024000001]},{"type":"Feature","geometry":{"type":"LineString","coordinates":[[-112.0379134,33.4300199],[-112.0483979,33.4273779000001],[-112.1058298,33.4300587000001],[-112.1080872,33.4608516000001],[-112.1130272,33.4803529000001]]},"properties":{"id":"arcgis-40-0-9e7bc857b18e253d","sourceId":"arcgis-40-0","category":"existing","states":["AZ"],"routeStatus":"Active","carrier":"Not published"},"bbox":[-112.1130298,33.4273779000001,-112.0379134,33.4803529000001]},{"type":"Feature","geometry":{"type":"LineString","coordinates":[[-112.1132242,33.4803305],[-112.1082746,33.4607451],[-112.1082552,33.4329778000001],[-112.1059789,33.429604],[-112.0390061,33.4267562],[-112.0368866,33.4300295]]},"properties":{"id":"arcgis-40-0-8c07a0e66bade06c","sourceId":"arcgis-40-0","category":"existing","states":["AZ"],"routeStatus":"Active","carrier":"Not published"},"bbox":[-112.1132608,33.4267562,-112.0366323,33.4803305]},{"type":"Feature","geometry":{"type":"LineString","coordinates":[[-112.1063463,33.4305011000001],[-112.1080759,33.4607588000001]]},"properties":{"id":"arcgis-40-0-6027f38e38423e1b","sourceId":"arcgis-40-0","category":"existing","states":["AZ"],"routeStatus":"Active","carrier":"Not published"},"bbox":[-112.1081248,33.4305011000001,-112.1063463,33.4607588000001]},{"type":"Feature","geometry":{"type":"LineString","coordinates":[[-112.1082721,33.4607212000001],[-112.1068545,33.4302773]]},"properties":{"id":"arcgis-40-0-12fb988f4dfba53e","sourceId":"arcgis-40-0","category":"existing","states":["AZ"],"routeStatus":"Active","carrier":"Not published"},"bbox":[-112.1083028,33.4302773,-112.1068545,33.4607212000001]},{"type":"Feature","geometry":{"type":"LineString","coordinates":[[-111.8936427,33.2946735],[-111.8908715,33.43444]]},"properties":{"id":"arcgis-40-0-b5e7230fdf603638","sourceId":"arcgis-40-0","category":"existing","states":["AZ"],"routeStatus":"Active","carrier":"Not published"},"bbox":[-111.8942839,33.2946735,-111.8908715,33.43444]},{"type":"Feature","geometry":{"type":"LineString","coordinates":[[-111.891133343,33.434564099],[-111.8943491,33.2941562]]},"properties":{"id":"arcgis-40-0-46a479f4bf20ac57","sourceId":"arcgis-40-0","category":"existing","states":["AZ"],"routeStatus":"Active","carrier":"Not published"},"bbox":[-111.8945555,33.2941562,-111.891133343,33.434564099]},{"type":"Feature","geometry":{"type":"LineString","coordinates":[[-111.8908693,33.4345166],[-111.8875129,33.5225064000001],[-111.878973,33.5475627000001],[-111.8802119,33.5591370000001],[-111.8907701,33.5674531000001],[-111.8901861,33.6392057],[-111.8931749,33.6472238000001]]},"properties":{"id":"arcgis-40-0-3a23257d507a306b","sourceId":"arcgis-40-0","category":"existing","states":["AZ"],"routeStatus":"Active","carrier":"Not published"},"bbox":[-111.8931749,33.4345166,-111.8789711,33.6472238000001]},{"type":"Feature","geometry":{"type":"LineString","coordinates":[[-112.109325,33.6686437000001],[-111.973645,33.6727903],[-111.9482401,33.6629205],[-111.90244,33.6532088000001],[-111.8934277,33.6471292000001]]},"properties":{"id":"arcgis-40-0-c06753135e6887eb","sourceId":"arcgis-40-0","category":"existing","states":["AZ"],"routeStatus":"Active","carrier":"Not published"},"bbox":[-112.109325,33.6471292000001,-111.8934277,33.6728588]},{"type":"Feature","geometry":{"type":"LineString","coordinates":[[-111.8931858,33.6472375000001],[-111.9022751,33.6533997000001],[-111.9477935,33.6630321000001],[-111.9735187,33.6730415000001],[-112.1093472,33.6688476]]},"properties":{"id":"arcgis-40-0-0ddab2ce547bd3b4","sourceId":"arcgis-40-0","category":"existing","states":["AZ"],"routeStatus":"Active","carrier":"Not published"},"bbox":[-112.1093472,33.6472375000001,-111.8931858,33.6731302000001]},{"type":"Feature","geometry":{"type":"LineString","coordinates":[[-112.1093611,33.6688476],[-112.2212401,33.6679025],[-112.2307213,33.663411],[-112.2400342,33.6316043],[-112.2401269,33.6149682000001],[-112.2608562,33.5927068],[-112.2576535,33.5609758],[-112.2716863,33.5454703],[-112.2692987,33.5060326],[-112.263993,33.4932521000001],[-112.2640842,33.4790917],[-112.2687987,33.4645891000001]]},"properties":{"id":"arcgis-40-0-230226a8887f1361","sourceId":"arcgis-40-0","category":"existing","states":["AZ"],"routeStatus":"Active","carrier":"Not published"},"bbox":[-112.2717947,33.4645891000001,-112.1093611,33.6697549]},{"type":"Feature","geometry":{"type":"LineString","coordinates":[[-111.9687752,33.4507714000001],[-111.9721024,33.4552955],[-111.9831813,33.4582531],[-112.0360969,33.4621883]]},"properties":{"id":"arcgis-40-0-fd2503e72e3346cb","sourceId":"arcgis-40-0","category":"existing","states":["AZ"],"routeStatus":"Active","carrier":"Not published"},"bbox":[-112.0360969,33.4507714000001,-111.9687752,33.4621883]},{"type":"Feature","geometry":{"type":"LineString","coordinates":[[-111.8904587,33.4340516],[-111.9641555,33.4386814000001],[-111.9683976,33.4419056],[-111.9702272,33.4539023],[-111.9829304,33.4582072000001]]},"properties":{"id":"arcgis-40-0-228026f878d0fb2d","sourceId":"arcgis-40-0","category":"existing","states":["AZ"],"routeStatus":"Active","carrier":"Not published"},"bbox":[-111.9829304,33.4340516,-111.8904587,33.4582072000001]},{"type":"Feature","geometry":{"type":"LineString","coordinates":[[-111.6479062,33.3852221000001],[-111.6360876,33.4167996],[-111.6371209,33.4296988],[-111.6709838,33.4527234],[-111.6847598,33.4736497000001],[-111.7050943,33.4758334],[-111.7177205,33.4813755000001],[-111.7662939,33.4820335000001],[-111.7759616,33.4771385],[-111.7864138,33.4658364000001],[-111.8221567,33.4657596000001],[-111.8286861,33.4592394000001],[-111.8463901,33.4526381000001],[-111.8696245,33.4377887000001],[-111.890445,33.4340484000001]]},"properties":{"id":"arcgis-40-0-1f47d12472032d95","sourceId":"arcgis-40-0","category":"existing","states":["AZ"],"routeStatus":"Active","carrier":"Not published"},"bbox":[-111.890445,33.3852221000001,-111.6356632,33.4830724]},{"type":"Feature","geometry":{"type":"LineString","coordinates":[[-111.6483713,33.3854387000001],[-111.6439555,33.3435784000001],[-111.6480067,33.3343063],[-111.6643542,33.3285786000001],[-111.732089,33.3267633],[-111.7391376,33.3196456000001],[-111.7417513,33.2975089],[-111.7658568,33.2836248],[-111.824773,33.2827007000001],[-111.8397734,33.287338],[-111.8772096,33.2874095],[-111.8922109,33.2922572],[-111.9396555,33.2916848],[-111.9710116,33.2970838000001],[-111.9903529,33.2917544000001],[-112.1297479,33.2913713],[-112.1843555,33.3415826],[-112.1903947,33.3507470000001],[-112.1914873,33.4171401],[-112.1871783,33.4288573000001],[-112.1850878,33.4587481]]},"properties":{"id":"arcgis-40-0-de559863de85a196","sourceId":"arcgis-40-0","category":"existing","states":["AZ"],"routeStatus":"Active","carrier":"Not published"},"bbox":[-112.1922924,33.2826661,-111.6439539,33.4587481]},{"type":"Feature","geometry":{"type":"LineString","coordinates":[[-112.1852922,33.4590436],[-112.185428538,33.4619241880001],[-112.18751,33.4284402000001],[-112.1919993,33.4140499000001],[-112.1904576,33.3501726000001],[-112.135661,33.2939909],[-112.1285733,33.2909847],[-111.9905554,33.2914511000001],[-111.9716491,33.2968203],[-111.9397902,33.2914675000001],[-111.8929114,33.2919279000001],[-111.8769561,33.2871151000001],[-111.8397435,33.2871221],[-111.8251496,33.2825048],[-111.7658069,33.2833943],[-111.7416544,33.2972053],[-111.7389201,33.3194214000001],[-111.7322202,33.3264423000001],[-111.6634406,33.3284311],[-111.648061,33.3339248],[-111.6436701,33.3426448000001],[-111.6479064,33.3852189]]},"properties":{"id":"arcgis-40-0-0bea72bc94b8d733","sourceId":"arcgis-40-0","category":"existing","states":["AZ"],"routeStatus":"Active","carrier":"Not published"},"bbox":[-112.1925951,33.2824476000001,-111.6436701,33.4619241880001]},{"type":"Feature","geometry":{"type":"LineString","coordinates":[[-112.4275693,33.4622029000001],[-112.4184013,33.5036596],[-112.4178979,33.6578722],[-112.4073086,33.6770033],[-112.3891269,33.6923990000001],[-112.3181482,33.7002498],[-112.311698,33.7105754],[-112.306102,33.7348118000001],[-112.2910301,33.7608766000001],[-112.2817625,33.7674402000001],[-112.2537544,33.7691021],[-112.2300464,33.7786089],[-112.1980825,33.7818415],[-112.1685621,33.7689304],[-112.1303312,33.7691078]]},"properties":{"id":"arcgis-40-0-f166fd2b6a1a0bbb","sourceId":"arcgis-40-0","category":"existing","states":["AZ"],"routeStatus":"Active","carrier":"Not published"},"bbox":[-112.4275693,33.4622029000001,-112.1303312,33.7818438]},{"type":"Feature","geometry":{"type":"LineString","coordinates":[[-112.13035,33.7693102],[-112.1667744,33.7696595],[-112.2002819,33.7827578000001],[-112.2303186,33.7788809],[-112.2532314,33.7695347000001],[-112.2819829,33.767727],[-112.2910613,33.7614818000001],[-112.3081073,33.7325264],[-112.3116998,33.7118340000001],[-112.3179894,33.7007352],[-112.389194,33.6925323],[-112.4087997,33.6758481000001],[-112.4182936,33.6578873],[-112.4188846,33.503454],[-112.42793059,33.4626789500001]]},"properties":{"id":"arcgis-40-0-7c4b0b3dce3d8c32","sourceId":"arcgis-40-0","category":"existing","states":["AZ"],"routeStatus":"Active","carrier":"Not published"},"bbox":[-112.42793059,33.4626789500001,-112.13035,33.7827589]},{"type":"Feature","geometry":{"type":"LineString","coordinates":[[-112.002099,33.6708528],[-111.9999746,33.6583793],[-112.0031668,33.6403646000001]]},"properties":{"id":"arcgis-40-0-4d4f74155ebb8351","sourceId":"arcgis-40-0","category":"existing","states":["AZ"],"routeStatus":"Active","carrier":"Not published"},"bbox":[-112.0031668,33.6403646000001,-111.9998705,33.6708528]},{"type":"Feature","geometry":{"type":"LineString","coordinates":[[-112.0029011,33.6403274],[-112.000502,33.6712426]]},"properties":{"id":"arcgis-40-0-ecca23e4e80ca280","sourceId":"arcgis-40-0","category":"existing","states":["AZ"],"routeStatus":"Active","carrier":"Not published"},"bbox":[-112.0029011,33.6403274,-111.999437,33.6712426]},{"type":"Feature","geometry":{"type":"LineString","coordinates":[[-112.0031668,33.6403646000001],[-112.0095492,33.6190997],[-112.010088,33.5820494000001],[-112.0128358,33.5769723000001]]},"properties":{"id":"arcgis-40-0-c4ee6b8f80eb9298","sourceId":"arcgis-40-0","category":"existing","states":["AZ"],"routeStatus":"Active","carrier":"Not published"},"bbox":[-112.0128358,33.5769723000001,-112.0031668,33.6403646000001]},{"type":"Feature","geometry":{"type":"LineString","coordinates":[[-112.0127916,33.5765866],[-112.0097833,33.5826313000001],[-112.0092556,33.6192569],[-112.0029011,33.6403274]]},"properties":{"id":"arcgis-40-0-b292bdf1352a7d0d","sourceId":"arcgis-40-0","category":"existing","states":["AZ"],"routeStatus":"Active","carrier":"Not published"},"bbox":[-112.0127916,33.5765866,-112.0029011,33.6403274]},{"type":"Feature","geometry":{"type":"LineString","coordinates":[[-112.0128568,33.5769598],[-112.0363734,33.5634660000001],[-112.0383235,33.5585942000001]]},"properties":{"id":"arcgis-40-0-71aef9b312aaa173","sourceId":"arcgis-40-0","category":"existing","states":["AZ"],"routeStatus":"Active","carrier":"Not published"},"bbox":[-112.0383881,33.5585942000001,-112.0128568,33.5769598]},{"type":"Feature","geometry":{"type":"LineString","coordinates":[[-112.0380192,33.5586277],[-112.0362697,33.5631821000001],[-112.0127988,33.5765805]]},"properties":{"id":"arcgis-40-0-67b20abd437546e3","sourceId":"arcgis-40-0","category":"existing","states":["AZ"],"routeStatus":"Active","carrier":"Not published"},"bbox":[-112.0380703,33.5586277,-112.0127988,33.5765805]},{"type":"Feature","geometry":{"type":"LineString","coordinates":[[-112.0383222,33.5585751],[-112.0445082,33.5075547000001],[-112.038249,33.4661166000001]]},"properties":{"id":"arcgis-40-0-9e32836b18875a01","sourceId":"arcgis-40-0","category":"existing","states":["AZ"],"routeStatus":"Active","carrier":"Not published"},"bbox":[-112.0445082,33.4661166000001,-112.0379867,33.5585751]},{"type":"Feature","geometry":{"type":"LineString","coordinates":[[-112.0379788,33.4661110000001],[-112.0442618,33.5078024000001],[-112.0380184,33.5586169000001]]},"properties":{"id":"arcgis-40-0-9a2a261c2d8db5ba","sourceId":"arcgis-40-0","category":"existing","states":["AZ"],"routeStatus":"Active","carrier":"Not published"},"bbox":[-112.0442618,33.4661110000001,-112.0376637,33.5586169000001]},{"type":"Feature","geometry":{"type":"LineString","coordinates":[[-111.978103,33.4167780000001],[-111.9828896,33.4577412]]},"properties":{"id":"arcgis-40-0-63e31dcf65026ed3","sourceId":"arcgis-40-0","category":"existing","states":["AZ"],"routeStatus":"Active","carrier":"Not published"},"bbox":[-111.9828896,33.4167780000001,-111.97786,33.4577412]},{"type":"Feature","geometry":{"type":"LineString","coordinates":[[-111.9830343,33.4577427],[-111.9782677,33.4167835000001]]},"properties":{"id":"arcgis-40-0-08e2041de832205e","sourceId":"arcgis-40-0","category":"existing","states":["AZ"],"routeStatus":"Active","carrier":"Not published"},"bbox":[-111.9830343,33.4167835000001,-111.9780592,33.4577427]},{"type":"Feature","geometry":{"type":"LineString","coordinates":[[-111.6156277,33.3867257000001],[-111.75445,33.3865579000001]]},"properties":{"id":"arcgis-40-0-d2834749c6f46682","sourceId":"arcgis-40-0","category":"existing","states":["AZ"],"routeStatus":"Active","carrier":"Not published"},"bbox":[-111.75445,33.3865579000001,-111.6156277,33.3868816]},{"type":"Feature","geometry":{"type":"LineString","coordinates":[[-111.7544473,33.3862817],[-111.6156083,33.3865416]]},"properties":{"id":"arcgis-40-0-500d6d404153bc56","sourceId":"arcgis-40-0","category":"existing","states":["AZ"],"routeStatus":"Active","carrier":"Not published"},"bbox":[-111.7544473,33.3862817,-111.6156083,33.3865613]},{"type":"Feature","geometry":{"type":"LineString","coordinates":[[-111.7544528,33.3865579000001],[-111.822592,33.3862325000001]]},"properties":{"id":"arcgis-40-0-546fcea4a6459206","sourceId":"arcgis-40-0","category":"existing","states":["AZ"],"routeStatus":"Active","carrier":"Not published"},"bbox":[-111.822592,33.3862325000001,-111.7544528,33.3865579000001]},{"type":"Feature","geometry":{"type":"LineString","coordinates":[[-111.8226112,33.3859461000001],[-111.7544556,33.3862816000001]]},"properties":{"id":"arcgis-40-0-90a0e4e929382f17","sourceId":"arcgis-40-0","category":"existing","states":["AZ"],"routeStatus":"Active","carrier":"Not published"},"bbox":[-111.8226112,33.3859461000001,-111.7544556,33.3862816000001]},{"type":"Feature","geometry":{"type":"LineString","coordinates":[[-111.822486961,33.386223348],[-111.9546741,33.3857713],[-111.9668899,33.3894273000001],[-111.9673887,33.4023589],[-111.9706942,33.40778]]},"properties":{"id":"arcgis-40-0-cf6ae6267bc68829","sourceId":"arcgis-40-0","category":"existing","states":["AZ"],"routeStatus":"Active","carrier":"Not published"},"bbox":[-111.9706942,33.3856664,-111.822486961,33.40778]},{"type":"Feature","geometry":{"type":"LineString","coordinates":[[-111.9709727,33.4075760000001],[-111.9676275,33.4012399000001],[-111.96903908,33.3895907250001],[-111.9551075,33.3855425],[-111.8224819,33.3859468]]},"properties":{"id":"arcgis-40-0-1cd9d113b7c03ae6","sourceId":"arcgis-40-0","category":"existing","states":["AZ"],"routeStatus":"Active","carrier":"Not published"},"bbox":[-111.9709727,33.3854073000001,-111.8224819,33.4075760000001]},{"type":"Feature","geometry":{"type":"LineString","coordinates":[[-110.9863014,32.1330361],[-110.9853915,32.1810218],[-110.9795317,32.1926700000001]]},"properties":{"id":"arcgis-40-0-6e422446ba7e0eea","sourceId":"arcgis-40-0","category":"existing","states":["AZ"],"routeStatus":"Active","carrier":"Not published"},"bbox":[-110.9864811,32.1330361,-110.9795317,32.1926700000001]},{"type":"Feature","geometry":{"type":"LineString","coordinates":[[-112.108045578,33.451200208],[-112.113036702,33.47578367],[-112.112373279,33.5553230530001],[-112.117251593,33.5681995940001],[-112.11247036,33.688144515],[-112.137363324,33.808013208],[-112.144287333,33.8292776480001],[-112.143270721,33.8470195370001],[-112.147393061,33.884333047],[-112.140331909,33.9410556500001],[-112.126921105,33.971513034],[-112.133436072,33.9872242060001],[-112.135027013,34.009374458],[-112.145475358,34.0269603],[-112.145591319,34.055452986],[-112.139508091,34.075140919],[-112.144223363,34.088512886],[-112.140386223,34.1027387880001],[-112.150187476,34.129077835],[-112.140719734,34.1454138280001],[-112.141822674,34.1512817300001],[-112.138325851,34.156484764],[-112.131172604,34.193300015],[-112.110776008,34.218673967],[-112.111598991,34.268769933],[-112.122948603,34.2875479840001],[-112.127689588,34.3034318960001],[-112.118167945,34.340430773],[-112.116675238,34.3619832030001],[-112.106385633,34.3750361090001],[-112.083346729,34.3910135140001],[-112.061701509,34.4204279970001],[-112.049322221,34.422198016],[-112.034719183,34.4301051410001],[-112.031201094,34.437868828],[-112.030128821,34.459304085],[-112.020314771,34.47767743],[-112.008573839,34.4891046010001],[-111.979197945,34.531460302],[-111.959276437,34.533543377],[-111.948775471,34.5295235400001],[-111.937527265,34.534485874],[-111.909083037,34.539342752],[-111.903401237,34.560987496],[-111.885512413,34.5755946730001],[-111.866862088,34.6087442890001],[-111.849408636,34.6151877730001],[-111.829422965,34.634503527],[-111.810727829,34.6408609110001],[-111.776561066,34.6716625440001],[-111.758188679,34.676770159],[-111.746324545,34.6848272570001],[-111.741735865,34.7014616710001],[-111.65403788,34.766328657],[-111.642163352,34.768569412],[-111.635880456,34.773355608],[-111.591494743,34.789487745],[-111.590852887,34.798564802],[-111.611015944,34.814787989],[-111.611884284,34.8214701310001],[-111.605176761,34.8330792360001],[-111.603479506,34.843052189],[-111.607216181,34.853607767],[-111.61724827,34.8622224500001],[-111.626913366,34.865754666],[-111.640757103,34.8852109480001],[-111.64116083,34.914209149],[-111.649926503,34.938249506],[-111.677319088,34.9573562200001],[-111.685131259,34.9743989840001],[-111.686828689,34.9930427680001],[-111.682494464,35.052008051],[-111.685337202,35.062998678],[-111.682245985,35.071222027],[-111.687557311,35.0830029800001],[-111.681301278,35.103568248],[-111.680176391,35.119205634],[-111.684663663,35.1300536480001],[-111.6844959,35.1408816520001],[-111.677613635,35.158288547],[-111.66300245,35.1704929300001],[-111.661508829,35.1759757390001]]},"properties":{"id":"arcgis-40-0-3100068a8e7d6487","sourceId":"arcgis-40-0","category":"existing","states":["AZ"],"routeStatus":"Active","carrier":"Not published"},"bbox":[-112.150187476,33.451200208,-111.589791521,35.1759757390001]},{"type":"Feature","geometry":{"type":"LineString","coordinates":[[-110.944774643,31.3338006050001],[-110.952008525,31.33549974],[-110.954009086,31.3393882680001],[-110.944156964,31.360226334],[-110.943709421,31.369773335],[-110.959102423,31.392415306],[-110.96745389,31.445586898],[-110.993842758,31.464047307],[-111.017659747,31.5200617210001],[-111.049367613,31.551551895],[-111.054819504,31.577287438],[-111.051495986,31.607510601],[-111.06304914,31.6709436420001],[-111.06525235,31.699666832],[-111.061208159,31.7198920050001],[-111.010836638,31.8085921520001],[-110.993273319,31.852232026],[-110.985321485,31.902196444],[-110.991866218,31.991988001],[-110.993190446,32.098805602],[-110.986309752,32.133996154]]},"properties":{"id":"arcgis-40-0-22c2ea4a5d8473b1","sourceId":"arcgis-40-0","category":"existing","states":["AZ"],"routeStatus":"Active","carrier":"Not published"},"bbox":[-111.065320963,31.3338006050001,-110.943537612,32.133996154]},{"type":"Feature","geometry":{"type":"LineString","coordinates":[[-110.965311671,31.3327756890001],[-110.967116454,31.3419001820001],[-110.955063108,31.3616513050001],[-110.931050687,31.367242058]]},"properties":{"id":"arcgis-40-0-1e5e2c5ac4519116","sourceId":"arcgis-40-0","category":"existing","states":["AZ"],"routeStatus":"Active","carrier":"Not published"},"bbox":[-110.967732371,31.3327756890001,-110.931050687,31.367243495]},{"type":"Feature","geometry":{"type":"LineString","coordinates":[[-114.487788414,34.7171195],[-114.397099572,34.7264289230001],[-114.261713182,34.733134051],[-114.2175035,34.7538975570001],[-114.155595034,34.799616154],[-114.147647513,34.812144446],[-114.144534839,34.8265992930001],[-114.148163737,34.8813407330001],[-114.154806433,34.9012339540001],[-114.115458493,35.1100520730001],[-114.109031358,35.1259161290001],[-114.093371907,35.148620028],[-114.074517759,35.162774807],[-114.074977963,35.1750218450001],[-114.067697278,35.1864294060001],[-114.065504009,35.200881354],[-114.055108636,35.21110923],[-114.036552655,35.2169680380001],[-113.994123239,35.2167391670001],[-113.915592467,35.198211249],[-113.831612682,35.193475187],[-113.777427274,35.1716268100001],[-113.699410077,35.15932211],[-113.663471793,35.162195206],[-113.64479208,35.159990888],[-113.583575907,35.1620961410001],[-113.557748186,35.158689758],[-113.535047077,35.1617372580001],[-113.521268056,35.170572984],[-113.455316705,35.1815912970001],[-113.439099399,35.1902989320001],[-113.391493095,35.1833591050001],[-113.368404344,35.1905695140001],[-113.316248043,35.1895038810001],[-113.295807965,35.20582869],[-113.268565777,35.208630321],[-113.236511298,35.225353211],[-113.210230646,35.2348380080001],[-113.118580212,35.2862793350001],[-113.097409119,35.285537484],[-113.076944426,35.291537904],[-113.034860322,35.2923960850001],[-113.019268001,35.3008087310001],[-112.997045341,35.3038859000001],[-112.953875438,35.3183716120001],[-112.916845374,35.322521871],[-112.865488545,35.3145400650001],[-112.817793748,35.2898269400001],[-112.761486705,35.273663974],[-112.733591807,35.2712592350001],[-112.713856114,35.2585712850001],[-112.660317867,35.2393031760001],[-112.543132402,35.2209971130001],[-112.486102472,35.2188937610001],[-112.468438401,35.2214538040001],[-112.410948907,35.213151801],[-112.396021133,35.2166381010001],[-112.356587926,35.2148096020001],[-112.325559739,35.2229824940001],[-112.28224128,35.218988677],[-112.239748212,35.22369243],[-112.205334976,35.2524501250001],[-112.182174894,35.26343813],[-112.161525845,35.263632667],[-112.14148359,35.2578713390001],[-112.083562091,35.257794188],[-112.053616355,35.26466194],[-111.981915274,35.2475049120001],[-111.930047136,35.256953292],[-111.886964846,35.246976004],[-111.849249551,35.246822802],[-111.798139802,35.2243238450001],[-111.774897445,35.211912279],[-111.765720844,35.203034485],[-111.66305459,35.1718197910001],[-111.651573426,35.17151798]]},"properties":{"id":"arcgis-40-0-43816dce77c74034","sourceId":"arcgis-40-0","category":"unknown","states":["AZ","CA"],"routeStatus":"Unknown","carrier":"Not published"},"bbox":[-114.487788414,34.7171195,-111.651573426,35.322557343]},{"type":"Feature","geometry":{"type":"LineString","coordinates":[[-111.0663885,32.3373615],[-111.127139124,32.3980106000001],[-111.261970151,32.4947234330001],[-111.273363091,32.5137797130001],[-111.370507609,32.629692064],[-111.4001312,32.6519232]]},"properties":{"id":"arcgis-40-0-95b26210b46db535","sourceId":"arcgis-40-0","category":"existing","states":["AZ"],"routeStatus":"Active","carrier":"Not published"},"bbox":[-111.4001312,32.3373615,-111.0663885,32.6519232]},{"type":"Feature","geometry":{"type":"LineString","coordinates":[[-110.672119516566,31.963311043686],[-110.858858263845,31.9632787862316]]},"properties":{"id":"arcgis-89-0-43558b7574c20706","sourceId":"arcgis-89-0","category":"planned","states":["AZ"],"routeStatus":"Planned; approximate","carrier":"Not published"},"bbox":[-110.858858263845,31.962936149287,-110.672119516566,31.963311043686]},{"type":"Feature","geometry":{"type":"LineString","coordinates":[[-110.719752766013,32.0303276959707],[-110.719728766255,32.0272958820713],[-110.692154944999,32.0087950287266],[-110.689677992237,32.0036808436382]]},"properties":{"id":"arcgis-89-0-4ad78b0bbdca5b04","sourceId":"arcgis-89-0","category":"planned","states":["AZ"],"routeStatus":"Planned; approximate","carrier":"Not published"},"bbox":[-110.720489645464,32.0036808436382,-110.689677992237,32.0303276959707]},{"type":"Feature","geometry":{"type":"LineString","coordinates":[[-111.169371718957,32.1341713402835],[-111.216710496103,32.1156314243492]]},"properties":{"id":"arcgis-89-0-e9a674404b1881d9","sourceId":"arcgis-89-0","category":"planned","states":["AZ"],"routeStatus":"Planned; approximate","carrier":"Not published"},"bbox":[-111.216710496103,32.1154683742318,-111.169371718957,32.1343632454425]},{"type":"Feature","geometry":{"type":"MultiLineString","coordinates":[[[-110.989673712872,32.133696532547],[-110.998937350677,32.1338722157466],[-110.998955804836,32.1483774737773],[-111.014883781216,32.1485301297938],[-111.028574893618,32.1483907965723],[-111.028967674877,32.1337630699071],[-111.169371718957,32.1341713402835]],[[-110.909078250423,32.1341457061853],[-110.984124595632,32.1339640558765]]]},"properties":{"id":"arcgis-89-0-eed18ec32027c071","sourceId":"arcgis-89-0","category":"planned","states":["AZ"],"routeStatus":"Planned; approximate","carrier":"Not published"},"bbox":[-111.169371718957,32.1326502761671,-110.909078250423,32.1485301297938]},{"type":"Feature","geometry":{"type":"LineString","coordinates":[[-110.738148072378,32.2351798012152],[-110.738006019353,32.1654466816528],[-110.733777957686,32.157918153953],[-110.73421337627,32.1335169905886],[-110.711111825262,32.12142544888],[-110.687422184667,32.0974096497524],[-110.68930071384,32.0561451428496],[-110.698463660175,32.0494524468845],[-110.712201521412,32.0477755531115],[-110.719752766013,32.0303276959707]]},"properties":{"id":"arcgis-89-0-15081fde61a2cbe1","sourceId":"arcgis-89-0","category":"planned","states":["AZ"],"routeStatus":"Planned; approximate","carrier":"Not published"},"bbox":[-110.738158498774,32.0303276959707,-110.687379126451,32.2351798012152]},{"type":"Feature","geometry":{"type":"LineString","coordinates":[[-110.977454115811,32.3376848453058],[-110.948840765379,32.3371532825957],[-110.939396400403,32.3262259225841],[-110.930991086173,32.3227748052341],[-110.893234413285,32.3227808561855],[-110.892202216684,32.3083925031668],[-110.874870211423,32.3087760999129],[-110.866412749093,32.3059491777997],[-110.858496631316,32.3087704367558],[-110.824322111896,32.3089536923612],[-110.824100302581,32.2938781161021],[-110.836859477905,32.2805766310837],[-110.840912625263,32.269711016887],[-110.840696682845,32.2507765964752],[-110.827206198031,32.2507962649607],[-110.818367917394,32.2579538498499],[-110.798992690427,32.2580588907647],[-110.783465250554,32.2512331300315],[-110.772350598563,32.2509980739061],[-110.772363194739,32.2354519890406],[-110.738148072366,32.2351798013178]]},"properties":{"id":"arcgis-89-0-73221a9d3449dc3c","sourceId":"arcgis-89-0","category":"planned","states":["AZ"],"routeStatus":"Planned; approximate","carrier":"Not published"},"bbox":[-110.977454115811,32.2351798013178,-110.738148072366,32.3376848453058]},{"type":"Feature","geometry":{"type":"LineString","coordinates":[[-110.977454115436,32.3376848456188],[-110.974899275892,32.3515190360778]]},"properties":{"id":"arcgis-89-0-ccde1b88d7e7ca30","sourceId":"arcgis-89-0","category":"planned","states":["AZ"],"routeStatus":"Planned; approximate","carrier":"Not published"},"bbox":[-110.977454115436,32.3376848456188,-110.974899275892,32.3515190360778]},{"type":"Feature","geometry":{"type":"LineString","coordinates":[[-110.995768469624,32.4233970037495],[-110.995700144998,32.3520399435707],[-110.974899275892,32.3515190360778]]},"properties":{"id":"arcgis-89-0-762a5bdc84bef36a","sourceId":"arcgis-89-0","category":"planned","states":["AZ"],"routeStatus":"Planned; approximate","carrier":"Not published"},"bbox":[-110.995768469624,32.3515190360778,-110.974899275892,32.4233970037495]},{"type":"Feature","geometry":{"type":"LineString","coordinates":[[-111.216710496103,32.1156314243492],[-111.218845794827,32.2736025286809],[-111.21665489883,32.3658927622479]]},"properties":{"id":"arcgis-89-0-4e7352d46ed5d3fe","sourceId":"arcgis-89-0","category":"planned","states":["AZ"],"routeStatus":"Planned; approximate","carrier":"Not published"},"bbox":[-111.218845794827,32.1156314243492,-111.216532470631,32.3658927622479]},{"type":"Feature","geometry":{"type":"MultiLineString","coordinates":[[[-111.21665489883,32.3658927622479],[-111.216903692801,32.4024035918426],[-111.233808287613,32.402603667836],[-111.23407804619,32.4387145727944],[-111.22103298781,32.438995412369],[-111.218015375464,32.4334553989877],[-111.202730273266,32.4248983240999],[-111.16429868231,32.4237750646561]],[[-111.162810355893,32.4252584937662],[-110.995768469624,32.4233970037495]]]},"properties":{"id":"arcgis-89-0-167b4c5a35915fde","sourceId":"arcgis-89-0","category":"planned","states":["AZ"],"routeStatus":"Planned; approximate","carrier":"Not published"},"bbox":[-111.23407804619,32.3658927622479,-110.995736981343,32.438995412369]},{"type":"Feature","geometry":{"type":"LineString","coordinates":[[-110.858858263845,31.9632787862316],[-110.857879441633,32.1140577446076],[-110.888491701571,32.1339024479406],[-110.909078250423,32.1341457061853]]},"properties":{"id":"arcgis-89-0-f8fdf66d3e849d37","sourceId":"arcgis-89-0","category":"planned","states":["AZ"],"routeStatus":"Planned; approximate","carrier":"Not published"},"bbox":[-110.909078250423,31.9632787862316,-110.857879441633,32.134392533749]},{"type":"Feature","geometry":{"type":"LineString","coordinates":[[-110.689677992237,32.0036808436382],[-110.672119516566,31.963311043686]]},"properties":{"id":"arcgis-89-0-1f111dbf0ba968cb","sourceId":"arcgis-89-0","category":"planned","states":["AZ"],"routeStatus":"Planned; approximate","carrier":"Not published"},"bbox":[-110.689677992237,31.963311043686,-110.672119516566,32.0036808436382]},{"type":"Feature","geometry":{"type":"LineString","coordinates":[[-111.16429868231,32.4237750646561],[-111.162810355893,32.4252584937662]]},"properties":{"id":"arcgis-89-0-4562968a3a9fe0b6","sourceId":"arcgis-89-0","category":"planned","states":["AZ"],"routeStatus":"Planned; approximate","carrier":"Not published"},"bbox":[-111.16429868231,32.4237750646561,-111.162810355893,32.4252584937662]},{"type":"Feature","geometry":{"type":"LineString","coordinates":[[-110.984124595632,32.1339640558765],[-110.989673712872,32.133696532547]]},"properties":{"id":"arcgis-89-0-e5d495ea042ec5bf","sourceId":"arcgis-89-0","category":"planned","states":["AZ"],"routeStatus":"Planned; approximate","carrier":"Not published"},"bbox":[-110.989673712872,32.133696532547,-110.984124595632,32.1341899968059]},{"type":"Feature","geometry":{"type":"MultiLineString","coordinates":[[[-115.299830387614,32.9745883362858],[-115.299830206154,32.9745819019847]],[[-115.299830387614,32.9745883362858],[-115.456968979206,32.9747305524589],[-115.463660314162,32.9787490583095],[-115.500949263926,32.9787153540417],[-115.501823184561,32.9927165776936],[-115.509183520959,33.0010787244661],[-115.526561065415,33.0011146283551],[-115.526892464703,32.9989166147132]],[[-114.732324446383,33.4337311212368],[-114.732123307303,33.428007813394],[-114.727282005962,33.4253123369984],[-114.725411600353,33.4187607346985],[-114.728479303031,33.4040026796439],[-114.721573747727,33.3937198307891],[-114.721678740123,33.3454189074224],[-114.733180260574,33.3063133398801],[-114.739570120921,33.3092215010567],[-114.755673432993,33.2905096578803],[-114.780206764762,33.282008778648],[-114.818460291343,33.2487145851501],[-114.845855036668,33.2306966894557],[-114.853632050323,33.2180723569592],[-114.868265952153,33.1704326035077],[-114.871289258293,33.1491028750984],[-114.892966195394,33.1100123521372],[-114.900051407465,33.1029855754062],[-114.902354174916,33.0925753644451],[-114.911086335772,33.085345145737],[-114.945378508443,33.0759048938325],[-114.949208640947,33.0694768525558],[-114.950027556838,33.0523968001034],[-114.966077642832,33.0292735555451],[-114.993204842916,33.0155761738271],[-115.042588302729,33.0143311907446],[-115.077674942743,32.9938456051434],[-115.110307403367,32.9930933364302],[-115.191746096945,32.9689722738182],[-115.282392656933,32.9704543157435],[-115.299830387614,32.9745883362858]]]},"properties":{"id":"arcgis-32-1-ee99571c2e4a56f5","sourceId":"arcgis-32-1","category":"planned","states":["AZ","CA"],"routeStatus":"Installation","carrier":"Not published"},"bbox":[-115.526892464703,32.9689722738182,-114.721573747727,33.4337311212368]},{"type":"Feature","geometry":{"type":"LineString","coordinates":[[-113.798051,32.815118],[-113.939161,32.783462],[-113.99371,32.74921],[-114.016611,32.711966],[-114.033169,32.698985],[-114.116185,32.671407],[-114.158892,32.668344],[-114.178793,32.662694],[-114.21932,32.658912],[-114.257575,32.669305],[-114.272321,32.669287],[-114.281363,32.673015],[-114.282475,32.677399]]},"properties":{"id":"fna-member-routes-20260918-7cab4cc820bc8fd42b93","sourceId":"fna-member-routes-20260918","category":"unknown","states":["AZ"],"routeStatus":"Status not established","carrier":"Planters","publishedLineParts":1},"bbox":[-114.282847,32.658876,-113.797985,32.816726]},{"type":"Feature","geometry":{"type":"LineString","coordinates":[[-113.273139,33.051867],[-113.798051,32.815118]]},"properties":{"id":"fna-member-routes-20260918-ed6d574c11934af3f60a","sourceId":"fna-member-routes-20260918","category":"unknown","states":["AZ"],"routeStatus":"Status not established","carrier":"Planters","publishedLineParts":1},"bbox":[-113.798051,32.815118,-113.273082,33.052747]},{"type":"Feature","geometry":{"type":"LineString","coordinates":[[-112.694649,33.36993],[-112.753099,33.360974],[-112.795484,33.346062],[-112.971944,33.270632],[-113.003071,33.239218],[-113.007392,33.218314],[-113.012648,33.210095],[-113.032227,33.200429],[-113.140749,33.101822],[-113.156208,33.094366],[-113.195841,33.089192],[-113.273139,33.051867]]},"properties":{"id":"fna-member-routes-20260918-1ad02a3c3d3e6da6caaf","sourceId":"fna-member-routes-20260918","category":"unknown","states":["AZ"],"routeStatus":"Status not established","carrier":"Planters","publishedLineParts":1},"bbox":[-113.273139,33.051867,-112.694649,33.36993]},{"type":"Feature","geometry":{"type":"LineString","coordinates":[[-112.07297,33.47639],[-112.078275,33.476613],[-112.077831,33.458719],[-112.082486,33.458737],[-112.086045,33.442298],[-112.220745,33.444247],[-112.221329,33.437052],[-112.337079,33.43468],[-112.385047,33.409932],[-112.503428,33.395523],[-112.57998,33.377521],[-112.613943,33.37744],[-112.694649,33.36993]]},"properties":{"id":"fna-member-routes-20260918-c59b12e56c1d11bf51e0","sourceId":"fna-member-routes-20260918","category":"unknown","states":["AZ"],"routeStatus":"Status not established","carrier":"Planters","publishedLineParts":1},"bbox":[-112.694718,33.369275,-112.07297,33.476694]},{"type":"Feature","geometry":{"type":"LineString","coordinates":[[-112.077467,33.444095],[-112.074989,33.444158],[-112.075192,33.44829],[-112.081528,33.450392],[-112.067548,33.451272],[-112.069509,33.476586],[-112.07297,33.47639]]},"properties":{"id":"fna-member-routes-20260918-4ebaa52cde5f9ef899c0","sourceId":"fna-member-routes-20260918","category":"unknown","states":["AZ"],"routeStatus":"Status not established","carrier":"Planters","publishedLineParts":1},"bbox":[-112.081533,33.443735,-112.067519,33.476604]},{"type":"Feature","geometry":{"type":"LineString","coordinates":[[-111.498896,33.105882],[-111.501994,33.134296],[-111.594671,33.231178],[-111.829391,33.377647],[-111.832349,33.408378],[-111.85006,33.411405],[-111.940068,33.411136],[-111.943481,33.414531],[-111.944822,33.436747],[-111.97883,33.443771],[-112.077467,33.444095]]},"properties":{"id":"fna-member-routes-20260918-852bbdec209a37cd548b","sourceId":"fna-member-routes-20260918","category":"unknown","states":["AZ"],"routeStatus":"Status not established","carrier":"Planters","publishedLineParts":1},"bbox":[-112.077467,33.105882,-111.498896,33.444589]},{"type":"Feature","geometry":{"type":"LineString","coordinates":[[-111.326527,32.578388],[-111.369839,32.630508],[-111.386972,32.645626],[-111.510616,32.725468],[-111.51058,32.946765],[-111.517295,32.988204],[-111.506314,32.988177],[-111.507631,33.060608],[-111.499407,33.076741],[-111.498896,33.105882]]},"properties":{"id":"fna-member-routes-20260918-1946af02d0a6dd63fdc6","sourceId":"fna-member-routes-20260918","category":"unknown","states":["AZ"],"routeStatus":"Status not established","carrier":"Planters","publishedLineParts":1},"bbox":[-111.517295,32.578388,-111.326421,33.105882]},{"type":"Feature","geometry":{"type":"LineString","coordinates":[[-110.968732,32.224231],[-110.979029,32.231444],[-111.041033,32.309659],[-111.046384,32.320439],[-111.103763,32.373978],[-111.120955,32.394621],[-111.249382,32.487138],[-111.326527,32.578388]]},"properties":{"id":"fna-member-routes-20260918-f764eda4ecdf6ad4a125","sourceId":"fna-member-routes-20260918","category":"unknown","states":["AZ"],"routeStatus":"Status not established","carrier":"Planters","publishedLineParts":1},"bbox":[-111.326527,32.224231,-110.968732,32.578397]},{"type":"Feature","geometry":{"type":"LineString","coordinates":[[-110.430769,31.990895],[-110.445965,31.988227],[-110.454924,31.989979],[-110.483503,31.981688],[-110.499453,31.988964],[-110.533657,31.995055],[-110.544301,32.00181],[-110.560877,32.002771],[-110.571886,32.009553],[-110.594533,32.015581],[-110.618705,32.029765],[-110.642312,32.024142],[-110.648917,32.012769],[-110.655249,32.008718],[-110.675718,32.002358],[-110.683231,32.003391],[-110.718304,32.028103],[-110.713316,32.046267],[-110.717949,32.050166],[-110.906078,32.156561],[-110.909953,32.186933],[-110.968704,32.224186]]},"properties":{"id":"fna-member-routes-20260918-25e4c29afb9b8ffeccd1","sourceId":"fna-member-routes-20260918","category":"unknown","states":["AZ"],"routeStatus":"Status not established","carrier":"Planters","publishedLineParts":1},"bbox":[-110.968704,31.981427,-110.430769,32.224787]},{"type":"Feature","geometry":{"type":"LineString","coordinates":[[-110.034679,32.03016],[-110.077424,31.998836],[-110.111369,31.988218],[-110.116132,31.98388],[-110.124122,31.983413],[-110.128127,31.978166],[-110.166541,31.98282],[-110.168361,31.975804],[-110.161666,31.963847],[-110.170652,31.954074],[-110.180172,31.952071],[-110.205617,31.951891],[-110.208432,31.966453],[-110.222387,31.976774],[-110.22826,31.975732],[-110.232849,31.96819500000001],[-110.239186,31.964791],[-110.28603,31.964521],[-110.313411,31.973962],[-110.331323,31.989404],[-110.384558,31.997723],[-110.430769,31.990895]]},"properties":{"id":"fna-member-routes-20260918-43700ec6c3b2cc9f1bf6","sourceId":"fna-member-routes-20260918","category":"unknown","states":["AZ"],"routeStatus":"Status not established","carrier":"Planters","publishedLineParts":1},"bbox":[-110.430964,31.950481,-110.034478,32.031131]},{"type":"Feature","geometry":{"type":"LineString","coordinates":[[-109.608021,32.3532],[-109.642579,32.353146],[-109.675712,32.345708],[-109.702972,32.34808],[-109.740484,32.344172],[-109.757493,32.336429],[-109.793283,32.308276],[-109.974316,32.039781],[-109.987519,32.035766],[-110.023484,32.03599],[-110.034679,32.03016]]},"properties":{"id":"fna-member-routes-20260918-338a8b85b028fdb1779e","sourceId":"fna-member-routes-20260918","category":"unknown","states":["AZ"],"routeStatus":"Status not established","carrier":"Planters","publishedLineParts":1},"bbox":[-110.035116,32.03016,-109.607977,32.354647]},{"type":"Feature","geometry":{"type":"LineString","coordinates":[[-114.282475,32.677399],[-114.281659,32.674866],[-114.298292,32.680894],[-114.315475,32.694557],[-114.348993,32.735421],[-114.353382,32.747584],[-114.362115,32.756288],[-114.373566,32.759819],[-114.38071,32.758947],[-114.384942,32.754716],[-114.407358,32.758651],[-114.422001,32.747126],[-114.425195,32.74135],[-114.420971,32.724066],[-114.42716,32.712146],[-114.435466,32.70151],[-114.463497,32.684666],[-114.53196,32.673995],[-114.607912,32.69135],[-114.614075,32.704851],[-114.615514,32.729656],[-114.633737,32.744319],[-114.685016,32.755978],[-114.721818,32.744965],[-114.753997,32.749484]]},"properties":{"id":"fna-member-routes-20260918-ed0818e51fa686c96eca","sourceId":"fna-member-routes-20260918","category":"unknown","states":["AZ","CA"],"routeStatus":"Status not established","carrier":"Planters","publishedLineParts":1},"bbox":[-114.753997,32.673968,-114.281659,32.759891]},{"type":"Feature","geometry":{"type":"LineString","coordinates":[[-108.960108,32.236555],[-108.972589,32.230429],[-109.026147,32.223494],[-109.087874,32.240211],[-109.10822,32.241747],[-109.589528,32.352275],[-109.608021,32.3532]]},"properties":{"id":"fna-member-routes-20260918-77d2883b3566089ec419","sourceId":"fna-member-routes-20260918","category":"unknown","states":["AZ","NM"],"routeStatus":"Status not established","carrier":"Planters","publishedLineParts":1},"bbox":[-109.608021,32.223395,-108.959715,32.3532]}]}