{"type":"FeatureCollection","features":[{"type":"Feature","geometry":{"type":"LineString","coordinates":[[-108.776055394055,39.1689244502247],[-108.775761286871,39.1719063710646],[-108.76900886644,39.1728332001448],[-108.765226201238,39.1708267609668],[-108.766211424067,39.1660607747925],[-108.757001105741,39.1666012197045]]},"properties":{"id":"arcgis-157-0-958624b24561af1b","sourceId":"arcgis-157-0","category":"unknown","states":["CO"],"routeStatus":"Unknown","carrier":"COF"},"bbox":[-108.776055394055,39.1659554639994,-108.756995242329,39.1728363548169]},{"type":"Feature","geometry":{"type":"LineString","coordinates":[[-108.73065071543,39.1597321633365],[-108.730795835449,39.1599470476436]]},"properties":{"id":"arcgis-157-0-38c4437685df9fc0","sourceId":"arcgis-157-0","category":"unknown","states":["CO"],"routeStatus":"Unknown","carrier":"COF"},"bbox":[-108.730795835449,39.1597321633365,-108.73065071543,39.1599470476436]},{"type":"Feature","geometry":{"type":"LineString","coordinates":[[-108.730795835449,39.1599470476436],[-108.738423581617,39.1606836711312],[-108.738454315404,39.1644077847381],[-108.75430952834,39.1663748831669]]},"properties":{"id":"arcgis-157-0-92f4131b47ee21a3","sourceId":"arcgis-157-0","category":"unknown","states":["CO"],"routeStatus":"Unknown","carrier":"COF"},"bbox":[-108.75430952834,39.1599470476436,-108.730795835449,39.1663748831669]},{"type":"Feature","geometry":{"type":"LineString","coordinates":[[-108.734265099856,39.1606176083194],[-108.734199605795,39.1574007167096]]},"properties":{"id":"arcgis-157-0-f54ac827e50ee528","sourceId":"arcgis-157-0","category":"unknown","states":["CO"],"routeStatus":"Unknown","carrier":"COF"},"bbox":[-108.734265099856,39.1574007167096,-108.734199605795,39.1606176083194]},{"type":"Feature","geometry":{"type":"LineString","coordinates":[[-108.75430952834,39.1663748831669],[-108.757002002614,39.1665993844017]]},"properties":{"id":"arcgis-157-0-6d92ad7ca6378214","sourceId":"arcgis-157-0","category":"unknown","states":["CO"],"routeStatus":"Unknown","carrier":"COF"},"bbox":[-108.757002002614,39.1663555367182,-108.75430952834,39.1673412539206]},{"type":"Feature","geometry":{"type":"LineString","coordinates":[[-108.724138453671,39.1522572110433],[-108.72891393545,39.1536921076089],[-108.73081211607,39.1606229882849]]},"properties":{"id":"arcgis-157-0-b03264489ed2a1fc","sourceId":"arcgis-157-0","category":"unknown","states":["CO"],"routeStatus":"Unknown","carrier":"COF"},"bbox":[-108.73081211607,39.1522572110433,-108.723871694456,39.1606229882849]},{"type":"Feature","geometry":{"type":"LineString","coordinates":[[-108.729119533768,39.1571386559663],[-108.729085108529,39.1573296563227]]},"properties":{"id":"arcgis-157-0-47fc52e651a39c11","sourceId":"arcgis-157-0","category":"unknown","states":["CO"],"routeStatus":"Unknown","carrier":"COF"},"bbox":[-108.729119533768,39.1571386559663,-108.729056180082,39.1573296563227]},{"type":"Feature","geometry":{"type":"LineString","coordinates":[[-108.729085108529,39.1573296563227],[-108.729101685141,39.1584020926378]]},"properties":{"id":"arcgis-157-0-dcf8dc7a3a448fe7","sourceId":"arcgis-157-0","category":"unknown","states":["CO"],"routeStatus":"Unknown","carrier":"COF"},"bbox":[-108.729101685141,39.1573296563227,-108.729005753154,39.1584023350394]},{"type":"Feature","geometry":{"type":"LineString","coordinates":[[-108.729101685141,39.1584020926378],[-108.729103051479,39.1593683289816]]},"properties":{"id":"arcgis-157-0-2075aba251bfa3c6","sourceId":"arcgis-157-0","category":"unknown","states":["CO"],"routeStatus":"Unknown","carrier":"COF"},"bbox":[-108.729103051479,39.1584020926378,-108.729010440563,39.1593683289816]},{"type":"Feature","geometry":{"type":"LineString","coordinates":[[-108.729103051479,39.1593683289816],[-108.728869198451,39.1593904234469]]},"properties":{"id":"arcgis-157-0-76243b1d8900defe","sourceId":"arcgis-157-0","category":"unknown","states":["CO"],"routeStatus":"Unknown","carrier":"COF"},"bbox":[-108.729103051479,39.1593683289816,-108.728869198451,39.1593904234469]},{"type":"Feature","geometry":{"type":"LineString","coordinates":[[-108.728869198451,39.1593904234469],[-108.729101129084,39.1602098996172]]},"properties":{"id":"arcgis-157-0-e412f612a8da74ce","sourceId":"arcgis-157-0","category":"unknown","states":["CO"],"routeStatus":"Unknown","carrier":"COF"},"bbox":[-108.729101129084,39.1593904234469,-108.728869198451,39.1602098996172]},{"type":"Feature","geometry":{"type":"LineString","coordinates":[[-108.729101129084,39.1602098996172],[-108.728885972692,39.1602320662582]]},"properties":{"id":"arcgis-157-0-b0c29548cb223731","sourceId":"arcgis-157-0","category":"unknown","states":["CO"],"routeStatus":"Unknown","carrier":"COF"},"bbox":[-108.729101129084,39.1602098996172,-108.728885972692,39.1602323929347]},{"type":"Feature","geometry":{"type":"LineString","coordinates":[[-108.729101685141,39.1584020926378],[-108.728872108992,39.1584188267092]]},"properties":{"id":"arcgis-157-0-600c7a9c3ba00d26","sourceId":"arcgis-157-0","category":"unknown","states":["CO"],"routeStatus":"Unknown","carrier":"COF"},"bbox":[-108.729101685141,39.1584020926378,-108.728872108992,39.1584188267092]},{"type":"Feature","geometry":{"type":"LineString","coordinates":[[-108.729085108529,39.1573296563227],[-108.728914586729,39.1572762268181]]},"properties":{"id":"arcgis-157-0-70ed2ff3a33d0cb0","sourceId":"arcgis-157-0","category":"unknown","states":["CO"],"routeStatus":"Unknown","carrier":"COF"},"bbox":[-108.729085108529,39.1572762268181,-108.728914586729,39.1573296563227]},{"type":"Feature","geometry":{"type":"LineString","coordinates":[[-108.734201103904,39.1546304069613],[-108.733780383331,39.1547898062598]]},"properties":{"id":"arcgis-157-0-103de413a0526ad5","sourceId":"arcgis-157-0","category":"unknown","states":["CO"],"routeStatus":"Unknown","carrier":"COF"},"bbox":[-108.734201103904,39.1546304069613,-108.733780383331,39.1548103167194]},{"type":"Feature","geometry":{"type":"LineString","coordinates":[[-108.733964878425,39.1547894781648],[-108.734066251509,39.1547320420192]]},"properties":{"id":"arcgis-157-0-de0a4a7850c66e9b","sourceId":"arcgis-157-0","category":"unknown","states":["CO"],"routeStatus":"Unknown","carrier":"COF"},"bbox":[-108.734066251509,39.1547320420192,-108.733964878425,39.1547951923109]}]}