{"type":"FeatureCollection","features":[{"type":"Feature","geometry":{"type":"LineString","coordinates":[[-73.4108141409493,41.1008378472814],[-73.4037964835382,41.1020706187001]]},"properties":{"id":"ct-norwalk-0-4959bd7204ea236d93ef","sourceId":"ct-norwalk-0","category":"unknown","states":["CT"],"routeStatus":"Status not established","carrier":"Norwalk CT GIS","publishedLineParts":1},"bbox":[-73.4108141409493,41.1008378472814,-73.4037964835382,41.1020706187001]},{"type":"Feature","geometry":{"type":"LineString","coordinates":[[-73.4037964835382,41.1020706187001],[-73.4073779502652,41.1105555217837]]},"properties":{"id":"ct-norwalk-0-bf5c7c280f4fa1f3046b","sourceId":"ct-norwalk-0","category":"unknown","states":["CT"],"routeStatus":"Status not established","carrier":"Norwalk CT GIS","publishedLineParts":1},"bbox":[-73.4073779502652,41.1020706187001,-73.4037964835382,41.1105555217837]},{"type":"Feature","geometry":{"type":"LineString","coordinates":[[-73.4073779502652,41.1105555217837],[-73.4076382004328,41.113559125538]]},"properties":{"id":"ct-norwalk-0-8d8fcdae209193e43912","sourceId":"ct-norwalk-0","category":"unknown","states":["CT"],"routeStatus":"Status not established","carrier":"Norwalk CT GIS","publishedLineParts":1},"bbox":[-73.4077181825464,41.1105555217837,-73.4073779502652,41.113559125538]},{"type":"Feature","geometry":{"type":"LineString","coordinates":[[-73.4012345505708,41.1058617821286],[-73.3916254326679,41.1214594332632]]},"properties":{"id":"ct-norwalk-0-2b6ae4fdcb25da503d32","sourceId":"ct-norwalk-0","category":"unknown","states":["CT"],"routeStatus":"Status not established","carrier":"Norwalk CT GIS","publishedLineParts":1},"bbox":[-73.4012345505708,41.1058617821286,-73.3916254326679,41.1214594332632]},{"type":"Feature","geometry":{"type":"LineString","coordinates":[[-73.3916254326679,41.1214594332632],[-73.3911125334505,41.1237733140359]]},"properties":{"id":"ct-norwalk-0-500aed03f782a3569834","sourceId":"ct-norwalk-0","category":"unknown","states":["CT"],"routeStatus":"Status not established","carrier":"Norwalk CT GIS","publishedLineParts":1},"bbox":[-73.3916254326679,41.1214594332632,-73.3910110060871,41.1237733140359]},{"type":"Feature","geometry":{"type":"LineString","coordinates":[[-73.4076382004328,41.113559125538],[-73.4068465095555,41.1132772874206]]},"properties":{"id":"ct-norwalk-0-d48762238870c20cb6cb","sourceId":"ct-norwalk-0","category":"unknown","states":["CT"],"routeStatus":"Status not established","carrier":"Norwalk CT GIS","publishedLineParts":1},"bbox":[-73.4076382004328,41.1132772874206,-73.4068465095555,41.113559125538]},{"type":"Feature","geometry":{"type":"LineString","coordinates":[[-73.4077867420849,41.1157978023775],[-73.4133390466038,41.1179284997765]]},"properties":{"id":"ct-norwalk-0-3fef3877329f85152609","sourceId":"ct-norwalk-0","category":"unknown","states":["CT"],"routeStatus":"Status not established","carrier":"Norwalk CT GIS","publishedLineParts":1},"bbox":[-73.4133390466038,41.1157978023775,-73.4077867420849,41.1185405736468]},{"type":"Feature","geometry":{"type":"LineString","coordinates":[[-73.4150638066534,41.1181911440433],[-73.4152685647992,41.1143578543002]]},"properties":{"id":"ct-norwalk-0-4f9ad3ebf4f8dc3c2b35","sourceId":"ct-norwalk-0","category":"unknown","states":["CT"],"routeStatus":"Status not established","carrier":"Norwalk CT GIS","publishedLineParts":1},"bbox":[-73.4158687857086,41.1143578543002,-73.4148161208466,41.1181911440433]},{"type":"Feature","geometry":{"type":"LineString","coordinates":[[-73.4152638393992,41.1143578818144],[-73.4179561026604,41.1100732992092]]},"properties":{"id":"ct-norwalk-0-5471005ce78623e4d89d","sourceId":"ct-norwalk-0","category":"unknown","states":["CT"],"routeStatus":"Status not established","carrier":"Norwalk CT GIS","publishedLineParts":1},"bbox":[-73.4179561026604,41.1100732992092,-73.4152638393992,41.1143578818144]},{"type":"Feature","geometry":{"type":"LineString","coordinates":[[-73.4180028039429,41.1100248432228],[-73.4261506924244,41.1062177964503]]},"properties":{"id":"ct-norwalk-0-f35a30c563804bcd3802","sourceId":"ct-norwalk-0","category":"unknown","states":["CT"],"routeStatus":"Status not established","carrier":"Norwalk CT GIS","publishedLineParts":1},"bbox":[-73.4261506924244,41.1062177964503,-73.4180028039429,41.1100509994345]},{"type":"Feature","geometry":{"type":"LineString","coordinates":[[-73.4261506924244,41.1062177964503],[-73.4228866009632,41.0956422285174]]},"properties":{"id":"ct-norwalk-0-46428ee4ea179d8f8bc1","sourceId":"ct-norwalk-0","category":"unknown","states":["CT"],"routeStatus":"Status not established","carrier":"Norwalk CT GIS","publishedLineParts":1},"bbox":[-73.4261506924244,41.0956422285174,-73.4221092750507,41.1062177964503]},{"type":"Feature","geometry":{"type":"LineString","coordinates":[[-73.4217659502508,41.0955077435309],[-73.4108299799108,41.1008366192687]]},"properties":{"id":"ct-norwalk-0-06ca157554e990fabc3f","sourceId":"ct-norwalk-0","category":"unknown","states":["CT"],"routeStatus":"Status not established","carrier":"Norwalk CT GIS","publishedLineParts":1},"bbox":[-73.4217659502508,41.0954814884339,-73.4108299799108,41.1008366192687]},{"type":"Feature","geometry":{"type":"LineString","coordinates":[[-73.418972795217,41.0965883607069],[-73.419106260092,41.0934249808464]]},"properties":{"id":"ct-norwalk-0-2f9aded4dd5baeec0676","sourceId":"ct-norwalk-0","category":"unknown","states":["CT"],"routeStatus":"Status not established","carrier":"Norwalk CT GIS","publishedLineParts":1},"bbox":[-73.419106260092,41.0934249808464,-73.418972795217,41.0965883607069]},{"type":"Feature","geometry":{"type":"LineString","coordinates":[[-73.418972795217,41.0965883607069],[-73.4158298295608,41.0963984076899]]},"properties":{"id":"ct-norwalk-0-169592a42965956c878d","sourceId":"ct-norwalk-0","category":"unknown","states":["CT"],"routeStatus":"Status not established","carrier":"Norwalk CT GIS","publishedLineParts":1},"bbox":[-73.418972795217,41.0963984076899,-73.4158298295608,41.0965905216937]},{"type":"Feature","geometry":{"type":"LineString","coordinates":[[-73.4237153753694,41.0958107493684],[-73.4249758819272,41.0929539526182]]},"properties":{"id":"ct-norwalk-0-466550ab052f6ab3f691","sourceId":"ct-norwalk-0","category":"unknown","states":["CT"],"routeStatus":"Status not established","carrier":"Norwalk CT GIS","publishedLineParts":1},"bbox":[-73.4249758819272,41.0929539526182,-73.4237153753694,41.0958107493684]},{"type":"Feature","geometry":{"type":"LineString","coordinates":[[-73.4197112729889,41.1098008628634],[-73.4206407864118,41.1168856799299]]},"properties":{"id":"ct-norwalk-0-a98854538f5814398704","sourceId":"ct-norwalk-0","category":"unknown","states":["CT"],"routeStatus":"Status not established","carrier":"Norwalk CT GIS","publishedLineParts":1},"bbox":[-73.4206407864118,41.1098008628634,-73.4195434608676,41.1168856799299]},{"type":"Feature","geometry":{"type":"LineString","coordinates":[[-73.4158687857086,41.117613593465],[-73.4209613099841,41.1179923973124],[-73.4259670825176,41.1237523266164]]},"properties":{"id":"ct-norwalk-0-f4b6e87c9b15f2f71f84","sourceId":"ct-norwalk-0","category":"unknown","states":["CT"],"routeStatus":"Status not established","carrier":"Norwalk CT GIS","publishedLineParts":1},"bbox":[-73.4259670825176,41.117613593465,-73.4158687857086,41.1237523266164]},{"type":"Feature","geometry":{"type":"LineString","coordinates":[[-73.4259670825176,41.1237523266164],[-73.4389407499963,41.1290261456684]]},"properties":{"id":"ct-norwalk-0-5f467f99091676693265","sourceId":"ct-norwalk-0","category":"unknown","states":["CT"],"routeStatus":"Status not established","carrier":"Norwalk CT GIS","publishedLineParts":1},"bbox":[-73.4389407499963,41.1237523266164,-73.4259670825176,41.1290261456684]},{"type":"Feature","geometry":{"type":"LineString","coordinates":[[-73.4083008249539,41.1178426144197],[-73.4114495319563,41.1221338093134],[-73.4167889816169,41.1197322076095]]},"properties":{"id":"ct-norwalk-0-c99a11d2a7bbc899b20b","sourceId":"ct-norwalk-0","category":"unknown","states":["CT"],"routeStatus":"Status not established","carrier":"Norwalk CT GIS","publishedLineParts":1},"bbox":[-73.4167889816169,41.1178426144197,-73.4082871465651,41.1221338093134]},{"type":"Feature","geometry":{"type":"LineString","coordinates":[[-73.4081907158606,41.1176311915023],[-73.405363976509,41.1258849455989]]},"properties":{"id":"ct-norwalk-0-9fa3ff0fa071bd870d73","sourceId":"ct-norwalk-0","category":"unknown","states":["CT"],"routeStatus":"Status not established","carrier":"Norwalk CT GIS","publishedLineParts":1},"bbox":[-73.4082558547771,41.1176311915023,-73.405363976509,41.1258849455989]},{"type":"Feature","geometry":{"type":"LineString","coordinates":[[-73.405363976509,41.1258849455989],[-73.4103755941786,41.1257613900051]]},"properties":{"id":"ct-norwalk-0-69d6fa9ab798726b4844","sourceId":"ct-norwalk-0","category":"unknown","states":["CT"],"routeStatus":"Status not established","carrier":"Norwalk CT GIS","publishedLineParts":1},"bbox":[-73.4103755941786,41.1257613900051,-73.405363976509,41.1261724989262]},{"type":"Feature","geometry":{"type":"LineString","coordinates":[[-73.405363976509,41.1258849455989],[-73.3987284198084,41.1379495467689]]},"properties":{"id":"ct-norwalk-0-c4ccfa946b5fe97070c2","sourceId":"ct-norwalk-0","category":"unknown","states":["CT"],"routeStatus":"Status not established","carrier":"Norwalk CT GIS","publishedLineParts":1},"bbox":[-73.405363976509,41.1258849455989,-73.3987284198084,41.1379495467689]},{"type":"Feature","geometry":{"type":"LineString","coordinates":[[-73.3987284198084,41.1379495467689],[-73.395225236699,41.1431727008515]]},"properties":{"id":"ct-norwalk-0-d8fdd8ca34b5392c6239","sourceId":"ct-norwalk-0","category":"unknown","states":["CT"],"routeStatus":"Status not established","carrier":"Norwalk CT GIS","publishedLineParts":1},"bbox":[-73.3987284198084,41.1379495467689,-73.395225236699,41.1431727008515]},{"type":"Feature","geometry":{"type":"LineString","coordinates":[[-73.4150638066534,41.1181911440433],[-73.4147845259536,41.117961239372]]},"properties":{"id":"ct-norwalk-0-f93d6f0d65535cf130d3","sourceId":"ct-norwalk-0","category":"unknown","states":["CT"],"routeStatus":"Status not established","carrier":"Norwalk CT GIS","publishedLineParts":1},"bbox":[-73.4150638066534,41.117961239372,-73.4147845259536,41.1181911440433]},{"type":"Feature","geometry":{"type":"LineString","coordinates":[[-73.4188012578328,41.0990611930056],[-73.420754884183,41.1011080788103]]},"properties":{"id":"ct-norwalk-0-5836dc8dd61efa8660b9","sourceId":"ct-norwalk-0","category":"unknown","states":["CT"],"routeStatus":"Status not established","carrier":"Norwalk CT GIS","publishedLineParts":1},"bbox":[-73.420754884183,41.0990611930056,-73.4188012578328,41.1017030396324]},{"type":"Feature","geometry":{"type":"LineString","coordinates":[[-73.4248409085495,41.1038105707597],[-73.4293033371173,41.1051440040876],[-73.4261506924244,41.1062177964503]]},"properties":{"id":"ct-norwalk-0-0b15aba4999a1f1d16b9","sourceId":"ct-norwalk-0","category":"unknown","states":["CT"],"routeStatus":"Status not established","carrier":"Norwalk CT GIS","publishedLineParts":1},"bbox":[-73.4293033371173,41.1038105707597,-73.4248409085495,41.1062177964503]},{"type":"Feature","geometry":{"type":"LineString","coordinates":[[-73.4133246718806,41.1179017115976],[-73.4134754037972,41.1180160237349]]},"properties":{"id":"ct-norwalk-0-5f19ea659e009d6ca6ee","sourceId":"ct-norwalk-0","category":"unknown","states":["CT"],"routeStatus":"Status not established","carrier":"Norwalk CT GIS","publishedLineParts":1},"bbox":[-73.4142698561736,41.1170170728481,-73.4133246718806,41.1180160237349]},{"type":"Feature","geometry":{"type":"LineString","coordinates":[[-73.4012345505708,41.1058617821286],[-73.4048143391168,41.1050705001935]]},"properties":{"id":"ct-norwalk-0-15f4ed987cbca2f87a49","sourceId":"ct-norwalk-0","category":"unknown","states":["CT"],"routeStatus":"Status not established","carrier":"Norwalk CT GIS","publishedLineParts":1},"bbox":[-73.4048143391168,41.1050705001935,-73.4012345505708,41.1058617821286]},{"type":"Feature","geometry":{"type":"LineString","coordinates":[[-73.4125319902408,41.1035811142002],[-73.4108141409493,41.1008378472814]]},"properties":{"id":"ct-norwalk-0-a023d705ef3fc6955021","sourceId":"ct-norwalk-0","category":"unknown","states":["CT"],"routeStatus":"Status not established","carrier":"Norwalk CT GIS","publishedLineParts":1},"bbox":[-73.4125319902408,41.1008378472814,-73.4108141409493,41.10359111897]},{"type":"Feature","geometry":{"type":"LineString","coordinates":[[-73.4125341304611,41.1035202592387],[-73.4108299799108,41.1008366192687]]},"properties":{"id":"ct-norwalk-0-b8ed57f97a7a4ca15124","sourceId":"ct-norwalk-0","category":"unknown","states":["CT"],"routeStatus":"Status not established","carrier":"Norwalk CT GIS","publishedLineParts":1},"bbox":[-73.4125341304611,41.1008366192687,-73.4108299799108,41.1035412694166]},{"type":"Feature","geometry":{"type":"LineString","coordinates":[[-73.4076385266043,41.1135915376329],[-73.4077867420849,41.1157978023775]]},"properties":{"id":"ct-norwalk-0-0bbb7c61e59b09f04b60","sourceId":"ct-norwalk-0","category":"unknown","states":["CT"],"routeStatus":"Status not established","carrier":"Norwalk CT GIS","publishedLineParts":1},"bbox":[-73.4077867420849,41.1135915376329,-73.4076385266043,41.1157978023775]},{"type":"Feature","geometry":{"type":"LineString","coordinates":[[-73.406853196559,41.113307774676],[-73.4076385266043,41.1135915376329]]},"properties":{"id":"ct-norwalk-0-8e1091a7cad18f2240c7","sourceId":"ct-norwalk-0","category":"unknown","states":["CT"],"routeStatus":"Status not established","carrier":"Norwalk CT GIS","publishedLineParts":1},"bbox":[-73.4076385266043,41.113307774676,-73.406853196559,41.1135915376329]},{"type":"Feature","geometry":{"type":"LineString","coordinates":[[-73.4144425998412,41.118636832542],[-73.4150157394795,41.1182256306179]]},"properties":{"id":"ct-norwalk-0-10d71d06630351372ac5","sourceId":"ct-norwalk-0","category":"unknown","states":["CT"],"routeStatus":"Status not established","carrier":"Norwalk CT GIS","publishedLineParts":1},"bbox":[-73.4150157394795,41.1182256306179,-73.4144425998412,41.118636832542]},{"type":"Feature","geometry":{"type":"LineString","coordinates":[[-73.4150157394795,41.1182256306179],[-73.4147464795761,41.1179958161081]]},"properties":{"id":"ct-norwalk-0-71a91de49ba6faa599e6","sourceId":"ct-norwalk-0","category":"unknown","states":["CT"],"routeStatus":"Status not established","carrier":"Norwalk CT GIS","publishedLineParts":1},"bbox":[-73.4150157394795,41.1179958161081,-73.4147464795761,41.1182256306179]},{"type":"Feature","geometry":{"type":"LineString","coordinates":[[-73.4180028039429,41.1100248432228],[-73.4166187881046,41.1096040802328]]},"properties":{"id":"ct-norwalk-0-89791bca8c71816fa783","sourceId":"ct-norwalk-0","category":"unknown","states":["CT"],"routeStatus":"Status not established","carrier":"Norwalk CT GIS","publishedLineParts":1},"bbox":[-73.4180028039429,41.1096040802328,-73.4166187881046,41.1100248432228]},{"type":"Feature","geometry":{"type":"LineString","coordinates":[[-73.4179561026604,41.1100732992092],[-73.4166162672908,41.1096578499433]]},"properties":{"id":"ct-norwalk-0-8bb4c00aa48eb59be1e5","sourceId":"ct-norwalk-0","category":"unknown","states":["CT"],"routeStatus":"Status not established","carrier":"Norwalk CT GIS","publishedLineParts":1},"bbox":[-73.4179561026604,41.1096578499433,-73.4166162672908,41.1100732992092]},{"type":"Feature","geometry":{"type":"LineString","coordinates":[[-73.4293033371173,41.1051440040876],[-73.4335738636395,41.103554256722]]},"properties":{"id":"ct-norwalk-0-3cbdb3651cab44da8681","sourceId":"ct-norwalk-0","category":"unknown","states":["CT"],"routeStatus":"Status not established","carrier":"Norwalk CT GIS","publishedLineParts":1},"bbox":[-73.4335738636395,41.103554256722,-73.4293033371173,41.1051440040876]},{"type":"Feature","geometry":{"type":"LineString","coordinates":[[-73.4083008249539,41.1178426144197],[-73.4133246718806,41.1179017115976]]},"properties":{"id":"ct-norwalk-0-75c95cd6807dc595e340","sourceId":"ct-norwalk-0","category":"unknown","states":["CT"],"routeStatus":"Status not established","carrier":"Norwalk CT GIS","publishedLineParts":1},"bbox":[-73.4133246718806,41.1177252449516,-73.4083008249539,41.1185206305243]},{"type":"Feature","geometry":{"type":"LineString","coordinates":[[-73.4237153753694,41.0958107493684],[-73.4221092750507,41.0994940038458]]},"properties":{"id":"ct-norwalk-0-2186fd755b345be045a3","sourceId":"ct-norwalk-0","category":"unknown","states":["CT"],"routeStatus":"Status not established","carrier":"Norwalk CT GIS","publishedLineParts":1},"bbox":[-73.4237153753694,41.0958107493684,-73.4221092750507,41.0994940038458]},{"type":"Feature","geometry":{"type":"LineString","coordinates":[[-73.4005996753583,41.1047361046108],[-73.4012345505708,41.1058617821286]]},"properties":{"id":"ct-norwalk-0-fe94b3fbf48a76a79bd2","sourceId":"ct-norwalk-0","category":"unknown","states":["CT"],"routeStatus":"Status not established","carrier":"Norwalk CT GIS","publishedLineParts":1},"bbox":[-73.4012345505708,41.1047361046108,-73.4005996753583,41.1058617821286]},{"type":"Feature","geometry":{"type":"LineString","coordinates":[[-73.4133390466038,41.1179284997765],[-73.4144425998412,41.118636832542]]},"properties":{"id":"ct-norwalk-0-f08232b91a1abfcfe01a","sourceId":"ct-norwalk-0","category":"unknown","states":["CT"],"routeStatus":"Status not established","carrier":"Norwalk CT GIS","publishedLineParts":1},"bbox":[-73.4144425998412,41.1179284997765,-73.4133390466038,41.118636832542]},{"type":"Feature","geometry":{"type":"LineString","coordinates":[[-73.4108299799108,41.1008366192687],[-73.4071700948149,41.1014590707622]]},"properties":{"id":"ct-norwalk-1-777ca9503c4f76b2aea2","sourceId":"ct-norwalk-1","category":"unknown","states":["CT"],"routeStatus":"Status not established","carrier":"Norwalk CT GIS","publishedLineParts":1},"bbox":[-73.4108299799108,41.1008366192687,-73.4071700948149,41.1014590707622]},{"type":"Feature","geometry":{"type":"LineString","coordinates":[[-73.4071700948149,41.1014590707622],[-73.4037964835382,41.1020706187001]]},"properties":{"id":"ct-norwalk-1-5f1d01d3ffff60022b9a","sourceId":"ct-norwalk-1","category":"unknown","states":["CT"],"routeStatus":"Status not established","carrier":"Norwalk CT GIS","publishedLineParts":1},"bbox":[-73.4071700948149,41.1014590707622,-73.4037964835382,41.1020706187001]},{"type":"Feature","geometry":{"type":"LineString","coordinates":[[-73.4037964835382,41.1020706187001],[-73.4077181825464,41.1122793725773]]},"properties":{"id":"ct-norwalk-1-fed39026a71337631f5c","sourceId":"ct-norwalk-1","category":"unknown","states":["CT"],"routeStatus":"Status not established","carrier":"Norwalk CT GIS","publishedLineParts":1},"bbox":[-73.4077181825464,41.1020706187001,-73.4037964835382,41.1122793725773]},{"type":"Feature","geometry":{"type":"LineString","coordinates":[[-73.4077181825464,41.1122793725773],[-73.4036257306511,41.1110324016279]]},"properties":{"id":"ct-norwalk-1-95be76bba263001d39fd","sourceId":"ct-norwalk-1","category":"unknown","states":["CT"],"routeStatus":"Status not established","carrier":"Norwalk CT GIS","publishedLineParts":1},"bbox":[-73.4077181825464,41.1110324016279,-73.4036257306511,41.1122793725773]},{"type":"Feature","geometry":{"type":"LineString","coordinates":[[-73.4036257306511,41.1110324016279],[-73.4032953984109,41.1120206373435]]},"properties":{"id":"ct-norwalk-1-f4cb998f183d343ed86d","sourceId":"ct-norwalk-1","category":"unknown","states":["CT"],"routeStatus":"Status not established","carrier":"Norwalk CT GIS","publishedLineParts":1},"bbox":[-73.4036257306511,41.1110324016279,-73.4032953984109,41.1120206373435]},{"type":"Feature","geometry":{"type":"LineString","coordinates":[[-73.4032953984109,41.1120206373435],[-73.3986238849196,41.1117184715079]]},"properties":{"id":"ct-norwalk-1-413cab2379dc7982104e","sourceId":"ct-norwalk-1","category":"unknown","states":["CT"],"routeStatus":"Status not established","carrier":"Norwalk CT GIS","publishedLineParts":1},"bbox":[-73.4032953984109,41.111277074393,-73.3986238849196,41.1120206373435]},{"type":"Feature","geometry":{"type":"LineString","coordinates":[[-73.3986238849196,41.1117184715079],[-73.3928373538247,41.1195124906116]]},"properties":{"id":"ct-norwalk-1-107b03f4267a70d37cc9","sourceId":"ct-norwalk-1","category":"unknown","states":["CT"],"routeStatus":"Status not established","carrier":"Norwalk CT GIS","publishedLineParts":1},"bbox":[-73.3986238849196,41.1117184715079,-73.3928373538247,41.1195124906116]},{"type":"Feature","geometry":{"type":"LineString","coordinates":[[-73.3928373538247,41.1195124906116],[-73.3925511133252,41.1193985506543],[-73.3912129449187,41.1192365163141],[-73.3905896026955,41.1192828970894],[-73.3901507199181,41.1193634213302],[-73.3886926806996,41.1198156736605],[-73.3885120401897,41.1204292472872],[-73.3928186510969,41.1195328472137]]},"properties":{"id":"ct-norwalk-1-952e7ff88086d584332a","sourceId":"ct-norwalk-1","category":"unknown","states":["CT"],"routeStatus":"Status not established","carrier":"Norwalk CT GIS","publishedLineParts":1},"bbox":[-73.3928373538247,41.1192365163141,-73.3885120401897,41.1204313212021]},{"type":"Feature","geometry":{"type":"LineString","coordinates":[[-73.3928186510969,41.1195328472137],[-73.3911125334505,41.1237733140359]]},"properties":{"id":"ct-norwalk-1-0e5e6342fab9cce0f4cc","sourceId":"ct-norwalk-1","category":"unknown","states":["CT"],"routeStatus":"Status not established","carrier":"Norwalk CT GIS","publishedLineParts":1},"bbox":[-73.3928186510969,41.1195328472137,-73.3910110060871,41.1237733140359]},{"type":"Feature","geometry":{"type":"LineString","coordinates":[[-73.3911125334505,41.1237733140359],[-73.3911347408004,41.1260365405137]]},"properties":{"id":"ct-norwalk-1-df9d94494741f201a9c6","sourceId":"ct-norwalk-1","category":"unknown","states":["CT"],"routeStatus":"Status not established","carrier":"Norwalk CT GIS","publishedLineParts":1},"bbox":[-73.3912121926858,41.1237733140359,-73.3911125334505,41.1260365405137]},{"type":"Feature","geometry":{"type":"LineString","coordinates":[[-73.3911347408004,41.1260365405137],[-73.4068339138654,41.121356346597]]},"properties":{"id":"ct-norwalk-1-bf5e0de0deb7b2f97d3b","sourceId":"ct-norwalk-1","category":"unknown","states":["CT"],"routeStatus":"Status not established","carrier":"Norwalk CT GIS","publishedLineParts":1},"bbox":[-73.4068339138654,41.121275826657,-73.3911347408004,41.1260365405137]},{"type":"Feature","geometry":{"type":"LineString","coordinates":[[-73.4068339138654,41.121356346597],[-73.4127314070406,41.1219357836124],[-73.4136517609256,41.1256947609034]]},"properties":{"id":"ct-norwalk-1-eb29a84c7352d3c7491e","sourceId":"ct-norwalk-1","category":"unknown","states":["CT"],"routeStatus":"Status not established","carrier":"Norwalk CT GIS","publishedLineParts":1},"bbox":[-73.4140788036518,41.121356346597,-73.4068339138654,41.1256947609034]},{"type":"Feature","geometry":{"type":"LineString","coordinates":[[-73.4136517609256,41.1256947609034],[-73.4103755941786,41.1257613900051],[-73.4121799625092,41.1281453399258]]},"properties":{"id":"ct-norwalk-1-7f28457eb3883b707377","sourceId":"ct-norwalk-1","category":"unknown","states":["CT"],"routeStatus":"Status not established","carrier":"Norwalk CT GIS","publishedLineParts":1},"bbox":[-73.4136517609256,41.1255419687579,-73.4103755941786,41.1281453399258]},{"type":"Feature","geometry":{"type":"LineString","coordinates":[[-73.4121799625092,41.1281453399258],[-73.4146518355619,41.1357311005375]]},"properties":{"id":"ct-norwalk-1-948b844db99e1014c79c","sourceId":"ct-norwalk-1","category":"unknown","states":["CT"],"routeStatus":"Status not established","carrier":"Norwalk CT GIS","publishedLineParts":1},"bbox":[-73.4146518355619,41.1281453399258,-73.4121799625092,41.1357311005375]},{"type":"Feature","geometry":{"type":"LineString","coordinates":[[-73.4146518355619,41.1357311005375],[-73.4177719644598,41.1419311835535]]},"properties":{"id":"ct-norwalk-1-54484c5ec2c47dd82066","sourceId":"ct-norwalk-1","category":"unknown","states":["CT"],"routeStatus":"Status not established","carrier":"Norwalk CT GIS","publishedLineParts":1},"bbox":[-73.4177719644598,41.1357311005375,-73.4146518355619,41.1419311835535]},{"type":"Feature","geometry":{"type":"LineString","coordinates":[[-73.4177719644598,41.1419311835535],[-73.4249684931178,41.1368857048036]]},"properties":{"id":"ct-norwalk-1-ed842e75ab20d0d84240","sourceId":"ct-norwalk-1","category":"unknown","states":["CT"],"routeStatus":"Status not established","carrier":"Norwalk CT GIS","publishedLineParts":1},"bbox":[-73.4249684931178,41.1368857048036,-73.4177719644598,41.142177745504]},{"type":"Feature","geometry":{"type":"LineString","coordinates":[[-73.4249684931178,41.1368857048036],[-73.4219347532451,41.1268733355697]]},"properties":{"id":"ct-norwalk-1-ed727e53bbbf30c670e3","sourceId":"ct-norwalk-1","category":"unknown","states":["CT"],"routeStatus":"Status not established","carrier":"Norwalk CT GIS","publishedLineParts":1},"bbox":[-73.4249684931178,41.1268733355697,-73.4219347532451,41.1368857048036]},{"type":"Feature","geometry":{"type":"LineString","coordinates":[[-73.4219347532451,41.1268733355697],[-73.415982824457,41.1240968496005]]},"properties":{"id":"ct-norwalk-1-7426f20625c35000c04d","sourceId":"ct-norwalk-1","category":"unknown","states":["CT"],"routeStatus":"Status not established","carrier":"Norwalk CT GIS","publishedLineParts":1},"bbox":[-73.4219347532451,41.1240968496005,-73.415982824457,41.1268733355697]},{"type":"Feature","geometry":{"type":"LineString","coordinates":[[-73.415982824457,41.1240968496005],[-73.4136572779328,41.1215849499935]]},"properties":{"id":"ct-norwalk-1-2848212a263e1bd18ea2","sourceId":"ct-norwalk-1","category":"unknown","states":["CT"],"routeStatus":"Status not established","carrier":"Norwalk CT GIS","publishedLineParts":1},"bbox":[-73.415982824457,41.1215849499935,-73.4136572779328,41.1240968496005]},{"type":"Feature","geometry":{"type":"LineString","coordinates":[[-73.4136572779328,41.1215849499935],[-73.4176889459457,41.1183927631624]]},"properties":{"id":"ct-norwalk-1-661dac95d758e8d6f927","sourceId":"ct-norwalk-1","category":"unknown","states":["CT"],"routeStatus":"Status not established","carrier":"Norwalk CT GIS","publishedLineParts":1},"bbox":[-73.417692353884,41.1183927631624,-73.4136572779328,41.1215849499935]},{"type":"Feature","geometry":{"type":"LineString","coordinates":[[-73.4176889459457,41.1183927631624],[-73.4209613099841,41.1179923973124],[-73.4297434674895,41.126350657679]]},"properties":{"id":"ct-norwalk-1-3ac1c16910f70d8e1bd9","sourceId":"ct-norwalk-1","category":"unknown","states":["CT"],"routeStatus":"Status not established","carrier":"Norwalk CT GIS","publishedLineParts":1},"bbox":[-73.4297434674895,41.1179923973124,-73.4176889459457,41.126350657679]},{"type":"Feature","geometry":{"type":"LineString","coordinates":[[-73.4297434674895,41.126350657679],[-73.4413346004879,41.1297714649275]]},"properties":{"id":"ct-norwalk-1-1ada17b64b356623c144","sourceId":"ct-norwalk-1","category":"unknown","states":["CT"],"routeStatus":"Status not established","carrier":"Norwalk CT GIS","publishedLineParts":1},"bbox":[-73.4413346004879,41.126350657679,-73.4297434674895,41.1297714649275]},{"type":"Feature","geometry":{"type":"LineString","coordinates":[[-73.4413346004879,41.1297714649275],[-73.440292790944,41.1258220918485]]},"properties":{"id":"ct-norwalk-1-b8514ec7a967fd2f40b3","sourceId":"ct-norwalk-1","category":"unknown","states":["CT"],"routeStatus":"Status not established","carrier":"Norwalk CT GIS","publishedLineParts":1},"bbox":[-73.4416653734584,41.1258220918485,-73.440292790944,41.1297714649275]},{"type":"Feature","geometry":{"type":"LineString","coordinates":[[-73.440292790944,41.1258220918485],[-73.4445756070338,41.1256055419104],[-73.4443500683693,41.1233578446366]]},"properties":{"id":"ct-norwalk-1-c8da9862e8e754fe9b12","sourceId":"ct-norwalk-1","category":"unknown","states":["CT"],"routeStatus":"Status not established","carrier":"Norwalk CT GIS","publishedLineParts":1},"bbox":[-73.4445756070338,41.1233578446366,-73.440292790944,41.1260819037306]},{"type":"Feature","geometry":{"type":"LineString","coordinates":[[-73.4443500683693,41.1233578446366],[-73.4413612711699,41.119602107247]]},"properties":{"id":"ct-norwalk-1-460676b024d5c12a3b7b","sourceId":"ct-norwalk-1","category":"unknown","states":["CT"],"routeStatus":"Status not established","carrier":"Norwalk CT GIS","publishedLineParts":1},"bbox":[-73.4443500683693,41.119602107247,-73.4413612711699,41.1233578446366]},{"type":"Feature","geometry":{"type":"LineString","coordinates":[[-73.4413612711699,41.119602107247],[-73.4338407316966,41.1186753092211]]},"properties":{"id":"ct-norwalk-1-b9e0b8d0463b875ca45e","sourceId":"ct-norwalk-1","category":"unknown","states":["CT"],"routeStatus":"Status not established","carrier":"Norwalk CT GIS","publishedLineParts":1},"bbox":[-73.4413612711699,41.11773598509,-73.4338407316966,41.119602107247]},{"type":"Feature","geometry":{"type":"LineString","coordinates":[[-73.4338407316966,41.1186753092211],[-73.4289606077798,41.1195811660756]]},"properties":{"id":"ct-norwalk-1-a3e578cc635844dd0a65","sourceId":"ct-norwalk-1","category":"unknown","states":["CT"],"routeStatus":"Status not established","carrier":"Norwalk CT GIS","publishedLineParts":1},"bbox":[-73.4338407316966,41.1185902598627,-73.4289606077798,41.1195811660756]},{"type":"Feature","geometry":{"type":"LineString","coordinates":[[-73.4289606077798,41.1195811660756],[-73.4239508384174,41.1177048377679]]},"properties":{"id":"ct-norwalk-1-9b984c10a49bc82bceff","sourceId":"ct-norwalk-1","category":"unknown","states":["CT"],"routeStatus":"Status not established","carrier":"Norwalk CT GIS","publishedLineParts":1},"bbox":[-73.4289606077798,41.1169060010884,-73.4239508384174,41.1195811660756]},{"type":"Feature","geometry":{"type":"LineString","coordinates":[[-73.4239508384174,41.1177048377679],[-73.4206407864118,41.1168856799299],[-73.4197313897704,41.1117639109711]]},"properties":{"id":"ct-norwalk-1-e5cdc0f627c97ce803aa","sourceId":"ct-norwalk-1","category":"unknown","states":["CT"],"routeStatus":"Status not established","carrier":"Norwalk CT GIS","publishedLineParts":1},"bbox":[-73.4239508384174,41.1117639109711,-73.4195434608676,41.1177048377679]},{"type":"Feature","geometry":{"type":"LineString","coordinates":[[-73.4197313897704,41.1117639109711],[-73.4207520194081,41.1080793690403],[-73.4261506924244,41.1062177964503]]},"properties":{"id":"ct-norwalk-1-3ee8331db2c6c45182bc","sourceId":"ct-norwalk-1","category":"unknown","states":["CT"],"routeStatus":"Status not established","carrier":"Norwalk CT GIS","publishedLineParts":1},"bbox":[-73.4261506924244,41.1062177964503,-73.4196985729455,41.1117639109711]},{"type":"Feature","geometry":{"type":"LineString","coordinates":[[-73.4261506924244,41.1062177964503],[-73.4232687324758,41.0992017230719],[-73.4313242353808,41.0948750121305]]},"properties":{"id":"ct-norwalk-1-59533326c6e736b717b2","sourceId":"ct-norwalk-1","category":"unknown","states":["CT"],"routeStatus":"Status not established","carrier":"Norwalk CT GIS","publishedLineParts":1},"bbox":[-73.4313242353808,41.0944948895371,-73.4229608619792,41.1062177964503]},{"type":"Feature","geometry":{"type":"LineString","coordinates":[[-73.4313242353808,41.0948750121305],[-73.4353940369748,41.0925551364745]]},"properties":{"id":"ct-norwalk-1-30a9e29b8d13e2ed052d","sourceId":"ct-norwalk-1","category":"unknown","states":["CT"],"routeStatus":"Status not established","carrier":"Norwalk CT GIS","publishedLineParts":1},"bbox":[-73.4353940369748,41.0925551364745,-73.4313242353808,41.0948750121305]},{"type":"Feature","geometry":{"type":"LineString","coordinates":[[-73.4353940369748,41.0925551364745],[-73.4375263497694,41.0916846249063],[-73.4355887426459,41.0870980683972]]},"properties":{"id":"ct-norwalk-1-e3838afb9861c99d89a9","sourceId":"ct-norwalk-1","category":"unknown","states":["CT"],"routeStatus":"Status not established","carrier":"Norwalk CT GIS","publishedLineParts":1},"bbox":[-73.4375263497694,41.0870980683972,-73.4353940369748,41.0925551364745]},{"type":"Feature","geometry":{"type":"LineString","coordinates":[[-73.4355887426459,41.0870980683972],[-73.4336904640135,41.0802240558909]]},"properties":{"id":"ct-norwalk-1-d8eacb514371f32ed665","sourceId":"ct-norwalk-1","category":"unknown","states":["CT"],"routeStatus":"Status not established","carrier":"Norwalk CT GIS","publishedLineParts":1},"bbox":[-73.4355887426459,41.0802240558909,-73.4336642113606,41.0870980683972]},{"type":"Feature","geometry":{"type":"LineString","coordinates":[[-73.4336904640135,41.0802240558909],[-73.4342299842385,41.0764183709042]]},"properties":{"id":"ct-norwalk-1-36beb486c31c599d45b1","sourceId":"ct-norwalk-1","category":"unknown","states":["CT"],"routeStatus":"Status not established","carrier":"Norwalk CT GIS","publishedLineParts":1},"bbox":[-73.4342299842385,41.0764183709042,-73.4332574422308,41.0802240558909]},{"type":"Feature","geometry":{"type":"LineString","coordinates":[[-73.4342299842385,41.0764183709042],[-73.4358524687339,41.0678126130305]]},"properties":{"id":"ct-norwalk-1-c7b257aa0b5dac5703a5","sourceId":"ct-norwalk-1","category":"unknown","states":["CT"],"routeStatus":"Status not established","carrier":"Norwalk CT GIS","publishedLineParts":1},"bbox":[-73.4358524687339,41.0678126130305,-73.4342299842385,41.0764183709042]},{"type":"Feature","geometry":{"type":"LineString","coordinates":[[-73.4358524687339,41.0678126130305],[-73.4279291509551,41.0760366348337]]},"properties":{"id":"ct-norwalk-1-85b2ecf78aa25c8ef08a","sourceId":"ct-norwalk-1","category":"unknown","states":["CT"],"routeStatus":"Status not established","carrier":"Norwalk CT GIS","publishedLineParts":1},"bbox":[-73.4358524687339,41.0676196374129,-73.4279291509551,41.0760366348337]},{"type":"Feature","geometry":{"type":"LineString","coordinates":[[-73.4279291509551,41.0760366348337],[-73.4211797622237,41.0853181707248]]},"properties":{"id":"ct-norwalk-1-8d2e56b7ebaebe575e5c","sourceId":"ct-norwalk-1","category":"unknown","states":["CT"],"routeStatus":"Status not established","carrier":"Norwalk CT GIS","publishedLineParts":1},"bbox":[-73.4279291509551,41.0760366348337,-73.4211797622237,41.0853181707248]},{"type":"Feature","geometry":{"type":"LineString","coordinates":[[-73.4211797622237,41.0853181707248],[-73.418972795217,41.0965883607069]]},"properties":{"id":"ct-norwalk-1-a2a25681aaf9eb4147cc","sourceId":"ct-norwalk-1","category":"unknown","states":["CT"],"routeStatus":"Status not established","carrier":"Norwalk CT GIS","publishedLineParts":1},"bbox":[-73.4211797622237,41.0853181707248,-73.418972795217,41.0966112174258]},{"type":"Feature","geometry":{"type":"LineString","coordinates":[[-73.418972795217,41.0965883607069],[-73.4188012578328,41.0990611930056],[-73.4108299799108,41.1008366192687]]},"properties":{"id":"ct-norwalk-1-60fcec6cf3ecb6ab13cb","sourceId":"ct-norwalk-1","category":"unknown","states":["CT"],"routeStatus":"Status not established","carrier":"Norwalk CT GIS","publishedLineParts":1},"bbox":[-73.418972795217,41.0965883607069,-73.4108299799108,41.1008366192687]},{"type":"Feature","geometry":{"type":"LineString","coordinates":[[-73.4113018450208,41.10359111897],[-73.4046239397197,41.1044960098627]]},"properties":{"id":"ct-norwalk-2-00f4e6e4377abfc0be96","sourceId":"ct-norwalk-2","category":"unknown","states":["CT"],"routeStatus":"Status not established","carrier":"Norwalk CT GIS","publishedLineParts":1},"bbox":[-73.4113138563854,41.1028514230969,-73.4046239397197,41.1044960098627]},{"type":"Feature","geometry":{"type":"LineString","coordinates":[[-73.3959502539538,41.0927791123303],[-73.4005942248387,41.0989948541818]]},"properties":{"id":"ct-norwalk-2-2475a5f3cc58c7315f9b","sourceId":"ct-norwalk-2","category":"unknown","states":["CT"],"routeStatus":"Status not established","carrier":"Norwalk CT GIS","publishedLineParts":1},"bbox":[-73.4005942248387,41.0927791123303,-73.3959502539538,41.0989948541818]},{"type":"Feature","geometry":{"type":"LineString","coordinates":[[-73.4005942248387,41.0989948541818],[-73.4037964835382,41.1020706187001]]},"properties":{"id":"ct-norwalk-2-c3414b1b3835259eb8e8","sourceId":"ct-norwalk-2","category":"unknown","states":["CT"],"routeStatus":"Status not established","carrier":"Norwalk CT GIS","publishedLineParts":1},"bbox":[-73.4037964835382,41.0989948541818,-73.4005942248387,41.1020706187001]},{"type":"Feature","geometry":{"type":"LineString","coordinates":[[-73.4037964835382,41.1020706187001],[-73.4051598635275,41.1061130250433]]},"properties":{"id":"ct-norwalk-2-dcbc1dcfde1f4bb66f87","sourceId":"ct-norwalk-2","category":"unknown","states":["CT"],"routeStatus":"Status not established","carrier":"Norwalk CT GIS","publishedLineParts":1},"bbox":[-73.4051598635275,41.1020706187001,-73.4037964835382,41.1061130250433]},{"type":"Feature","geometry":{"type":"LineString","coordinates":[[-73.4051598635275,41.1061130250433],[-73.4086754763664,41.1102057653216]]},"properties":{"id":"ct-norwalk-2-8e7941fbe688c0fe5c1b","sourceId":"ct-norwalk-2","category":"unknown","states":["CT"],"routeStatus":"Status not established","carrier":"Norwalk CT GIS","publishedLineParts":1},"bbox":[-73.4086754763664,41.1061130250433,-73.4051598635275,41.1105555217837]},{"type":"Feature","geometry":{"type":"LineString","coordinates":[[-73.4073779502652,41.1105555217837],[-73.4072970231568,41.1125247106573]]},"properties":{"id":"ct-norwalk-2-045e7cb2ed150c5cb3d1","sourceId":"ct-norwalk-2","category":"unknown","states":["CT"],"routeStatus":"Status not established","carrier":"Norwalk CT GIS","publishedLineParts":1},"bbox":[-73.4077181825464,41.1105555217837,-73.4072970231568,41.1125247106573]},{"type":"Feature","geometry":{"type":"LineString","coordinates":[[-73.407690652008,41.1125105322911],[-73.4068339138654,41.121356346597]]},"properties":{"id":"ct-norwalk-2-8609159d04071b1e9b9c","sourceId":"ct-norwalk-2","category":"unknown","states":["CT"],"routeStatus":"Status not established","carrier":"Norwalk CT GIS","publishedLineParts":1},"bbox":[-73.4081850356983,41.1125105322911,-73.4068339138654,41.121356346597]},{"type":"Feature","geometry":{"type":"LineString","coordinates":[[-73.4075443533102,41.1110646640285],[-73.3986238849196,41.1117184715079]]},"properties":{"id":"ct-norwalk-2-fdc3ccd235a73c82a40f","sourceId":"ct-norwalk-2","category":"unknown","states":["CT"],"routeStatus":"Status not established","carrier":"Norwalk CT GIS","publishedLineParts":1},"bbox":[-73.4075443533102,41.1110324016279,-73.3986238849196,41.1120206373435]},{"type":"Feature","geometry":{"type":"LineString","coordinates":[[-73.3986238849196,41.1117184715079],[-73.3969546643782,41.1112161994049]]},"properties":{"id":"ct-norwalk-2-1b31409a36212b84c375","sourceId":"ct-norwalk-2","category":"unknown","states":["CT"],"routeStatus":"Status not established","carrier":"Norwalk CT GIS","publishedLineParts":1},"bbox":[-73.3986238849196,41.1108214732387,-73.3969546643782,41.1117184715079]},{"type":"Feature","geometry":{"type":"LineString","coordinates":[[-73.3986238849196,41.1117184715079],[-73.3928036561905,41.1195277710233]]},"properties":{"id":"ct-norwalk-2-b36f195f7256d7f698bf","sourceId":"ct-norwalk-2","category":"unknown","states":["CT"],"routeStatus":"Status not established","carrier":"Norwalk CT GIS","publishedLineParts":1},"bbox":[-73.3986238849196,41.1117184715079,-73.3928036561905,41.1195277710233]},{"type":"Feature","geometry":{"type":"LineString","coordinates":[[-73.3971332070176,41.1157866671387],[-73.3999406749937,41.1168886108324],[-73.3972910371004,41.1184617918717]]},"properties":{"id":"ct-norwalk-2-cad93b8981aba6ec397f","sourceId":"ct-norwalk-2","category":"unknown","states":["CT"],"routeStatus":"Status not established","carrier":"Norwalk CT GIS","publishedLineParts":1},"bbox":[-73.3999406749937,41.1150194203115,-73.3971332070176,41.1190966636242]},{"type":"Feature","geometry":{"type":"LineString","coordinates":[[-73.3928036561905,41.1195277710233],[-73.388704719376,41.1198366528534]]},"properties":{"id":"ct-norwalk-2-68881732b9f53cf2f283","sourceId":"ct-norwalk-2","category":"unknown","states":["CT"],"routeStatus":"Status not established","carrier":"Norwalk CT GIS","publishedLineParts":1},"bbox":[-73.3928036561905,41.1192365163141,-73.388704719376,41.1198366528534]},{"type":"Feature","geometry":{"type":"LineString","coordinates":[[-73.3928036561905,41.1195277710233],[-73.3911347408004,41.1260365405137]]},"properties":{"id":"ct-norwalk-2-87b8e7f4aabfe62e0c70","sourceId":"ct-norwalk-2","category":"unknown","states":["CT"],"routeStatus":"Status not established","carrier":"Norwalk CT GIS","publishedLineParts":1},"bbox":[-73.3928036561905,41.1195277710233,-73.3910110060871,41.1260365405137]},{"type":"Feature","geometry":{"type":"LineString","coordinates":[[-73.3911347408004,41.1260365405137],[-73.3811895364071,41.1286202046958]]},"properties":{"id":"ct-norwalk-2-a0132a6efce351529173","sourceId":"ct-norwalk-2","category":"unknown","states":["CT"],"routeStatus":"Status not established","carrier":"Norwalk CT GIS","publishedLineParts":1},"bbox":[-73.3911347408004,41.1260365405137,-73.3811895364071,41.1286202046958]},{"type":"Feature","geometry":{"type":"LineString","coordinates":[[-73.3911347408004,41.1260365405137],[-73.389989229783,41.1351423272278]]},"properties":{"id":"ct-norwalk-2-92d8ffbcd0b79a7ab875","sourceId":"ct-norwalk-2","category":"unknown","states":["CT"],"routeStatus":"Status not established","carrier":"Norwalk CT GIS","publishedLineParts":1},"bbox":[-73.3914227764186,41.1260365405137,-73.3885168499668,41.1353175591004]},{"type":"Feature","geometry":{"type":"LineString","coordinates":[[-73.3911347408004,41.1260365405137],[-73.4015653190169,41.1223401960091]]},"properties":{"id":"ct-norwalk-2-b24b6ca33edb57b93f84","sourceId":"ct-norwalk-2","category":"unknown","states":["CT"],"routeStatus":"Status not established","carrier":"Norwalk CT GIS","publishedLineParts":1},"bbox":[-73.4015653190169,41.1223401960091,-73.3911347408004,41.1260365405137]},{"type":"Feature","geometry":{"type":"LineString","coordinates":[[-73.4013802525623,41.1234126715309],[-73.4087247622982,41.121405023995],[-73.4140788036518,41.1243104409876]]},"properties":{"id":"ct-norwalk-2-c6c96353198ed822bc0c","sourceId":"ct-norwalk-2","category":"unknown","states":["CT"],"routeStatus":"Status not established","carrier":"Norwalk CT GIS","publishedLineParts":1},"bbox":[-73.4140788036518,41.121275826657,-73.4013802525623,41.1243104409876]},{"type":"Feature","geometry":{"type":"LineString","coordinates":[[-73.4140788036518,41.1243104409876],[-73.4103755941786,41.1257613900051],[-73.4123750457768,41.128739829546]]},"properties":{"id":"ct-norwalk-2-d78dafd65f172e2690b8","sourceId":"ct-norwalk-2","category":"unknown","states":["CT"],"routeStatus":"Status not established","carrier":"Norwalk CT GIS","publishedLineParts":1},"bbox":[-73.4140788036518,41.1243104409876,-73.4103755941786,41.128739829546]},{"type":"Feature","geometry":{"type":"LineString","coordinates":[[-73.4123750457768,41.128739829546],[-73.4146518355619,41.1357311005375]]},"properties":{"id":"ct-norwalk-2-4ff3b9776ae96cf479a1","sourceId":"ct-norwalk-2","category":"unknown","states":["CT"],"routeStatus":"Status not established","carrier":"Norwalk CT GIS","publishedLineParts":1},"bbox":[-73.4146518355619,41.128739829546,-73.4123750457768,41.1357311005375]},{"type":"Feature","geometry":{"type":"LineString","coordinates":[[-73.4146518355619,41.1357311005375],[-73.4164209442632,41.1350389134679]]},"properties":{"id":"ct-norwalk-2-4ea3dff91c0c18723603","sourceId":"ct-norwalk-2","category":"unknown","states":["CT"],"routeStatus":"Status not established","carrier":"Norwalk CT GIS","publishedLineParts":1},"bbox":[-73.4164209442632,41.1350389134679,-73.4146518355619,41.1357311005375]},{"type":"Feature","geometry":{"type":"LineString","coordinates":[[-73.4146518355619,41.1357311005375],[-73.418028953655,41.1443688442435]]},"properties":{"id":"ct-norwalk-2-cc59dd9aedaff36f7d41","sourceId":"ct-norwalk-2","category":"unknown","states":["CT"],"routeStatus":"Status not established","carrier":"Norwalk CT GIS","publishedLineParts":1},"bbox":[-73.418028953655,41.1357311005375,-73.4146518355619,41.1443688442435]},{"type":"Feature","geometry":{"type":"LineString","coordinates":[[-73.4177719644598,41.1419311835535],[-73.4226146903034,41.1378287482891]]},"properties":{"id":"ct-norwalk-2-af87857482f6bc8fd411","sourceId":"ct-norwalk-2","category":"unknown","states":["CT"],"routeStatus":"Status not established","carrier":"Norwalk CT GIS","publishedLineParts":1},"bbox":[-73.4226146903034,41.1378287482891,-73.4177719644598,41.142177745504]},{"type":"Feature","geometry":{"type":"LineString","coordinates":[[-73.4226146903034,41.1378287482891],[-73.4255389863441,41.1391404302046]]},"properties":{"id":"ct-norwalk-2-4daeb459d904792e2db8","sourceId":"ct-norwalk-2","category":"unknown","states":["CT"],"routeStatus":"Status not established","carrier":"Norwalk CT GIS","publishedLineParts":1},"bbox":[-73.4261645042157,41.1368857048036,-73.4226146903034,41.1391749705113]},{"type":"Feature","geometry":{"type":"LineString","coordinates":[[-73.4261444240242,41.1391749705113],[-73.4277263358885,41.1434159478219]]},"properties":{"id":"ct-norwalk-2-88533bada767eea3aa77","sourceId":"ct-norwalk-2","category":"unknown","states":["CT"],"routeStatus":"Status not established","carrier":"Norwalk CT GIS","publishedLineParts":1},"bbox":[-73.4277263358885,41.1391749705113,-73.4256938181887,41.1435601068513]},{"type":"Feature","geometry":{"type":"LineString","coordinates":[[-73.4249684931178,41.1368857048036],[-73.4225569233029,41.1291568579422]]},"properties":{"id":"ct-norwalk-2-4b6b82cf2bf408056cb0","sourceId":"ct-norwalk-2","category":"unknown","states":["CT"],"routeStatus":"Status not established","carrier":"Norwalk CT GIS","publishedLineParts":1},"bbox":[-73.4249684931178,41.1291568579422,-73.4225569233029,41.1368857048036]},{"type":"Feature","geometry":{"type":"LineString","coordinates":[[-73.4225569233029,41.1291568579422],[-73.4136572779328,41.1215849499935]]},"properties":{"id":"ct-norwalk-2-ea35da2db99c59e645f7","sourceId":"ct-norwalk-2","category":"unknown","states":["CT"],"routeStatus":"Status not established","carrier":"Norwalk CT GIS","publishedLineParts":1},"bbox":[-73.4225569233029,41.1215849499935,-73.4136572779328,41.1291568579422]},{"type":"Feature","geometry":{"type":"LineString","coordinates":[[-73.4136572779328,41.1215849499935],[-73.4127314070406,41.1219357836124]]},"properties":{"id":"ct-norwalk-2-20dacc5e019ccfbd9e7c","sourceId":"ct-norwalk-2","category":"unknown","states":["CT"],"routeStatus":"Status not established","carrier":"Norwalk CT GIS","publishedLineParts":1},"bbox":[-73.4136572779328,41.1215849499935,-73.4127314070406,41.1219357836124]},{"type":"Feature","geometry":{"type":"LineString","coordinates":[[-73.4136572779328,41.1215849499935],[-73.4209613099841,41.1179923973124]]},"properties":{"id":"ct-norwalk-2-dbdf121bbeb10b9bf8bf","sourceId":"ct-norwalk-2","category":"unknown","states":["CT"],"routeStatus":"Status not established","carrier":"Norwalk CT GIS","publishedLineParts":1},"bbox":[-73.4209613099841,41.1179923973124,-73.4136572779328,41.1215849499935]},{"type":"Feature","geometry":{"type":"LineString","coordinates":[[-73.4209613099841,41.1179923973124],[-73.4249813140741,41.1228766352469]]},"properties":{"id":"ct-norwalk-2-3b67fdc39ea2b35b058a","sourceId":"ct-norwalk-2","category":"unknown","states":["CT"],"routeStatus":"Status not established","carrier":"Norwalk CT GIS","publishedLineParts":1},"bbox":[-73.4249813140741,41.1179923973124,-73.4209613099841,41.1228766352469]},{"type":"Feature","geometry":{"type":"LineString","coordinates":[[-73.4249813140741,41.1228766352469],[-73.4326689953492,41.129172642553]]},"properties":{"id":"ct-norwalk-2-8360ed92439ba2cc6170","sourceId":"ct-norwalk-2","category":"unknown","states":["CT"],"routeStatus":"Status not established","carrier":"Norwalk CT GIS","publishedLineParts":1},"bbox":[-73.4326689953492,41.1228766352469,-73.4249813140741,41.129172642553]},{"type":"Feature","geometry":{"type":"LineString","coordinates":[[-73.4326689953492,41.129172642553],[-73.4376199200773,41.1343320121696]]},"properties":{"id":"ct-norwalk-2-e656d3045fa30dcc987a","sourceId":"ct-norwalk-2","category":"unknown","states":["CT"],"routeStatus":"Status not established","carrier":"Norwalk CT GIS","publishedLineParts":1},"bbox":[-73.4376199200773,41.129172642553,-73.4326689953492,41.1343320121696]},{"type":"Feature","geometry":{"type":"LineString","coordinates":[[-73.4376199200773,41.1343320121696],[-73.4412083084054,41.1393135841594]]},"properties":{"id":"ct-norwalk-2-de09c2d1d35df379f6b2","sourceId":"ct-norwalk-2","category":"unknown","states":["CT"],"routeStatus":"Status not established","carrier":"Norwalk CT GIS","publishedLineParts":1},"bbox":[-73.4412083084054,41.1343320121696,-73.4376199200773,41.1393135841594]},{"type":"Feature","geometry":{"type":"LineString","coordinates":[[-73.4412083084054,41.1393135841594],[-73.4440751314729,41.1457432142811]]},"properties":{"id":"ct-norwalk-2-1ee83dcfd863e8c2f834","sourceId":"ct-norwalk-2","category":"unknown","states":["CT"],"routeStatus":"Status not established","carrier":"Norwalk CT GIS","publishedLineParts":1},"bbox":[-73.4440751314729,41.1393135841594,-73.4412083084054,41.1457432142811]},{"type":"Feature","geometry":{"type":"LineString","coordinates":[[-73.4317875533488,41.1271032578101],[-73.4413346004879,41.1297714649275],[-73.440292790944,41.1258220918485]]},"properties":{"id":"ct-norwalk-2-6492d1e29f1db684937c","sourceId":"ct-norwalk-2","category":"unknown","states":["CT"],"routeStatus":"Status not established","carrier":"Norwalk CT GIS","publishedLineParts":1},"bbox":[-73.4416653734584,41.1258220918485,-73.4317875533488,41.1297714649275]},{"type":"Feature","geometry":{"type":"LineString","coordinates":[[-73.440292790944,41.1258220918485],[-73.4445079770643,41.1239858612283]]},"properties":{"id":"ct-norwalk-2-06725ba7353565885e52","sourceId":"ct-norwalk-2","category":"unknown","states":["CT"],"routeStatus":"Status not established","carrier":"Norwalk CT GIS","publishedLineParts":1},"bbox":[-73.4445756070338,41.1239858612283,-73.440292790944,41.1260819037306]},{"type":"Feature","geometry":{"type":"LineString","coordinates":[[-73.4445079770643,41.1239858612283],[-73.4413612711699,41.119602107247]]},"properties":{"id":"ct-norwalk-2-eeebf9f75d721eb61be3","sourceId":"ct-norwalk-2","category":"unknown","states":["CT"],"routeStatus":"Status not established","carrier":"Norwalk CT GIS","publishedLineParts":1},"bbox":[-73.4445079770643,41.119602107247,-73.4413612711699,41.1239858612283]},{"type":"Feature","geometry":{"type":"LineString","coordinates":[[-73.4413612711699,41.119602107247],[-73.4520240898532,41.1164329585935]]},"properties":{"id":"ct-norwalk-2-1fbe091c2b24ee74d51e","sourceId":"ct-norwalk-2","category":"unknown","states":["CT"],"routeStatus":"Status not established","carrier":"Norwalk CT GIS","publishedLineParts":1},"bbox":[-73.4520240898532,41.1164329585935,-73.4413612711699,41.1201048388079]},{"type":"Feature","geometry":{"type":"LineString","coordinates":[[-73.4520240898532,41.1164329585935],[-73.4551804809788,41.1146552436879]]},"properties":{"id":"ct-norwalk-2-42244844d5f5ede4bed4","sourceId":"ct-norwalk-2","category":"unknown","states":["CT"],"routeStatus":"Status not established","carrier":"Norwalk CT GIS","publishedLineParts":1},"bbox":[-73.4551804809788,41.1146552436879,-73.4520011964914,41.1164329585935]},{"type":"Feature","geometry":{"type":"LineString","coordinates":[[-73.4413612711699,41.119602107247],[-73.4338407316966,41.1186753092211]]},"properties":{"id":"ct-norwalk-2-b3f0ff634d8b1b30b830","sourceId":"ct-norwalk-2","category":"unknown","states":["CT"],"routeStatus":"Status not established","carrier":"Norwalk CT GIS","publishedLineParts":1},"bbox":[-73.4413612711699,41.11773598509,-73.4338407316966,41.119602107247]},{"type":"Feature","geometry":{"type":"LineString","coordinates":[[-73.4338407316966,41.1186753092211],[-73.4282216232233,41.1188041000639]]},"properties":{"id":"ct-norwalk-2-bc9f21c73850c9db6604","sourceId":"ct-norwalk-2","category":"unknown","states":["CT"],"routeStatus":"Status not established","carrier":"Norwalk CT GIS","publishedLineParts":1},"bbox":[-73.4338407316966,41.1185902598627,-73.4282216232233,41.1195811660756]},{"type":"Feature","geometry":{"type":"LineString","coordinates":[[-73.4282216232233,41.1188041000639],[-73.4268913619071,41.1169060010884]]},"properties":{"id":"ct-norwalk-2-4c41face9a0360bf3298","sourceId":"ct-norwalk-2","category":"unknown","states":["CT"],"routeStatus":"Status not established","carrier":"Norwalk CT GIS","publishedLineParts":1},"bbox":[-73.4282216232233,41.1169060010884,-73.4268913619071,41.1188041000639]},{"type":"Feature","geometry":{"type":"LineString","coordinates":[[-73.4268913619071,41.1169060010884],[-73.422535021882,41.1172748033711]]},"properties":{"id":"ct-norwalk-2-a0f28ad5c2e433082205","sourceId":"ct-norwalk-2","category":"unknown","states":["CT"],"routeStatus":"Status not established","carrier":"Norwalk CT GIS","publishedLineParts":1},"bbox":[-73.4268913619071,41.1169060010884,-73.422535021882,41.1177048377679]},{"type":"Feature","geometry":{"type":"LineString","coordinates":[[-73.422535021882,41.1172748033711],[-73.4197313897704,41.1117639109711]]},"properties":{"id":"ct-norwalk-2-74e540df5e131b7bcba9","sourceId":"ct-norwalk-2","category":"unknown","states":["CT"],"routeStatus":"Status not established","carrier":"Norwalk CT GIS","publishedLineParts":1},"bbox":[-73.422535021882,41.1117639109711,-73.4195434608676,41.1172748033711]},{"type":"Feature","geometry":{"type":"LineString","coordinates":[[-73.4209613099841,41.1179923973124],[-73.4206407864118,41.1168856799299]]},"properties":{"id":"ct-norwalk-2-da3e7e7677c2e6c68424","sourceId":"ct-norwalk-2","category":"unknown","states":["CT"],"routeStatus":"Status not established","carrier":"Norwalk CT GIS","publishedLineParts":1},"bbox":[-73.4209613099841,41.1168856799299,-73.4206407864118,41.1179923973124]},{"type":"Feature","geometry":{"type":"LineString","coordinates":[[-73.4197313897704,41.1117639109711],[-73.4207520194081,41.1080793690403]]},"properties":{"id":"ct-norwalk-2-abc37979b2a7810c6765","sourceId":"ct-norwalk-2","category":"unknown","states":["CT"],"routeStatus":"Status not established","carrier":"Norwalk CT GIS","publishedLineParts":1},"bbox":[-73.4207520194081,41.1080793690403,-73.4196985729455,41.1117639109711]},{"type":"Feature","geometry":{"type":"LineString","coordinates":[[-73.4207520194081,41.1080793690403],[-73.4261506924244,41.1062177964503]]},"properties":{"id":"ct-norwalk-2-385bc445422214cff804","sourceId":"ct-norwalk-2","category":"unknown","states":["CT"],"routeStatus":"Status not established","carrier":"Norwalk CT GIS","publishedLineParts":1},"bbox":[-73.4261506924244,41.1062177964503,-73.4207520194081,41.1080793690403]},{"type":"Feature","geometry":{"type":"LineString","coordinates":[[-73.4261506924244,41.1062177964503],[-73.4229608619792,41.0998896924545]]},"properties":{"id":"ct-norwalk-2-ecfedeea6ef7dfd18984","sourceId":"ct-norwalk-2","category":"unknown","states":["CT"],"routeStatus":"Status not established","carrier":"Norwalk CT GIS","publishedLineParts":1},"bbox":[-73.4261506924244,41.0998896924545,-73.4229608619792,41.1062177964503]},{"type":"Feature","geometry":{"type":"LineString","coordinates":[[-73.4229608619792,41.0998896924545],[-73.4277835235623,41.0947912488403],[-73.4375263497694,41.0916846249063]]},"properties":{"id":"ct-norwalk-2-ea71c5e869fa41a05e5c","sourceId":"ct-norwalk-2","category":"unknown","states":["CT"],"routeStatus":"Status not established","carrier":"Norwalk CT GIS","publishedLineParts":1},"bbox":[-73.4375263497694,41.0916846249063,-73.4229608619792,41.0998896924545]},{"type":"Feature","geometry":{"type":"LineString","coordinates":[[-73.4255262041686,41.0969965079138],[-73.431494437387,41.1043988315453]]},"properties":{"id":"ct-norwalk-2-0cd7a1d8e681e43eea64","sourceId":"ct-norwalk-2","category":"unknown","states":["CT"],"routeStatus":"Status not established","carrier":"Norwalk CT GIS","publishedLineParts":1},"bbox":[-73.431494437387,41.0969965079138,-73.4255262041686,41.1047627533556]},{"type":"Feature","geometry":{"type":"LineString","coordinates":[[-73.431494437387,41.1043988315453],[-73.4359476014254,41.1025376644501],[-73.436982956458,41.1036512117837],[-73.4346530365963,41.1037366739052]]},"properties":{"id":"ct-norwalk-2-472113230a27dc3d7f1b","sourceId":"ct-norwalk-2","category":"unknown","states":["CT"],"routeStatus":"Status not established","carrier":"Norwalk CT GIS","publishedLineParts":1},"bbox":[-73.436982956458,41.1025376644501,-73.431494437387,41.1044774630872]},{"type":"Feature","geometry":{"type":"LineString","coordinates":[[-73.4359476014254,41.1025376644501],[-73.4419632355292,41.0995351851274]]},"properties":{"id":"ct-norwalk-2-e41fa6f55fa3981a7b43","sourceId":"ct-norwalk-2","category":"unknown","states":["CT"],"routeStatus":"Status not established","carrier":"Norwalk CT GIS","publishedLineParts":1},"bbox":[-73.4419632355292,41.0995351851274,-73.4359476014254,41.1025376644501]},{"type":"Feature","geometry":{"type":"LineString","coordinates":[[-73.4419632355292,41.0995351851274],[-73.4508953635604,41.0939533476511]]},"properties":{"id":"ct-norwalk-2-67416d70e7bd28a7d25a","sourceId":"ct-norwalk-2","category":"unknown","states":["CT"],"routeStatus":"Status not established","carrier":"Norwalk CT GIS","publishedLineParts":1},"bbox":[-73.4508953635604,41.0939533476511,-73.4419632355292,41.0995351851274]},{"type":"Feature","geometry":{"type":"LineString","coordinates":[[-73.4508953635604,41.0939533476511],[-73.4506094359489,41.0922516199718]]},"properties":{"id":"ct-norwalk-2-642652767cc0e7a0f749","sourceId":"ct-norwalk-2","category":"unknown","states":["CT"],"routeStatus":"Status not established","carrier":"Norwalk CT GIS","publishedLineParts":1},"bbox":[-73.4508953635604,41.0922516199718,-73.4506094359489,41.0939533476511]},{"type":"Feature","geometry":{"type":"LineString","coordinates":[[-73.4508953635604,41.0939533476511],[-73.4545822625281,41.0912384469144]]},"properties":{"id":"ct-norwalk-2-b32e4c3acc8403198005","sourceId":"ct-norwalk-2","category":"unknown","states":["CT"],"routeStatus":"Status not established","carrier":"Norwalk CT GIS","publishedLineParts":1},"bbox":[-73.4545822625281,41.0912384469144,-73.4508953635604,41.0939533476511]},{"type":"Feature","geometry":{"type":"LineString","coordinates":[[-73.4508953635604,41.0939533476511],[-73.4517654796881,41.1031325093259]]},"properties":{"id":"ct-norwalk-2-96415f1f2dae6ae963b7","sourceId":"ct-norwalk-2","category":"unknown","states":["CT"],"routeStatus":"Status not established","carrier":"Norwalk CT GIS","publishedLineParts":1},"bbox":[-73.4518958658537,41.0939533476511,-73.45088396069,41.1031325093259]},{"type":"Feature","geometry":{"type":"LineString","coordinates":[[-73.4375263497694,41.0916846249063],[-73.4336642113606,41.080724535673]]},"properties":{"id":"ct-norwalk-2-8f266573ae7977c1a2e7","sourceId":"ct-norwalk-2","category":"unknown","states":["CT"],"routeStatus":"Status not established","carrier":"Norwalk CT GIS","publishedLineParts":1},"bbox":[-73.4375263497694,41.080724535673,-73.4336642113606,41.0916846249063]},{"type":"Feature","geometry":{"type":"LineString","coordinates":[[-73.4337721914881,41.0796088837805],[-73.4335891769328,41.078366320805]]},"properties":{"id":"ct-norwalk-2-4623cd5c1fe83bf3461a","sourceId":"ct-norwalk-2","category":"unknown","states":["CT"],"routeStatus":"Status not established","carrier":"Norwalk CT GIS","publishedLineParts":1},"bbox":[-73.4337721914881,41.078366320805,-73.4335891769328,41.0796088837805]},{"type":"Feature","geometry":{"type":"LineString","coordinates":[[-73.4335891769328,41.078366320805],[-73.4346897673441,41.0740235951637]]},"properties":{"id":"ct-norwalk-2-2df12f17aea8fe2cb07e","sourceId":"ct-norwalk-2","category":"unknown","states":["CT"],"routeStatus":"Status not established","carrier":"Norwalk CT GIS","publishedLineParts":1},"bbox":[-73.4346897673441,41.0740235951637,-73.4332574422308,41.078366320805]},{"type":"Feature","geometry":{"type":"LineString","coordinates":[[-73.4342299842385,41.0764183709042],[-73.4360796117696,41.0761055407482]]},"properties":{"id":"ct-norwalk-2-d442d5bd7010f18d2d8a","sourceId":"ct-norwalk-2","category":"unknown","states":["CT"],"routeStatus":"Status not established","carrier":"Norwalk CT GIS","publishedLineParts":1},"bbox":[-73.4360796117696,41.0761055407482,-73.4342299842385,41.0764183709042]},{"type":"Feature","geometry":{"type":"LineString","coordinates":[[-73.4346897673441,41.0740235951637],[-73.4358524687339,41.0678126130305]]},"properties":{"id":"ct-norwalk-2-c1abaf38405414ad656c","sourceId":"ct-norwalk-2","category":"unknown","states":["CT"],"routeStatus":"Status not established","carrier":"Norwalk CT GIS","publishedLineParts":1},"bbox":[-73.4358524687339,41.0678126130305,-73.4346897673441,41.0740235951637]},{"type":"Feature","geometry":{"type":"LineString","coordinates":[[-73.4358524687339,41.0678126130305],[-73.443426874995,41.0688707989923]]},"properties":{"id":"ct-norwalk-2-3ec7f1ee08238b76fd9d","sourceId":"ct-norwalk-2","category":"unknown","states":["CT"],"routeStatus":"Status not established","carrier":"Norwalk CT GIS","publishedLineParts":1},"bbox":[-73.443426874995,41.0673077240109,-73.4358524687339,41.0688707989923]},{"type":"Feature","geometry":{"type":"LineString","coordinates":[[-73.4358524687339,41.0678126130305],[-73.4279291509551,41.0760366348337]]},"properties":{"id":"ct-norwalk-2-fce60ff6eb12a61e8be0","sourceId":"ct-norwalk-2","category":"unknown","states":["CT"],"routeStatus":"Status not established","carrier":"Norwalk CT GIS","publishedLineParts":1},"bbox":[-73.4358524687339,41.0676196374129,-73.4279291509551,41.0760366348337]},{"type":"Feature","geometry":{"type":"LineString","coordinates":[[-73.4279291509551,41.0760366348337],[-73.4220620463443,41.0830794010106]]},"properties":{"id":"ct-norwalk-2-82991b9d792945e23070","sourceId":"ct-norwalk-2","category":"unknown","states":["CT"],"routeStatus":"Status not established","carrier":"Norwalk CT GIS","publishedLineParts":1},"bbox":[-73.4279291509551,41.0760366348337,-73.4220620463443,41.0830794010106]},{"type":"Feature","geometry":{"type":"LineString","coordinates":[[-73.4257401895475,41.0774990842984],[-73.4284092869125,41.0778524656802]]},"properties":{"id":"ct-norwalk-2-00807927f425cf7be585","sourceId":"ct-norwalk-2","category":"unknown","states":["CT"],"routeStatus":"Status not established","carrier":"Norwalk CT GIS","publishedLineParts":1},"bbox":[-73.4284092869125,41.0774990842984,-73.4257401895475,41.0783179473209]},{"type":"Feature","geometry":{"type":"LineString","coordinates":[[-73.4270539513983,41.0783179473209],[-73.4277443644212,41.0829597026388],[-73.429850980392,41.0820608954825]]},"properties":{"id":"ct-norwalk-2-ad9c99488ed328d57329","sourceId":"ct-norwalk-2","category":"unknown","states":["CT"],"routeStatus":"Status not established","carrier":"Norwalk CT GIS","publishedLineParts":1},"bbox":[-73.429850980392,41.0783179473209,-73.4270539513983,41.0831068338508]},{"type":"Feature","geometry":{"type":"LineString","coordinates":[[-73.4220620463443,41.0830794010106],[-73.4195770311649,41.0902414546944]]},"properties":{"id":"ct-norwalk-2-6af3589c15e343c8ddc1","sourceId":"ct-norwalk-2","category":"unknown","states":["CT"],"routeStatus":"Status not established","carrier":"Norwalk CT GIS","publishedLineParts":1},"bbox":[-73.4220620463443,41.0830794010106,-73.4195770311649,41.0902414546944]},{"type":"Feature","geometry":{"type":"LineString","coordinates":[[-73.4211797622237,41.0853181707248],[-73.4189863296802,41.0874427662359]]},"properties":{"id":"ct-norwalk-2-194952c49104c6f5522f","sourceId":"ct-norwalk-2","category":"unknown","states":["CT"],"routeStatus":"Status not established","carrier":"Norwalk CT GIS","publishedLineParts":1},"bbox":[-73.4211797622237,41.0853181707248,-73.4186253220034,41.0874427662359]},{"type":"Feature","geometry":{"type":"LineString","coordinates":[[-73.4195770311649,41.0902414546944],[-73.418972795217,41.0965883607069]]},"properties":{"id":"ct-norwalk-2-25b89cbc0d4b15a54313","sourceId":"ct-norwalk-2","category":"unknown","states":["CT"],"routeStatus":"Status not established","carrier":"Norwalk CT GIS","publishedLineParts":1},"bbox":[-73.4205232309575,41.0902414546944,-73.418972795217,41.0966112174258]},{"type":"Feature","geometry":{"type":"LineString","coordinates":[[-73.4205232309575,41.0903848090691],[-73.4238198668261,41.088958201719],[-73.4260587076058,41.0961070726518]]},"properties":{"id":"ct-norwalk-2-8367c3d8b718121e54ec","sourceId":"ct-norwalk-2","category":"unknown","states":["CT"],"routeStatus":"Status not established","carrier":"Norwalk CT GIS","publishedLineParts":1},"bbox":[-73.4260587076058,41.0887787278912,-73.4205232309575,41.0961070726518]},{"type":"Feature","geometry":{"type":"LineString","coordinates":[[-73.418972795217,41.0965883607069],[-73.4188012578328,41.0990611930056],[-73.4119580818187,41.0997562365398]]},"properties":{"id":"ct-norwalk-2-e51d7b3916ea854d4e35","sourceId":"ct-norwalk-2","category":"unknown","states":["CT"],"routeStatus":"Status not established","carrier":"Norwalk CT GIS","publishedLineParts":1},"bbox":[-73.418972795217,41.0965883607069,-73.4119580818187,41.0997562365398]},{"type":"Feature","geometry":{"type":"LineString","coordinates":[[-73.4188617612843,41.0981890079606],[-73.4161921644791,41.0984661756237]]},"properties":{"id":"ct-norwalk-2-d8d9ddee38787dcfe069","sourceId":"ct-norwalk-2","category":"unknown","states":["CT"],"routeStatus":"Status not established","carrier":"Norwalk CT GIS","publishedLineParts":1},"bbox":[-73.4188617612843,41.0981327399456,-73.4161730178294,41.0984661756237]},{"type":"Feature","geometry":{"type":"LineString","coordinates":[[-73.4189189438108,41.0973646830794],[-73.415960183387,41.0973358489222]]},"properties":{"id":"ct-norwalk-2-7d236fe0dc14003ed4b3","sourceId":"ct-norwalk-2","category":"unknown","states":["CT"],"routeStatus":"Status not established","carrier":"Norwalk CT GIS","publishedLineParts":1},"bbox":[-73.4189189438108,41.0973358489222,-73.415960183387,41.0973646830794]},{"type":"Feature","geometry":{"type":"LineString","coordinates":[[-73.4170467970854,41.0973414208028],[-73.4170373159008,41.0964123074802]]},"properties":{"id":"ct-norwalk-2-bcaf82a92aa4c1ca9722","sourceId":"ct-norwalk-2","category":"unknown","states":["CT"],"routeStatus":"Status not established","carrier":"Norwalk CT GIS","publishedLineParts":1},"bbox":[-73.4170467970854,41.0964123074802,-73.4170373159008,41.0973414208028]},{"type":"Feature","geometry":{"type":"LineString","coordinates":[[-73.443426874995,41.0688707989923],[-73.4436336940201,41.0677420283541]]},"properties":{"id":"ct-norwalk-2-73686071397cff93a4cc","sourceId":"ct-norwalk-2","category":"unknown","states":["CT"],"routeStatus":"Status not established","carrier":"Norwalk CT GIS","publishedLineParts":1},"bbox":[-73.4436336940201,41.0677420283541,-73.443426874995,41.0688707989923]},{"type":"Feature","geometry":{"type":"LineString","coordinates":[[-73.4188012578328,41.0990611930056],[-73.4204905129393,41.0987323886268]]},"properties":{"id":"ct-norwalk-2-1a8dbb3480b146b5635c","sourceId":"ct-norwalk-2","category":"unknown","states":["CT"],"routeStatus":"Status not established","carrier":"Norwalk CT GIS","publishedLineParts":1},"bbox":[-73.4204905129393,41.0987323886268,-73.4188012578328,41.0990615392216]},{"type":"Feature","geometry":{"type":"LineString","coordinates":[[-73.4195958852027,41.0990235339153],[-73.4195985941241,41.0992879737126]]},"properties":{"id":"ct-norwalk-2-89f522fad0003247117d","sourceId":"ct-norwalk-2","category":"unknown","states":["CT"],"routeStatus":"Status not established","carrier":"Norwalk CT GIS","publishedLineParts":1},"bbox":[-73.4195985941241,41.0990235339153,-73.4195958852027,41.0992879737126]},{"type":"Feature","geometry":{"type":"LineString","coordinates":[[-73.418972795217,41.0965883607069],[-73.4170373159008,41.0964123074802]]},"properties":{"id":"ct-norwalk-2-f8f417726aebf8b7c28e","sourceId":"ct-norwalk-2","category":"unknown","states":["CT"],"routeStatus":"Status not established","carrier":"Norwalk CT GIS","publishedLineParts":1},"bbox":[-73.418972795217,41.0964123074802,-73.4170373159008,41.0965905216937]},{"type":"Feature","geometry":{"type":"LineString","coordinates":[[-73.415960183387,41.0973358489222],[-73.4158712259878,41.0969796935497]]},"properties":{"id":"ct-norwalk-2-0dfc379b846aa04fcbce","sourceId":"ct-norwalk-2","category":"unknown","states":["CT"],"routeStatus":"Status not established","carrier":"Norwalk CT GIS","publishedLineParts":1},"bbox":[-73.415960183387,41.0969796935497,-73.4158712259878,41.0973358489222]},{"type":"Feature","geometry":{"type":"LineString","coordinates":[[-73.4229608619792,41.0998896924545],[-73.4225873373565,41.0982046479902]]},"properties":{"id":"ct-norwalk-2-f419d0fcb7b082c796a6","sourceId":"ct-norwalk-2","category":"unknown","states":["CT"],"routeStatus":"Status not established","carrier":"Norwalk CT GIS","publishedLineParts":1},"bbox":[-73.4229608619792,41.0982046479902,-73.42172376095,41.0998896924545]},{"type":"Feature","geometry":{"type":"LineString","coordinates":[[-73.4189189438108,41.0973646830794],[-73.4201540562522,41.0966112174258]]},"properties":{"id":"ct-norwalk-2-c5f1c04dbf698de24e73","sourceId":"ct-norwalk-2","category":"unknown","states":["CT"],"routeStatus":"Status not established","carrier":"Norwalk CT GIS","publishedLineParts":1},"bbox":[-73.4201540562522,41.0966112174258,-73.4189189438108,41.0973646830794]},{"type":"Feature","geometry":{"type":"LineString","coordinates":[[-73.4108299799108,41.1008366192687],[-73.4037964835382,41.1020706187001]]},"properties":{"id":"ct-norwalk-2-f93f09e04b36b08a48c2","sourceId":"ct-norwalk-2","category":"unknown","states":["CT"],"routeStatus":"Status not established","carrier":"Norwalk CT GIS","publishedLineParts":1},"bbox":[-73.4108299799108,41.1008366192687,-73.4037964835382,41.1020706187001]},{"type":"Feature","geometry":{"type":"LineString","coordinates":[[-73.4364904068943,41.0889986434489],[-73.4354358716673,41.0893597239335]]},"properties":{"id":"ct-norwalk-2-63f28673c9cf46bbd2dd","sourceId":"ct-norwalk-2","category":"unknown","states":["CT"],"routeStatus":"Status not established","carrier":"Norwalk CT GIS","publishedLineParts":1},"bbox":[-73.4364904068943,41.0889986434489,-73.4354358716673,41.0893597239335]},{"type":"Feature","geometry":{"type":"LineString","coordinates":[[-73.4355887426459,41.0870980683972],[-73.4330275146304,41.0876158758055]]},"properties":{"id":"ct-norwalk-2-2addc3cda8a3adf27056","sourceId":"ct-norwalk-2","category":"unknown","states":["CT"],"routeStatus":"Status not established","carrier":"Norwalk CT GIS","publishedLineParts":1},"bbox":[-73.4355887426459,41.0870980683972,-73.4330275146304,41.0876158758055]},{"type":"Feature","geometry":{"type":"LineString","coordinates":[[-73.4330275146304,41.0876158758055],[-73.432912440444,41.0874521721391]]},"properties":{"id":"ct-norwalk-2-04f4b6e03007215437c5","sourceId":"ct-norwalk-2","category":"unknown","states":["CT"],"routeStatus":"Status not established","carrier":"Norwalk CT GIS","publishedLineParts":1},"bbox":[-73.4330275146304,41.0874521721391,-73.432912440444,41.0876158758055]},{"type":"Feature","geometry":{"type":"LineString","coordinates":[[-73.429850980392,41.0820608954825],[-73.430468388734,41.0821747777059]]},"properties":{"id":"ct-norwalk-2-ad2fc86a21712935998f","sourceId":"ct-norwalk-2","category":"unknown","states":["CT"],"routeStatus":"Status not established","carrier":"Norwalk CT GIS","publishedLineParts":1},"bbox":[-73.430468388734,41.0820608954825,-73.429850980392,41.0821747777059]},{"type":"Feature","geometry":{"type":"LineString","coordinates":[[-73.4337721914881,41.0796088837805],[-73.4336904640135,41.0802240558909]]},"properties":{"id":"ct-norwalk-2-ca63e325e82e27b498ea","sourceId":"ct-norwalk-2","category":"unknown","states":["CT"],"routeStatus":"Status not established","carrier":"Norwalk CT GIS","publishedLineParts":1},"bbox":[-73.4337721914881,41.0796088837805,-73.4336904640135,41.0802240558909]},{"type":"Feature","geometry":{"type":"LineString","coordinates":[[-73.4336642113606,41.080724535673],[-73.4336904640135,41.0802240558909]]},"properties":{"id":"ct-norwalk-2-d8fda712bc4646146ff3","sourceId":"ct-norwalk-2","category":"unknown","states":["CT"],"routeStatus":"Status not established","carrier":"Norwalk CT GIS","publishedLineParts":1},"bbox":[-73.4336904640135,41.0802240558909,-73.4336642113606,41.080724535673]},{"type":"Feature","geometry":{"type":"LineString","coordinates":[[-73.4389359879848,41.0675113754862],[-73.4389067924665,41.0672557549867]]},"properties":{"id":"ct-norwalk-2-b9607ad6e120dd7eca8a","sourceId":"ct-norwalk-2","category":"unknown","states":["CT"],"routeStatus":"Status not established","carrier":"Norwalk CT GIS","publishedLineParts":1},"bbox":[-73.4389359879848,41.0672557549867,-73.4389067924665,41.0675113754862]},{"type":"Feature","geometry":{"type":"LineString","coordinates":[[-73.4284092869125,41.0778524656802],[-73.429047358183,41.0781789686378]]},"properties":{"id":"ct-norwalk-2-3321a38971c354c558fc","sourceId":"ct-norwalk-2","category":"unknown","states":["CT"],"routeStatus":"Status not established","carrier":"Norwalk CT GIS","publishedLineParts":1},"bbox":[-73.429047358183,41.0778524656802,-73.4284092869125,41.0781789686378]},{"type":"Feature","geometry":{"type":"LineString","coordinates":[[-73.4229886210228,41.0807069184236],[-73.4232755283315,41.0807207134536]]},"properties":{"id":"ct-norwalk-2-0c3a68f777f4eadfd912","sourceId":"ct-norwalk-2","category":"unknown","states":["CT"],"routeStatus":"Status not established","carrier":"Norwalk CT GIS","publishedLineParts":1},"bbox":[-73.4232755283315,41.0807069184236,-73.4229886210228,41.0807207134536]},{"type":"Feature","geometry":{"type":"LineString","coordinates":[[-73.4087567283516,41.1010687350789],[-73.4088393305142,41.1015319173894]]},"properties":{"id":"ct-norwalk-2-aff837fd3e914bc15f26","sourceId":"ct-norwalk-2","category":"unknown","states":["CT"],"routeStatus":"Status not established","carrier":"Norwalk CT GIS","publishedLineParts":1},"bbox":[-73.4088393305142,41.1010687350789,-73.4087567283516,41.1015319173894]},{"type":"Feature","geometry":{"type":"LineString","coordinates":[[-73.415960183387,41.0973358489222],[-73.4149771192275,41.0974223064061]]},"properties":{"id":"ct-norwalk-2-acfa708a3727585a2085","sourceId":"ct-norwalk-2","category":"unknown","states":["CT"],"routeStatus":"Status not established","carrier":"Norwalk CT GIS","publishedLineParts":1},"bbox":[-73.415960183387,41.0973358489222,-73.4149771192275,41.0974223064061]},{"type":"Feature","geometry":{"type":"LineString","coordinates":[[-73.4043085443696,41.1019778026153],[-73.4042104844412,41.10164428963]]},"properties":{"id":"ct-norwalk-2-1456eac7976e7f4f643b","sourceId":"ct-norwalk-2","category":"unknown","states":["CT"],"routeStatus":"Status not established","carrier":"Norwalk CT GIS","publishedLineParts":1},"bbox":[-73.4043085443696,41.10164428963,-73.4042104844412,41.1019778026153]},{"type":"Feature","geometry":{"type":"LineString","coordinates":[[-73.4113018450208,41.10359111897],[-73.4116759241727,41.1035880776071]]},"properties":{"id":"ct-norwalk-2-028c9e7f426674b8fb86","sourceId":"ct-norwalk-2","category":"unknown","states":["CT"],"routeStatus":"Status not established","carrier":"Norwalk CT GIS","publishedLineParts":1},"bbox":[-73.4116759241727,41.1035880776071,-73.4113018450208,41.10359111897]},{"type":"Feature","geometry":{"type":"LineString","coordinates":[[-73.4360796117696,41.0761055407482],[-73.4360319826475,41.0758807408098]]},"properties":{"id":"ct-norwalk-2-56f8d4193d55a45348c7","sourceId":"ct-norwalk-2","category":"unknown","states":["CT"],"routeStatus":"Status not established","carrier":"Norwalk CT GIS","publishedLineParts":1},"bbox":[-73.4360796117696,41.0758807408098,-73.4360319826475,41.0761055407482]},{"type":"Feature","geometry":{"type":"LineString","coordinates":[[-73.4506094359489,41.0922516199718],[-73.4496171214653,41.0924709953877]]},"properties":{"id":"ct-norwalk-2-0a64785b00df1b46e7cb","sourceId":"ct-norwalk-2","category":"unknown","states":["CT"],"routeStatus":"Status not established","carrier":"Norwalk CT GIS","publishedLineParts":1},"bbox":[-73.4506094359489,41.0922516199718,-73.4496171214653,41.0924709953877]},{"type":"Feature","geometry":{"type":"LineString","coordinates":[[-73.4523476558203,41.0928246554666],[-73.4534334290064,41.0935911512599]]},"properties":{"id":"ct-norwalk-2-e2199485b1954b68b37c","sourceId":"ct-norwalk-2","category":"unknown","states":["CT"],"routeStatus":"Status not established","carrier":"Norwalk CT GIS","publishedLineParts":1},"bbox":[-73.4534334290064,41.0928246554666,-73.4523476558203,41.0935911512599]},{"type":"Feature","geometry":{"type":"LineString","coordinates":[[-73.4346530365963,41.1037366739052],[-73.4345906256925,41.1034452529085]]},"properties":{"id":"ct-norwalk-2-9fd0a5f61821f3bfcbb9","sourceId":"ct-norwalk-2","category":"unknown","states":["CT"],"routeStatus":"Status not established","carrier":"Norwalk CT GIS","publishedLineParts":1},"bbox":[-73.4346530365963,41.1034452529085,-73.4345906256925,41.1037366739052]},{"type":"Feature","geometry":{"type":"LineString","coordinates":[[-73.4049078177704,41.10535255043],[-73.4052913204246,41.1052848155407]]},"properties":{"id":"ct-norwalk-2-d73efdbaa74eb73cd040","sourceId":"ct-norwalk-2","category":"unknown","states":["CT"],"routeStatus":"Status not established","carrier":"Norwalk CT GIS","publishedLineParts":1},"bbox":[-73.4052913204246,41.1052848155407,-73.4049078177704,41.10535255043]},{"type":"Feature","geometry":{"type":"LineString","coordinates":[[-73.4049078177704,41.10535255043],[-73.4050797619057,41.1053221815698]]},"properties":{"id":"ct-norwalk-2-2ccf55bb7e4bce481801","sourceId":"ct-norwalk-2","category":"unknown","states":["CT"],"routeStatus":"Status not established","carrier":"Norwalk CT GIS","publishedLineParts":1},"bbox":[-73.4050797619057,41.1053221815698,-73.4049078177704,41.10535255043]},{"type":"Feature","geometry":{"type":"LineString","coordinates":[[-73.4109068190258,41.1007630318442],[-73.4107098043672,41.1008459399642]]},"properties":{"id":"ct-norwalk-2-4f859a20f8b35197e88a","sourceId":"ct-norwalk-2","category":"unknown","states":["CT"],"routeStatus":"Status not established","carrier":"Norwalk CT GIS","publishedLineParts":1},"bbox":[-73.4109068190258,41.1007630318442,-73.4107098043672,41.1008459399642]},{"type":"Feature","geometry":{"type":"LineString","coordinates":[[-73.3969546643782,41.1112161994049],[-73.3967649193062,41.1115080753317]]},"properties":{"id":"ct-norwalk-2-a5f56cdbe6b8b15514e0","sourceId":"ct-norwalk-2","category":"unknown","states":["CT"],"routeStatus":"Status not established","carrier":"Norwalk CT GIS","publishedLineParts":1},"bbox":[-73.3969546643782,41.1112161994049,-73.3967649193062,41.1115080753317]},{"type":"Feature","geometry":{"type":"LineString","coordinates":[[-73.3972910371004,41.1184617918717],[-73.3967964398678,41.1185123810867]]},"properties":{"id":"ct-norwalk-2-6bba7494b67a0bf250af","sourceId":"ct-norwalk-2","category":"unknown","states":["CT"],"routeStatus":"Status not established","carrier":"Norwalk CT GIS","publishedLineParts":1},"bbox":[-73.3972910371004,41.1184617918717,-73.3967964398678,41.1185123810867]},{"type":"Feature","geometry":{"type":"LineString","coordinates":[[-73.3952693489191,41.1173330311168],[-73.3950941553173,41.1171306375068]]},"properties":{"id":"ct-norwalk-2-66615c6eb759a91884e8","sourceId":"ct-norwalk-2","category":"unknown","states":["CT"],"routeStatus":"Status not established","carrier":"Norwalk CT GIS","publishedLineParts":1},"bbox":[-73.3952693489191,41.1171306375068,-73.3950941553173,41.1173330311168]},{"type":"Feature","geometry":{"type":"LineString","coordinates":[[-73.3911125334505,41.1237733140359],[-73.3888939489172,41.1235505094581]]},"properties":{"id":"ct-norwalk-2-51bf3fd4f1cf5669c921","sourceId":"ct-norwalk-2","category":"unknown","states":["CT"],"routeStatus":"Status not established","carrier":"Norwalk CT GIS","publishedLineParts":1},"bbox":[-73.3911125334505,41.1235505094581,-73.3888939489172,41.1237733140359]},{"type":"Feature","geometry":{"type":"LineString","coordinates":[[-73.3888939489172,41.1235505094581],[-73.3888642732477,41.1230932401479]]},"properties":{"id":"ct-norwalk-2-79bd87f3240b172bbf74","sourceId":"ct-norwalk-2","category":"unknown","states":["CT"],"routeStatus":"Status not established","carrier":"Norwalk CT GIS","publishedLineParts":1},"bbox":[-73.3888939489172,41.1230932401479,-73.3888642732477,41.1235505094581]},{"type":"Feature","geometry":{"type":"LineString","coordinates":[[-73.3843181280719,41.127616538238],[-73.3848602171159,41.1286524255958]]},"properties":{"id":"ct-norwalk-2-775d5f4cf4b9cc9b93ac","sourceId":"ct-norwalk-2","category":"unknown","states":["CT"],"routeStatus":"Status not established","carrier":"Norwalk CT GIS","publishedLineParts":1},"bbox":[-73.3848602171159,41.127616538238,-73.3843181280719,41.1286524255958]},{"type":"Feature","geometry":{"type":"LineString","coordinates":[[-73.3848602171159,41.1286524255958],[-73.3854762861657,41.128496522881]]},"properties":{"id":"ct-norwalk-2-5ad59d78167745fe8628","sourceId":"ct-norwalk-2","category":"unknown","states":["CT"],"routeStatus":"Status not established","carrier":"Norwalk CT GIS","publishedLineParts":1},"bbox":[-73.3854762861657,41.128496522881,-73.3848602171159,41.1286524255958]},{"type":"Feature","geometry":{"type":"LineString","coordinates":[[-73.389989229783,41.1351423272278],[-73.3898365463812,41.1348667550343]]},"properties":{"id":"ct-norwalk-2-731bc47a37c650151851","sourceId":"ct-norwalk-2","category":"unknown","states":["CT"],"routeStatus":"Status not established","carrier":"Norwalk CT GIS","publishedLineParts":1},"bbox":[-73.389989229783,41.1348667550343,-73.3898365463812,41.1351423272278]},{"type":"Feature","geometry":{"type":"LineString","coordinates":[[-73.39624063671,41.1247617456539],[-73.3962696337926,41.124894206178]]},"properties":{"id":"ct-norwalk-2-73dc1a4f2d136d3d5494","sourceId":"ct-norwalk-2","category":"unknown","states":["CT"],"routeStatus":"Status not established","carrier":"Norwalk CT GIS","publishedLineParts":1},"bbox":[-73.3962696337926,41.1247617456539,-73.39624063671,41.124894206178]},{"type":"Feature","geometry":{"type":"LineString","coordinates":[[-73.4076635404195,41.1145119722397],[-73.4075003211225,41.1145246050381]]},"properties":{"id":"ct-norwalk-2-94492ee3f06229096241","sourceId":"ct-norwalk-2","category":"unknown","states":["CT"],"routeStatus":"Status not established","carrier":"Norwalk CT GIS","publishedLineParts":1},"bbox":[-73.4076635404195,41.1145119722397,-73.4075003211225,41.1145246050381]},{"type":"Feature","geometry":{"type":"LineString","coordinates":[[-73.4121183982755,41.1220703735706],[-73.4114495319563,41.1221338093134]]},"properties":{"id":"ct-norwalk-2-7af9f4db0a6fc49ce238","sourceId":"ct-norwalk-2","category":"unknown","states":["CT"],"routeStatus":"Status not established","carrier":"Norwalk CT GIS","publishedLineParts":1},"bbox":[-73.4121183982755,41.1220703735706,-73.4114495319563,41.1221338093134]},{"type":"Feature","geometry":{"type":"LineString","coordinates":[[-73.413760789569,41.1253413334223],[-73.4134882369582,41.1253112172072]]},"properties":{"id":"ct-norwalk-2-9979a45afb700270be2c","sourceId":"ct-norwalk-2","category":"unknown","states":["CT"],"routeStatus":"Status not established","carrier":"Norwalk CT GIS","publishedLineParts":1},"bbox":[-73.413760789569,41.1253112172072,-73.4134882369582,41.1253413334223]},{"type":"Feature","geometry":{"type":"LineString","coordinates":[[-73.4176889459457,41.1183927631624],[-73.4152894534964,41.1165451273598]]},"properties":{"id":"ct-norwalk-2-f2c253a15847646a37e6","sourceId":"ct-norwalk-2","category":"unknown","states":["CT"],"routeStatus":"Status not established","carrier":"Norwalk CT GIS","publishedLineParts":1},"bbox":[-73.4180903921219,41.1159803636223,-73.4152894534964,41.1183927631624]},{"type":"Feature","geometry":{"type":"LineString","coordinates":[[-73.4152894534964,41.1165451273598],[-73.4154056252061,41.1168160541235]]},"properties":{"id":"ct-norwalk-2-e2e9bfe11aef94f4b09c","sourceId":"ct-norwalk-2","category":"unknown","states":["CT"],"routeStatus":"Status not established","carrier":"Norwalk CT GIS","publishedLineParts":1},"bbox":[-73.4154056252061,41.1165451273598,-73.4152894534964,41.1168160541235]},{"type":"Feature","geometry":{"type":"LineString","coordinates":[[-73.4176889459457,41.1183927631624],[-73.4147773799257,41.1173057371772]]},"properties":{"id":"ct-norwalk-2-2d962cbff69f47fa0684","sourceId":"ct-norwalk-2","category":"unknown","states":["CT"],"routeStatus":"Status not established","carrier":"Norwalk CT GIS","publishedLineParts":1},"bbox":[-73.4176889459457,41.1172879132519,-73.4147773799257,41.1183927631624]},{"type":"Feature","geometry":{"type":"LineString","coordinates":[[-73.4158687857086,41.117613593465],[-73.4158894427758,41.1179210894698]]},"properties":{"id":"ct-norwalk-2-d531622c9a34a5ab9a58","sourceId":"ct-norwalk-2","category":"unknown","states":["CT"],"routeStatus":"Status not established","carrier":"Norwalk CT GIS","publishedLineParts":1},"bbox":[-73.4158894427758,41.117613593465,-73.4158687857086,41.1179210894698]},{"type":"Feature","geometry":{"type":"LineString","coordinates":[[-73.4206407864118,41.1168856799299],[-73.4209238796799,41.1166980154182]]},"properties":{"id":"ct-norwalk-2-a688da3f1652141f1996","sourceId":"ct-norwalk-2","category":"unknown","states":["CT"],"routeStatus":"Status not established","carrier":"Norwalk CT GIS","publishedLineParts":1},"bbox":[-73.4209238796799,41.1166980154182,-73.4206407864118,41.1168856799299]},{"type":"Feature","geometry":{"type":"LineString","coordinates":[[-73.4207520194081,41.1080793690403],[-73.4230971852276,41.1102310852926],[-73.4221070358088,41.1075186696639]]},"properties":{"id":"ct-norwalk-2-464bbe9ed682ad856156","sourceId":"ct-norwalk-2","category":"unknown","states":["CT"],"routeStatus":"Status not established","carrier":"Norwalk CT GIS","publishedLineParts":1},"bbox":[-73.4230971852276,41.1075186696639,-73.4206336948396,41.1105243229168]},{"type":"Feature","geometry":{"type":"LineString","coordinates":[[-73.4219678330783,41.1103510955011],[-73.4220066877266,41.1107878587551]]},"properties":{"id":"ct-norwalk-2-a22e921768ebed897b41","sourceId":"ct-norwalk-2","category":"unknown","states":["CT"],"routeStatus":"Status not established","carrier":"Norwalk CT GIS","publishedLineParts":1},"bbox":[-73.4220066877266,41.1103510955011,-73.4219678330783,41.1107878587551]},{"type":"Feature","geometry":{"type":"LineString","coordinates":[[-73.4332493911682,41.1186616514669],[-73.4332559815349,41.1192542467943]]},"properties":{"id":"ct-norwalk-2-3b2f819bc3bad81e7fbe","sourceId":"ct-norwalk-2","category":"unknown","states":["CT"],"routeStatus":"Status not established","carrier":"Norwalk CT GIS","publishedLineParts":1},"bbox":[-73.4332559815349,41.1186616514669,-73.4332493911682,41.1192542467943]},{"type":"Feature","geometry":{"type":"LineString","coordinates":[[-73.4442199032204,41.1231346203307],[-73.4429055457543,41.1236704489236]]},"properties":{"id":"ct-norwalk-2-1b74ed4cba441c250303","sourceId":"ct-norwalk-2","category":"unknown","states":["CT"],"routeStatus":"Status not established","carrier":"Norwalk CT GIS","publishedLineParts":1},"bbox":[-73.4442199032204,41.1231346203307,-73.4429055457543,41.1236704489236]},{"type":"Feature","geometry":{"type":"LineString","coordinates":[[-73.4429055457543,41.1236704489236],[-73.442661471659,41.1238291733482]]},"properties":{"id":"ct-norwalk-2-e9bec2ec9e53edba6176","sourceId":"ct-norwalk-2","category":"unknown","states":["CT"],"routeStatus":"Status not established","carrier":"Norwalk CT GIS","publishedLineParts":1},"bbox":[-73.4429055457543,41.1236704489236,-73.442661471659,41.1238291733482]},{"type":"Feature","geometry":{"type":"LineString","coordinates":[[-73.4551804809788,41.1146552436879],[-73.4551205889119,41.1151760094131]]},"properties":{"id":"ct-norwalk-2-01d0a54c528a68db5059","sourceId":"ct-norwalk-2","category":"unknown","states":["CT"],"routeStatus":"Status not established","carrier":"Norwalk CT GIS","publishedLineParts":1},"bbox":[-73.4551804809788,41.1146552436879,-73.4551205889119,41.1151760094131]},{"type":"Feature","geometry":{"type":"LineString","coordinates":[[-73.4164209442632,41.1350389134679],[-73.416286603234,41.1346261573333]]},"properties":{"id":"ct-norwalk-2-9687011f2b80b52b7857","sourceId":"ct-norwalk-2","category":"unknown","states":["CT"],"routeStatus":"Status not established","carrier":"Norwalk CT GIS","publishedLineParts":1},"bbox":[-73.4164209442632,41.1346261573333,-73.416286603234,41.1350389134679]},{"type":"Feature","geometry":{"type":"LineString","coordinates":[[-73.4255389863441,41.1391404302046],[-73.4253787766318,41.1386706579219]]},"properties":{"id":"ct-norwalk-2-06cd8bebe0611c5a356e","sourceId":"ct-norwalk-2","category":"unknown","states":["CT"],"routeStatus":"Status not established","carrier":"Norwalk CT GIS","publishedLineParts":1},"bbox":[-73.4255389863441,41.1386706579219,-73.4253787766318,41.1391404302046]},{"type":"Feature","geometry":{"type":"LineString","coordinates":[[-73.418028953655,41.1443688442435],[-73.418427934995,41.1443341699416]]},"properties":{"id":"ct-norwalk-2-44730b22f7e26f5ecb38","sourceId":"ct-norwalk-2","category":"unknown","states":["CT"],"routeStatus":"Status not established","carrier":"Norwalk CT GIS","publishedLineParts":1},"bbox":[-73.418427934995,41.1443341699416,-73.418028953655,41.1443688442435]},{"type":"Feature","geometry":{"type":"LineString","coordinates":[[-73.4258108045541,41.1410448081236],[-73.4257642100426,41.1413942913914]]},"properties":{"id":"ct-norwalk-2-bbae37e1fc2ebc5d1f8e","sourceId":"ct-norwalk-2","category":"unknown","states":["CT"],"routeStatus":"Status not established","carrier":"Norwalk CT GIS","publishedLineParts":1},"bbox":[-73.4258108045541,41.1410448081236,-73.4257642100426,41.1413942913914]},{"type":"Feature","geometry":{"type":"LineString","coordinates":[[-73.4277263358885,41.1434159478219],[-73.4277254777699,41.143726687515]]},"properties":{"id":"ct-norwalk-2-ea0b941c17193d567953","sourceId":"ct-norwalk-2","category":"unknown","states":["CT"],"routeStatus":"Status not established","carrier":"Norwalk CT GIS","publishedLineParts":1},"bbox":[-73.4277263358885,41.1434159478219,-73.4277254777699,41.143726687515]},{"type":"Feature","geometry":{"type":"LineString","coordinates":[[-73.4119580818187,41.0997562365398],[-73.4108299799108,41.1008366192687]]},"properties":{"id":"ct-norwalk-2-261098361cb600dd0fe5","sourceId":"ct-norwalk-2","category":"unknown","states":["CT"],"routeStatus":"Status not established","carrier":"Norwalk CT GIS","publishedLineParts":1},"bbox":[-73.4119580818187,41.0997562365398,-73.4108299799108,41.1008366192687]}]}