{"type":"FeatureCollection","features":[{"type":"Feature","geometry":{"type":"MultiLineString","coordinates":[[[-77.0580213462342,38.3503000115145],[-77.05626026829,38.3491356737263],[-77.0876352770608,38.3331486692811],[-77.1196351835876,38.2871816580576],[-77.1425262899145,38.2679186534981],[-77.1421381889656,38.2501186498319],[-77.1497072902434,38.2401936477993],[-77.154659290078,38.2117526415072],[-77.1628132925221,38.2031216393232],[-77.1801162974701,38.1943196368485],[-77.1851971974631,38.1793036335918],[-77.1916712991219,38.1711786322383],[-77.2169103060557,38.1466256261819],[-77.2271723086202,38.1416936247436],[-77.2591133171055,38.1150426180268],[-77.2715933202936,38.1010406148452],[-77.2967813271738,38.0915436119293],[-77.3087343301072,38.0795996092953],[-77.3321143364426,38.066752605354],[-77.3419903392177,38.0570136032625],[-77.339918338184,38.0473436011291],[-77.3434103385267,38.0401595995732],[-77.3337843333019,38.006945593103],[-77.3739393346241,37.8129335519931],[-77.370185332544,37.7899865473036],[-77.3708813310565,37.7682955425834],[-77.3601043270345,37.7500345388695],[-77.3589352253878,37.7357515366078],[-77.3835113313374,37.7084045298046],[-77.3849773315755,37.7006355282179],[-77.3807512297792,37.6809575240925],[-77.3857733296471,37.6590795196572],[-77.4240173403739,37.6402735140975],[-77.4273313413396,37.6449235149372],[-77.4380693450035,37.6433385144607],[-77.4414112458454,37.646933514726],[-77.4404473454607,37.6420565137908],[-77.4507373485126,37.6358625125064],[-77.462076352051,37.6350105116079],[-77.4698133547436,37.6389385123972],[-77.4887013606536,37.6408085120393],[-77.5140043671615,37.6299025085205],[-77.5459512775781,37.6283525070409],[-77.5594513806534,37.6187175048125],[-77.5645213813872,37.6075735024811],[-77.5639533811246,37.5994975005415],[-77.5720943831499,37.5892044979516],[-77.5687603811943,37.5810484963791],[-77.5769082831793,37.5711234940146],[-77.5771003834112,37.5651914933007],[-77.5708243809338,37.5586904920927],[-77.5697743797241,37.5516764905198],[-77.5529233746877,37.5454194897024],[-77.5623233772618,37.5373504874609],[-77.5527743729282,37.5096484824863],[-77.5450883693909,37.4974104800241],[-77.5371142671589,37.4991314809004],[-77.5344323657428,37.4854244778456],[-77.5113483569885,37.4557454723875],[-77.5113483560902,37.4437634700941],[-77.4888143489534,37.4435434713097],[-77.4915623493064,37.4290334680625],[-77.5015653514048,37.4212294659465],[-77.5015653514048,37.4103464633276],[-77.5148663545755,37.398255460713],[-77.5148663536772,37.3829754574729],[-77.5132173531411,37.3778094565322],[-77.5013453486019,37.3723134557451],[-77.4943103460662,37.3538464520059],[-77.495739345596,37.3449424499919],[-77.4874953418419,37.3268054467126],[-77.4955193436913,37.3199894447596],[-77.49398034276,37.3026214414019],[-77.4968383436162,37.2960264401965],[-77.4661703323303,37.2703044353618],[-77.4835373368523,37.261070432879],[-77.4847473369973,37.2489794302663],[-77.4833403354122,37.2308104265562],[-77.4754053323529,37.2252714262262],[-77.4734973313507,37.2159234242057],[-77.4551983256197,37.2146294243287],[-77.4615523270166,37.2012984213398],[-77.5145453407104,37.162462411174],[-77.5252993433695,37.1384074059807],[-77.551206350125,37.1203734013649],[-77.5588182516345,37.107364398432],[-77.5839203580139,37.0797453914186],[-77.6595683783201,37.0287063784448],[-77.6774713824193,37.0110243737383],[-77.7146163924309,36.9831743668717],[-77.7288033958815,36.9681413633509],[-77.7293573959004,36.9552083599892],[-77.7359573964462,36.9415993572062],[-77.8049594161757,36.9057483473537],[-77.8284034220852,36.8840083416917],[-77.8517384282148,36.8689593377296],[-77.8834774370337,36.8592333345259],[-77.9556063566216,36.8080603214527],[-77.9769454624967,36.7887543164934],[-78.1021704981186,36.7482923035673]],[[-77.0580461154816,38.3503002299057],[-77.0568542684918,38.3548146744078],[-77.049023266088,38.3524486744429],[-77.040019263349,38.3560656751955],[-76.9710572420058,38.364895679632],[-76.9583981390046,38.3740346819767],[-76.9529092385825,38.4005556875063],[-76.9539032397157,38.4088686892314],[-76.988429252839,38.4484266964005],[-76.9912432542125,38.4585986981415],[-76.9818162545693,38.5174377104128],[-76.985863258349,38.5613017190102],[-76.9775202566574,38.5711957212098],[-76.9511592494421,38.5830387248147],[-76.9769932581993,38.592654725702],[-77.0168192695151,38.5872757236092],[-77.0146022696147,38.5938587249257],[-77.0171182710625,38.6006107258763],[-77.0104652699148,38.6152977292219],[-77.0156662719665,38.623799730745],[-77.0154572726274,38.6404207341401],[-76.9966832674185,38.6523497376023],[-77.0179832750192,38.6651477391618],[-76.9942462692068,38.6871837444028],[-76.9872852671893,38.6991757468666],[-76.9988202759361,38.787976764941],[-76.9984621778195,38.8156107702544],[-77.0073232810546,38.8260617722707],[-77.0091222822769,38.8387677743095],[-77.0026182819905,38.8671607806448],[-77.0107052844874,38.8682777805353],[-77.0058042838081,38.8723387813144],[-77.0058332841204,38.8784687824423],[-77.0087322849845,38.8784437824597],[-77.0085992849151,38.8838847836645],[-77.0148772870423,38.8860357839032],[-77.0151401879934,38.8914457846932],[-77.0392402955386,38.8986337851916],[-77.0393821961158,38.9024857865984],[-77.0466052977872,38.902669785768],[-77.0468492981846,38.9056067863123],[-77.0364792956651,38.9075497873585],[-77.0364302970579,38.9286777919889],[-77.0663973062153,38.9373347919999],[-77.0693053081986,38.943154793096],[-77.0619073054397,38.9431147935039],[-77.0629340627415,38.9446728402351]],[[-77.2116962505847,38.9201117831936],[-77.2056613496414,38.9268957847124],[-77.1848333429421,38.9297857861889],[-77.1777983395081,38.9157157841313],[-77.1677143363205,38.9120357831774],[-77.1567513334241,38.9183017853748],[-77.1361303282107,38.9399717904654],[-77.122490324208,38.9343217898271],[-77.1179173217951,38.92924378859],[-77.1117783204834,38.9302627889799],[-77.1071303186257,38.9247687883208],[-77.09720631617,38.932575790288],[-77.0890893135359,38.9345947909263],[-77.0772973102609,38.9478797941485],[-77.0656593069718,38.9478897944244],[-77.0629340627415,38.9446728402351]],[[-77.0629340627415,38.9446728402351],[-77.0627393061913,38.944245793704],[-77.0634983062495,38.9442447939046],[-77.0629340627415,38.9446728402351]]]},"properties":{"id":"arcgis-1-4-0afb97604cde293d","sourceId":"arcgis-1-4","category":"existing","states":["DC","MD","VA"],"routeStatus":"Existing (publisher reported)","carrier":"Not published"},"bbox":[-78.1021704981186,36.7482923035673,-76.9511592494421,38.9479017941948]}]}