{"type":"FeatureCollection","features":[{"type":"Feature","geometry":{"type":"LineString","coordinates":[[-84.3581864204768,33.7443205121257],[-84.3581497522288,33.7416322803054],[-84.3581800378171,33.7396347459594]]},"properties":{"id":"arcgis-292-0-4f67a52df553a8a9","sourceId":"arcgis-292-0","source":"Atlanta Beltline Fiber Route \u2014 Atlanta Beltline Fiber Route","sourceUrl":"https://services2.arcgis.com/zLeajbicrDRLQcny/arcgis/rest/services/Atlanta_Beltline_Fiber_Route/FeatureServer/0","name":"Eastside Ext Trail S","carrier":"Not published","routeStatus":"Unknown","category":"unknown","evidence":"agency_route","dataDate":null,"metadataModified":"2022-01-19T00:46:05+00:00","retrievedAt":"2026-09-18T02:37:50.627152+00:00","networkType":"Published fiber route; network class not specified","serviceability":"Unconfirmed","routeDiversity":"Unconfirmed","states":["GA"]},"bbox":[-84.3581864204768,33.7396347459594,-84.3581497522288,33.7443205121257]},{"type":"Feature","geometry":{"type":"LineString","coordinates":[[-84.4252228777017,33.7566237719724],[-84.4242705793251,33.7602662268489],[-84.4232202695829,33.7603495576558],[-84.4223515895546,33.7603690820529],[-84.4222198648215,33.7620250848994],[-84.4218802891236,33.7621044575995],[-84.4216176144176,33.7634252611],[-84.4239119585117,33.7634483853232],[-84.424218549921,33.7636177156423],[-84.4243933225099,33.7638451353749],[-84.4243880985935,33.7657465656896],[-84.4236718524812,33.7662353950717],[-84.4232175931711,33.7668110650482],[-84.4228549511039,33.7674980541239],[-84.422864474878,33.7683348252799],[-84.4229936013142,33.768988034921],[-84.4237622060652,33.77147495561],[-84.4238458787879,33.7722785333278],[-84.4237545155547,33.7730762614404],[-84.4234201039174,33.7736503988517],[-84.4228633094775,33.7741527676838],[-84.4221049328407,33.7747375006502]]},"properties":{"id":"arcgis-292-0-fafb603cfd55abad","sourceId":"arcgis-292-0","source":"Atlanta Beltline Fiber Route \u2014 Atlanta Beltline Fiber Route","sourceUrl":"https://services2.arcgis.com/zLeajbicrDRLQcny/arcgis/rest/services/Atlanta_Beltline_Fiber_Route/FeatureServer/0","name":"Kudzu Line","carrier":"Not published","routeStatus":"Unknown","category":"unknown","evidence":"agency_route","dataDate":null,"metadataModified":"2022-01-19T00:46:05+00:00","retrievedAt":"2026-09-18T02:37:50.627152+00:00","networkType":"Published fiber route; network class not specified","serviceability":"Unconfirmed","routeDiversity":"Unconfirmed","states":["GA"]},"bbox":[-84.4252228777017,33.7566237719724,-84.4216176144176,33.7747375006502]},{"type":"Feature","geometry":{"type":"LineString","coordinates":[[-84.422371366522,33.731526971217],[-84.4239978304438,33.7326081530362],[-84.4244905837262,33.7329088981881],[-84.4252277582983,33.7331742311718],[-84.4261954643297,33.7335665165599],[-84.430683448411,33.7363244163251],[-84.4312815584294,33.7368418031396],[-84.431712206675,33.7376608413488]]},"properties":{"id":"arcgis-292-0-001660052cee2fd7","sourceId":"arcgis-292-0","source":"Atlanta Beltline Fiber Route \u2014 Atlanta Beltline Fiber Route","sourceUrl":"https://services2.arcgis.com/zLeajbicrDRLQcny/arcgis/rest/services/Atlanta_Beltline_Fiber_Route/FeatureServer/0","name":"Westside Trail Lawton St","carrier":"Not published","routeStatus":"Unknown","category":"unknown","evidence":"agency_route","dataDate":null,"metadataModified":"2022-01-19T00:46:05+00:00","retrievedAt":"2026-09-18T02:37:50.627152+00:00","networkType":"Published fiber route; network class not specified","serviceability":"Unconfirmed","routeDiversity":"Unconfirmed","states":["GA"]},"bbox":[-84.431712206675,33.731526971217,-84.422371366522,33.7376608413488]},{"type":"Feature","geometry":{"type":"LineString","coordinates":[[-84.3649482863391,33.7533518076391],[-84.3639195706011,33.7535660398963],[-84.363268938011,33.7522906821168]]},"properties":{"id":"arcgis-292-0-368a5b66f8fd2700","sourceId":"arcgis-292-0","source":"Atlanta Beltline Fiber Route \u2014 Atlanta Beltline Fiber Route","sourceUrl":"https://services2.arcgis.com/zLeajbicrDRLQcny/arcgis/rest/services/Atlanta_Beltline_Fiber_Route/FeatureServer/0","name":"Krog St Tunnel","carrier":"Not published","routeStatus":"Unknown","category":"unknown","evidence":"agency_route","dataDate":null,"metadataModified":"2022-01-19T00:46:05+00:00","retrievedAt":"2026-09-18T02:37:50.627152+00:00","networkType":"Published fiber route; network class not specified","serviceability":"Unconfirmed","routeDiversity":"Unconfirmed","states":["GA"]},"bbox":[-84.3649482863391,33.7522906821168,-84.363268938011,33.7535660398963]},{"type":"Feature","geometry":{"type":"LineString","coordinates":[[-84.3971582791012,33.7198050752092],[-84.3957540184307,33.7194484701081],[-84.3949273306501,33.7193343420438],[-84.3940873840211,33.7193543800268],[-84.393172719927,33.7195376839855],[-84.3920799667349,33.7198902737991],[-84.3884929223048,33.7214447398635],[-84.3842570181156,33.7235962660877],[-84.383382269101,33.7239375828352],[-84.3823745505727,33.7241988229948],[-84.3811474686606,33.7243160785864],[-84.3795605516182,33.7243363615907],[-84.3756954419371,33.7242946113884],[-84.3743124505772,33.724397480326],[-84.3728071146485,33.7248261733597],[-84.366295292536,33.7269349453834],[-84.3653895623304,33.7273265118276],[-84.3644175467947,33.7278095402257],[-84.3635969314655,33.7283997550422],[-84.3629308377078,33.7290110891209],[-84.3622133335132,33.7297509008606],[-84.3616806814695,33.7304383827478],[-84.3611862932497,33.7313732812598],[-84.3608458880243,33.7321330462768],[-84.3581892010982,33.7396354188099]]},"properties":{"id":"arcgis-292-0-9cf3411d4a59f253","sourceId":"arcgis-292-0","source":"Atlanta Beltline Fiber Route \u2014 Atlanta Beltline Fiber Route","sourceUrl":"https://services2.arcgis.com/zLeajbicrDRLQcny/arcgis/rest/services/Atlanta_Beltline_Fiber_Route/FeatureServer/0","name":"Southside Trail","carrier":"Not published","routeStatus":"Unknown","category":"unknown","evidence":"agency_route","dataDate":null,"metadataModified":"2022-01-19T00:46:05+00:00","retrievedAt":"2026-09-18T02:37:50.627152+00:00","networkType":"Published fiber route; network class not specified","serviceability":"Unconfirmed","routeDiversity":"Unconfirmed","states":["GA"]},"bbox":[-84.3971582791012,33.7193343420438,-84.3581892010982,33.7396354188099]},{"type":"Feature","geometry":{"type":"LineString","coordinates":[[-84.3732206220851,33.7993337683351],[-84.3725493616186,33.7981532172812],[-84.3710123917967,33.7953845528148],[-84.3705086982386,33.7943131850143],[-84.3702581567898,33.7934961721339],[-84.3701239951175,33.7925644446168],[-84.3701496764675,33.7915660720228],[-84.3702547314521,33.7908605856759],[-84.3707128346463,33.787225672178],[-84.3708352485022,33.7859616177686],[-84.3706765986329,33.7849071749492],[-84.3703724549678,33.7840455989462],[-84.3694195681412,33.782728855057],[-84.3691852616534,33.7825311848881],[-84.3688975295811,33.7822536659292],[-84.3685688691199,33.7818956425838],[-84.368447208691,33.7818803809613],[-84.3678288509416,33.7810446624205],[-84.3674274412868,33.7806846789133],[-84.3673688969793,33.7806141603925]]},"properties":{"id":"arcgis-292-0-7640f924a7feff7d","sourceId":"arcgis-292-0","source":"Atlanta Beltline Fiber Route \u2014 Atlanta Beltline Fiber Route","sourceUrl":"https://services2.arcgis.com/zLeajbicrDRLQcny/arcgis/rest/services/Atlanta_Beltline_Fiber_Route/FeatureServer/0","name":"Northern Eastside Trail S","carrier":"Not published","routeStatus":"Unknown","category":"unknown","evidence":"agency_route","dataDate":null,"metadataModified":"2022-01-19T00:46:05+00:00","retrievedAt":"2026-09-18T02:37:50.627152+00:00","networkType":"Published fiber route; network class not specified","serviceability":"Unconfirmed","routeDiversity":"Unconfirmed","states":["GA"]},"bbox":[-84.3732206220851,33.7806141603925,-84.3673688969793,33.7993337683351]}]}