{"type":"FeatureCollection","features":[{"type":"Feature","geometry":{"type":"MultiLineString","coordinates":[[[-116.152990373,43.557313402],[-116.152226022,43.558292539],[-116.136028189,43.557447009],[-116.095044114,43.5183299710001],[-116.095129943,43.516509409],[-116.19870592,43.5167194730001],[-116.21742771,43.507530301],[-116.335691441,43.506682111],[-116.336807227,43.508549659],[-116.499166381,43.5959772950001],[-116.520846632,43.604296473],[-116.542264857,43.6139192410001],[-116.665868038,43.6718891130001],[-116.675137726,43.6720675990001],[-116.684353784,43.6789582540001],[-116.686343976,43.6794393390001],[-116.685769989,43.6813015240001],[-116.692314562,43.6986132310001],[-116.692588154,43.7015956280001],[-116.694369128,43.7039690330001],[-116.69698696,43.705718],[-116.697131803,43.710053363],[-116.701074641,43.7121821480001],[-116.701346881,43.711521996]]]},"properties":{"id":"uniti-national-20260919-4bca0d0658423ca91a99","sourceId":"uniti-national-20260919","source":"Uniti Wholesale national core network","sourceUrl":"https://www.unitiwholesale.com/network-map/","name":"Uniti Wholesale national core network","carrier":"Uniti Wholesale","category":"unknown","routeStatus":"Publisher network map; current operating status unverified","evidence":"publisher_route","geometryQuality":"publisher_geometry_unverified","dataDate":null,"metadataModified":"2025-07-31T17:08:54+00:00","retrievedAt":"2026-09-19T13:31:22.089263+00:00","networkType":"Carrier-published national core geometry; generalized paths, not a survey","serviceability":"Unconfirmed","routeDiversity":"Unconfirmed","states":["ID"],"publishedLineParts":1,"importBatch":"20260919","sourceRecordIds":["14781"]},"bbox":[-116.701346881,43.506682111,-116.095044114,43.7121821480001]},{"type":"Feature","geometry":{"type":"MultiLineString","coordinates":[[[-115.558667666,43.194362277],[-115.566789379,43.200853941],[-115.693958021,43.2742007470001],[-115.830782601,43.3858175710001],[-115.850695281,43.395282523],[-115.864771483,43.4156731510001],[-115.874550802,43.424350331],[-116.029489978,43.5036593080001],[-116.082636162,43.527368268],[-116.123185718,43.552166125],[-116.126415099,43.5570101810001],[-116.129215312,43.5594281730001],[-116.152078425,43.559793583],[-116.152078425,43.558588496],[-116.152990373,43.557313406]]]},"properties":{"id":"uniti-national-20260919-21ee3fcddea2cdfbfbe0","sourceId":"uniti-national-20260919","source":"Uniti Wholesale national core network","sourceUrl":"https://www.unitiwholesale.com/network-map/","name":"Uniti Wholesale national core network","carrier":"Uniti Wholesale","category":"unknown","routeStatus":"Publisher network map; current operating status unverified","evidence":"publisher_route","geometryQuality":"publisher_geometry_unverified","dataDate":null,"metadataModified":"2025-07-31T17:08:54+00:00","retrievedAt":"2026-09-19T13:31:22.089263+00:00","networkType":"Carrier-published national core geometry; generalized paths, not a survey","serviceability":"Unconfirmed","routeDiversity":"Unconfirmed","states":["ID"],"publishedLineParts":1,"importBatch":"20260919","sourceRecordIds":["14780"]},"bbox":[-116.152990373,43.194362277,-115.558667666,43.559793583]},{"type":"Feature","geometry":{"type":"MultiLineString","coordinates":[[[-114.946905267,43.0458005],[-115.071080567,43.0512730620001],[-115.22531802,43.084819118],[-115.285335006,43.093962721],[-115.517485109,43.161349726],[-115.558667666,43.194362277]]]},"properties":{"id":"uniti-national-20260919-360d388c01ea89cc9fee","sourceId":"uniti-national-20260919","source":"Uniti Wholesale national core network","sourceUrl":"https://www.unitiwholesale.com/network-map/","name":"Uniti Wholesale national core network","carrier":"Uniti Wholesale","category":"unknown","routeStatus":"Publisher network map; current operating status unverified","evidence":"publisher_route","geometryQuality":"publisher_geometry_unverified","dataDate":null,"metadataModified":"2025-07-31T17:08:54+00:00","retrievedAt":"2026-09-19T13:31:22.089263+00:00","networkType":"Carrier-published national core geometry; generalized paths, not a survey","serviceability":"Unconfirmed","routeDiversity":"Unconfirmed","states":["ID"],"publishedLineParts":1,"importBatch":"20260919","sourceRecordIds":["14784"]},"bbox":[-115.558667666,43.0458005,-114.946905267,43.194362277]},{"type":"Feature","geometry":{"type":"MultiLineString","coordinates":[[[-114.556341423,42.9560918290001],[-114.56592504,42.964108738],[-114.646122938,42.98447122],[-114.658031918,43.0221326810001],[-114.860988917,43.0442009710001],[-114.909280415,43.04441792],[-114.946905267,43.0458005]]]},"properties":{"id":"uniti-national-20260919-25f44723e6ce24304172","sourceId":"uniti-national-20260919","source":"Uniti Wholesale national core network","sourceUrl":"https://www.unitiwholesale.com/network-map/","name":"Uniti Wholesale national core network","carrier":"Uniti Wholesale","category":"unknown","routeStatus":"Publisher network map; current operating status unverified","evidence":"publisher_route","geometryQuality":"publisher_geometry_unverified","dataDate":null,"metadataModified":"2025-07-31T17:08:54+00:00","retrievedAt":"2026-09-19T13:31:22.089263+00:00","networkType":"Carrier-published national core geometry; generalized paths, not a survey","serviceability":"Unconfirmed","routeDiversity":"Unconfirmed","states":["ID"],"publishedLineParts":1,"importBatch":"20260919","sourceRecordIds":["14782"]},"bbox":[-114.946905267,42.9560918290001,-114.556341423,43.0458005]},{"type":"Feature","geometry":{"type":"MultiLineString","coordinates":[[[-113.996137798,42.909083964],[-114.189900192,42.8109833500001],[-114.407362551,42.838681853],[-114.417576374,42.8387919890001],[-114.419292991,42.8366127590001],[-114.423723992,42.836770109],[-114.55687931,42.9560539220001],[-114.556341423,42.9560918290001]],[[-113.976274754,42.9090552330001],[-113.996137798,42.909083964],[-114.189900192,42.8109833500001],[-114.407362551,42.838681853],[-114.417576374,42.8387919890001],[-114.419292991,42.8366127590001],[-114.423723992,42.836770109],[-114.55687931,42.9560539220001],[-114.556341423,42.9560918290001]]]},"properties":{"id":"uniti-national-20260919-076ef278ef3c634efe3c","sourceId":"uniti-national-20260919","source":"Uniti Wholesale national core network","sourceUrl":"https://www.unitiwholesale.com/network-map/","name":"Uniti Wholesale national core network","carrier":"Uniti Wholesale","category":"unknown","routeStatus":"Publisher network map; current operating status unverified","evidence":"publisher_route","geometryQuality":"publisher_geometry_unverified","dataDate":null,"metadataModified":"2025-07-31T17:08:54+00:00","retrievedAt":"2026-09-19T13:31:22.089263+00:00","networkType":"Carrier-published national core geometry; generalized paths, not a survey","serviceability":"Unconfirmed","routeDiversity":"Unconfirmed","states":["ID"],"publishedLineParts":2,"importBatch":"20260919","sourceRecordIds":["14779","25650"]},"bbox":[-114.55687931,42.8109833500001,-113.976274754,42.9560918290001]},{"type":"Feature","geometry":{"type":"MultiLineString","coordinates":[[[-113.976274754,42.9090552330001],[-113.974766013,42.908929502],[-113.980366455,42.897141106],[-113.978864421,42.8973729670001],[-113.978837599,42.886930535],[-113.978372157,42.8866895410001]]]},"properties":{"id":"uniti-national-20260919-a5e80d4a82f2e5122580","sourceId":"uniti-national-20260919","source":"Uniti Wholesale national core network","sourceUrl":"https://www.unitiwholesale.com/network-map/","name":"Uniti Wholesale national core network","carrier":"Uniti Wholesale","category":"unknown","routeStatus":"Publisher network map; current operating status unverified","evidence":"publisher_route","geometryQuality":"publisher_geometry_unverified","dataDate":null,"metadataModified":"2025-07-31T17:08:54+00:00","retrievedAt":"2026-09-19T13:31:22.089263+00:00","networkType":"Carrier-published national core geometry; generalized paths, not a survey","serviceability":"Unconfirmed","routeDiversity":"Unconfirmed","states":["ID"],"publishedLineParts":1,"importBatch":"20260919","sourceRecordIds":["14786"]},"bbox":[-113.980366455,42.8866895410001,-113.974766013,42.9090552330001]},{"type":"Feature","geometry":{"type":"MultiLineString","coordinates":[[[-112.878156229,42.7372911460001],[-112.878698202,42.737288622],[-112.879113943,42.748099075],[-112.876501477,42.7515222550001],[-112.872639104,42.7541929130001],[-112.876388824,42.7581750520001],[-112.883748791,42.7603294750001],[-112.89331353,42.760270397],[-112.895250081,42.7626098530001],[-112.907652591,42.7626059150001],[-112.913719736,42.7555163820001],[-112.922399347,42.7544292490001],[-112.924748957,42.7522391690001],[-112.949038995,42.7521682650001],[-113.141685597,42.718826914],[-113.199234961,42.708279405],[-113.236142085,42.7006948110001],[-113.302231585,42.70447934],[-113.315063248,42.704400497],[-113.33343098,42.747165448],[-113.560924773,42.893545197],[-113.802693255,42.893902832],[-113.848709142,42.889343809],[-113.892804572,42.889241621],[-113.941609952,42.908929502],[-113.976274754,42.9090552330001]]]},"properties":{"id":"uniti-national-20260919-5476c4dc062d1d09cd06","sourceId":"uniti-national-20260919","source":"Uniti Wholesale national core network","sourceUrl":"https://www.unitiwholesale.com/network-map/","name":"Uniti Wholesale national core network","carrier":"Uniti Wholesale","category":"unknown","routeStatus":"Publisher network map; current operating status unverified","evidence":"publisher_route","geometryQuality":"publisher_geometry_unverified","dataDate":null,"metadataModified":"2025-07-31T17:08:54+00:00","retrievedAt":"2026-09-19T13:31:22.089263+00:00","networkType":"Carrier-published national core geometry; generalized paths, not a survey","serviceability":"Unconfirmed","routeDiversity":"Unconfirmed","states":["ID"],"publishedLineParts":1,"importBatch":"20260919","sourceRecordIds":["14807"]},"bbox":[-113.976274754,42.7006948110001,-112.872639104,42.9090552330001]},{"type":"Feature","geometry":{"type":"MultiLineString","coordinates":[[[-112.799597164,42.3138300200001],[-112.813334069,42.333889464],[-112.818569731,42.339472705],[-112.821938579,42.346165598],[-112.82672363,42.35087557],[-112.830521631,42.356045033],[-112.829977143,42.360190328],[-112.830950784,42.39196581],[-112.830199766,42.3965772710001],[-112.825650749,42.402646136],[-112.825479088,42.4365449160001],[-112.826144274,42.4436866670001],[-112.825758038,42.4581418650001],[-112.824685155,42.460500611],[-112.830586004,42.469333248],[-112.838160548,42.4757115990001],[-112.841164615,42.4811714580001],[-112.841422108,42.4887195220001],[-112.839104683,42.497738026],[-112.839898615,42.504714608],[-112.841507938,42.5075936060001],[-112.841014413,42.510551558],[-112.841550853,42.5163088830001],[-112.844361802,42.523488978],[-112.845692176,42.524374572],[-112.851550108,42.525275967],[-112.85515499,42.5270945300001],[-112.863180144,42.539253826],[-112.865132788,42.545372108],[-112.865647772,42.5453563],[-112.866484619,42.547933071],[-112.86946723,42.552011425],[-112.870540111,42.5615739630001],[-112.876119095,42.5703133150001],[-112.879273367,42.571435277],[-112.879337739,42.579225245],[-112.881183095,42.580647243],[-112.88186974,42.582085009],[-112.881290384,42.588878397],[-112.883521978,42.593712312],[-112.883285943,42.5975823320001],[-112.882191604,42.598672213],[-112.875689942,42.601104632],[-112.86873767,42.608985648],[-112.863866788,42.611607168],[-112.862793907,42.6134863820001],[-112.864081364,42.617686775],[-112.864145737,42.6451244670001],[-112.876612621,42.6625785200001],[-112.879445028,42.668448041],[-112.881311842,42.675926143],[-112.879080248,42.68827724],[-112.875883061,42.6922833260001],[-112.875475366,42.6938446840001],[-112.875668485,42.6962260720001],[-112.877964451,42.69862314],[-112.878543807,42.70067319],[-112.878696693,42.737144873],[-112.8781569,42.7372911460001]],[[-112.799644797,42.3137764730001],[-112.813334069,42.333889464],[-112.818569731,42.339472705],[-112.821938579,42.346165598],[-112.82672363,42.35087557],[-112.830521631,42.356045033],[-112.829977143,42.360190328],[-112.830950784,42.39196581],[-112.830199766,42.3965772710001],[-112.825650749,42.402646136],[-112.825479088,42.4365449160001],[-112.826144274,42.4436866670001],[-112.825758038,42.4581418650001],[-112.824685155,42.460500611],[-112.830586004,42.469333248],[-112.838160548,42.4757115990001],[-112.841164615,42.4811714580001],[-112.841422108,42.4887195220001],[-112.839104683,42.497738026],[-112.839898615,42.504714608],[-112.841507938,42.5075936060001],[-112.841014413,42.510551558],[-112.841550853,42.5163088830001],[-112.844361802,42.523488978],[-112.845692176,42.524374572],[-112.851550108,42.525275967],[-112.85515499,42.5270945300001],[-112.863180144,42.539253826],[-112.865132788,42.545372108],[-112.865647772,42.5453563],[-112.866484619,42.547933071],[-112.86946723,42.552011425],[-112.870540111,42.5615739630001],[-112.876119095,42.5703133150001],[-112.879273367,42.571435277],[-112.879337739,42.579225245],[-112.881183095,42.580647243],[-112.88186974,42.582085009],[-112.881290384,42.588878397],[-112.883521978,42.593712312],[-112.883285943,42.5975823320001],[-112.882191604,42.598672213],[-112.875689942,42.601104632],[-112.86873767,42.608985648],[-112.863866788,42.611607168],[-112.862793907,42.6134863820001],[-112.864081364,42.617686775],[-112.864145737,42.6451244670001],[-112.876612621,42.6625785200001],[-112.879445028,42.668448041],[-112.881311842,42.675926143],[-112.879080248,42.68827724],[-112.875883061,42.6922833260001],[-112.875475366,42.6938446840001],[-112.875668485,42.6962260720001],[-112.877964451,42.69862314],[-112.878543807,42.70067319],[-112.878696693,42.737144873],[-112.8781569,42.7372911460001]]]},"properties":{"id":"uniti-national-20260919-47afd3e2662f6e2ef2fe","sourceId":"uniti-national-20260919","source":"Uniti Wholesale national core network","sourceUrl":"https://www.unitiwholesale.com/network-map/","name":"Uniti Wholesale national core network","carrier":"Uniti Wholesale","category":"unknown","routeStatus":"Publisher network map; current operating status unverified","evidence":"publisher_route","geometryQuality":"publisher_geometry_unverified","dataDate":null,"metadataModified":"2025-07-31T17:08:54+00:00","retrievedAt":"2026-09-19T13:31:22.089263+00:00","networkType":"Carrier-published national core geometry; generalized paths, not a survey","serviceability":"Unconfirmed","routeDiversity":"Unconfirmed","states":["ID"],"publishedLineParts":2,"importBatch":"20260919","sourceRecordIds":["14788","26771"]},"bbox":[-112.883521978,42.3137764730001,-112.799597164,42.7372911460001]},{"type":"Feature","geometry":{"type":"MultiLineString","coordinates":[[[-116.701346962,43.7115209150001],[-116.701089471,43.712207236],[-116.717194687,43.736927135],[-116.963343736,43.990476678],[-116.963292338,43.991878914]]]},"properties":{"id":"uniti-national-20260919-d50edbbe0a4bdd0677f3","sourceId":"uniti-national-20260919","source":"Uniti Wholesale national core network","sourceUrl":"https://www.unitiwholesale.com/network-map/","name":"Uniti Wholesale national core network","carrier":"Uniti Wholesale","category":"unknown","routeStatus":"Publisher network map; current operating status unverified","evidence":"publisher_route","geometryQuality":"publisher_geometry_unverified","dataDate":null,"metadataModified":"2025-07-31T17:08:54+00:00","retrievedAt":"2026-09-19T13:31:22.089263+00:00","networkType":"Carrier-published national core geometry; generalized paths, not a survey","serviceability":"Unconfirmed","routeDiversity":"Unconfirmed","states":["ID","OR"],"publishedLineParts":1,"importBatch":"20260919","sourceRecordIds":["14787"]},"bbox":[-116.963343736,43.7115209150001,-116.701089471,43.991878914]},{"type":"Feature","geometry":{"type":"MultiLineString","coordinates":[[[-112.545757246,41.896097453],[-112.54958761,41.896183337],[-112.566539138,41.8940270650001],[-112.574070766,41.894346517],[-112.577053377,41.8967263860001],[-112.583640869,41.904376507],[-112.58580809,41.905749918],[-112.613531347,41.9128241130001],[-112.620547993,41.916001657],[-112.653828776,41.934137772],[-112.675200576,41.9537209010001],[-112.687345594,41.95849208],[-112.687409968,41.9929010070001],[-112.686894984,41.9946233580001],[-112.687302679,42.00007716],[-112.695027426,42.0000452680001],[-112.695435121,42.004701363],[-112.694877223,42.0559915160001],[-112.694641189,42.0574731830001],[-112.692946036,42.058174175],[-112.659407761,42.0584290780001],[-112.657455116,42.0594486850001],[-112.656532438,42.0607231700001],[-112.656017455,42.168467859],[-112.660630845,42.175655987],[-112.682281594,42.200188064],[-112.689491358,42.203716848],[-112.699855393,42.2124743730001],[-112.706829123,42.217114892],[-112.717472107,42.219975315],[-112.72858716,42.226108899],[-112.732878685,42.2294137960001],[-112.740775093,42.2322736630001],[-112.74388645,42.2349427550001],[-112.74542067,42.238016837],[-112.74768445,42.239756368],[-112.750838722,42.243799202],[-112.754196841,42.2521461580001],[-112.758220147,42.254075887],[-112.76216835,42.2600314680001],[-112.762940825,42.264501755],[-112.769914555,42.2777440130001],[-112.77195303,42.2797285240001],[-112.778851658,42.284054541],[-112.780739929,42.286618261],[-112.781179811,42.289356485],[-112.782746218,42.2923564880001],[-112.78988088,42.300093933],[-112.799644797,42.3137764730001]]]},"properties":{"id":"uniti-national-20260919-632598df99651754e202","sourceId":"uniti-national-20260919","source":"Uniti Wholesale national core network","sourceUrl":"https://www.unitiwholesale.com/network-map/","name":"Uniti Wholesale national core network","carrier":"Uniti Wholesale","category":"unknown","routeStatus":"Publisher network map; current operating status unverified","evidence":"publisher_route","geometryQuality":"publisher_geometry_unverified","dataDate":null,"metadataModified":"2025-07-31T17:08:54+00:00","retrievedAt":"2026-09-19T13:31:22.089263+00:00","networkType":"Carrier-published national core geometry; generalized paths, not a survey","serviceability":"Unconfirmed","routeDiversity":"Unconfirmed","states":["ID","UT"],"publishedLineParts":1,"importBatch":"20260919","sourceRecordIds":["14802"]},"bbox":[-112.799644797,41.8940270650001,-112.545757246,42.3137764730001]},{"type":"Feature","geometry":{"type":"MultiLineString","coordinates":[[[-116.701303,43.711645],[-116.701327,43.711666],[-116.70138,43.7115260000001],[-116.701281,43.7116260000001],[-116.701303,43.711645]],[[-116.701303,43.711645],[-116.70105,43.711801],[-116.701053,43.7118550000001],[-116.701118,43.7121750000001]]]},"properties":{"id":"uniti-wholesale-dark-20260919-dfb48cd3022f51370713","sourceId":"uniti-wholesale-dark-20260919","source":"Uniti Wholesale published dark-fiber network","sourceUrl":"https://www.unitiwholesale.com/network-map/","name":"Uniti Wholesale published dark-fiber network","carrier":"Uniti Wholesale","category":"unknown","routeStatus":"Publisher labels dark fiber; operating status and available strands unconfirmed","evidence":"publisher_route","geometryQuality":"publisher_geometry_unverified","dataDate":null,"metadataModified":"2025-06-12T22:27:17+00:00","retrievedAt":"2026-09-19T14:15:30.154436+00:00","networkType":"Carrier-published geometry; may overlap other network layers; physical diversity unconfirmed","serviceability":"Unconfirmed","routeDiversity":"Unconfirmed","states":["ID"],"publishedLineParts":2,"importBatch":"20260919-parcel","sourceRecordIds":["401","403"]},"bbox":[-116.70138,43.7115260000001,-116.70105,43.7121750000001]},{"type":"Feature","geometry":{"type":"MultiLineString","coordinates":[[[-116.701118,43.7121750000001],[-116.697142,43.7100620000001],[-116.696977,43.705743],[-116.694372,43.703937],[-116.692614,43.701603],[-116.692317,43.6986370000001],[-116.685863,43.681311],[-116.686495,43.679755],[-116.686046,43.67922],[-116.685603,43.678926],[-116.685131,43.6789380000001],[-116.684374,43.678976],[-116.678313,43.6749070000001],[-116.677409,43.673771],[-116.674851,43.6719860000001],[-116.67312,43.6719800000001],[-116.665975,43.671885],[-116.664441,43.671183],[-116.651773,43.665235],[-116.63325,43.6565580000001],[-116.619559,43.650106],[-116.590671,43.6366140000001],[-116.587358,43.6350580000001],[-116.563079,43.623638],[-116.549655,43.617311],[-116.533114,43.6095490000001],[-116.52678,43.6065600000001],[-116.52083,43.6043310000001],[-116.509804,43.6000050000001],[-116.503884,43.597782],[-116.49961,43.5961310000001],[-116.497664,43.5951170000001],[-116.492434,43.592133],[-116.486792,43.588977],[-116.483692,43.587208],[-116.478576,43.5843],[-116.473422,43.581402],[-116.468382,43.5785470000001],[-116.465098,43.5767000000001],[-116.460159,43.573874],[-116.456794,43.572032],[-116.45184,43.569219],[-116.441941,43.5635990000001],[-116.437787,43.561229],[-116.430452,43.557189],[-116.421901,43.552335],[-116.411108,43.546224],[-116.394345,43.537741],[-116.387778,43.5344240000001],[-116.384247,43.532635],[-116.377755,43.5293090000001],[-116.371916,43.5264030000001],[-116.363964,43.522299],[-116.3517,43.516153],[-116.336838,43.508565],[-116.335596,43.5066160000001],[-116.322662,43.506716],[-116.314174,43.506787],[-116.293437,43.5073370000001],[-116.280509,43.5072720000001],[-116.226222,43.5075650000001],[-116.217542,43.5075150000001],[-116.207579,43.512362],[-116.198727,43.516717],[-116.160336,43.5165720000001],[-116.142635,43.51653],[-116.098814,43.516439],[-116.095102,43.516424],[-116.095131,43.5181870000001],[-116.103512,43.5264100000001],[-116.108708,43.531508],[-116.131996,43.5536760000001],[-116.135988,43.5574760000001],[-116.137307,43.557805],[-116.148652,43.557822],[-116.152081,43.5583],[-116.152083,43.55819],[-116.152057,43.558141],[-116.152048,43.5580570000001],[-116.152047,43.5579730000001],[-116.152065,43.557896],[-116.152115,43.5578090000001],[-116.152152,43.557799],[-116.152678,43.557802],[-116.152685,43.5574770000001],[-116.152735,43.5574770000001],[-116.152734,43.5574280000001],[-116.152872,43.5575020000001],[-116.153027,43.557557],[-116.153084,43.5574730000001]]]},"properties":{"id":"uniti-wholesale-dark-20260919-e817d2c5c5cca3262cac","sourceId":"uniti-wholesale-dark-20260919","source":"Uniti Wholesale published dark-fiber network","sourceUrl":"https://www.unitiwholesale.com/network-map/","name":"Uniti Wholesale published dark-fiber network","carrier":"Uniti Wholesale","category":"unknown","routeStatus":"Publisher labels dark fiber; operating status and available strands unconfirmed","evidence":"publisher_route","geometryQuality":"publisher_geometry_unverified","dataDate":null,"metadataModified":"2025-06-12T22:27:17+00:00","retrievedAt":"2026-09-19T14:15:30.154436+00:00","networkType":"Carrier-published geometry; may overlap other network layers; physical diversity unconfirmed","serviceability":"Unconfirmed","routeDiversity":"Unconfirmed","states":["ID"],"publishedLineParts":1,"importBatch":"20260919-parcel","sourceRecordIds":["405"]},"bbox":[-116.701118,43.5066160000001,-116.095102,43.7121750000001]},{"type":"Feature","geometry":{"type":"MultiLineString","coordinates":[[[-116.153054,43.5573910000001],[-116.153084,43.5574730000001]],[[-116.20289,43.6147485000001],[-116.20271,43.6146577000001],[-116.20226,43.6151417]],[[-116.20091,43.6165924000001],[-116.19951,43.6158917000001]],[[-116.199513163,43.6158916630001],[-116.198451981,43.615344269],[-116.202168818,43.6114574960001],[-116.202944271,43.6118897170001]],[[-116.20226,43.6151417],[-116.20149,43.6159729],[-116.20141,43.6159426],[-116.20091,43.6165924000001]],[[-116.202944271,43.6118897170001],[-116.202837994,43.611975719]],[[-116.199513153,43.615891655],[-116.199587161,43.615917031],[-116.199921993,43.6155646020001],[-116.200478323,43.61586395],[-116.200215345,43.6161055680001]],[[-116.203049997,43.6121656010001],[-116.203158558,43.6122174760001]],[[-116.203158558,43.6122174760001],[-116.201140003,43.6143443010001],[-116.202349999,43.615027198],[-116.202259998,43.615141704]],[[-116.20022,43.6161047000001],[-116.20007,43.6162640000001],[-116.20091,43.6165924000001]]]},"properties":{"id":"uniti-wholesale-dark-20260919-4f973766f1c6823c13fe","sourceId":"uniti-wholesale-dark-20260919","source":"Uniti Wholesale published dark-fiber network","sourceUrl":"https://www.unitiwholesale.com/network-map/","name":"Uniti Wholesale published dark-fiber network","carrier":"Uniti Wholesale","category":"unknown","routeStatus":"Publisher labels dark fiber; operating status and available strands unconfirmed","evidence":"publisher_route","geometryQuality":"publisher_geometry_unverified","dataDate":null,"metadataModified":"2025-06-12T22:27:17+00:00","retrievedAt":"2026-09-19T14:15:30.154436+00:00","networkType":"Carrier-published geometry; may overlap other network layers; physical diversity unconfirmed","serviceability":"Unconfirmed","routeDiversity":"Unconfirmed","states":["ID"],"publishedLineParts":10,"importBatch":"20260919-parcel","sourceRecordIds":["176805","187636","187639","187640","190644","197964","215729","221512","231857","404"]},"bbox":[-116.203158558,43.5573910000001,-116.153054,43.6165924000001]},{"type":"Feature","geometry":{"type":"MultiLineString","coordinates":[[[-115.558651,43.194371],[-115.56676,43.200837],[-115.589009,43.2136990000001],[-115.596418,43.217989],[-115.601722,43.22108],[-115.611195,43.226541],[-115.613565,43.227898],[-115.628248,43.2363920000001],[-115.637471,43.241746],[-115.640163,43.243302],[-115.644967,43.246086],[-115.647379,43.2474500000001],[-115.652219,43.2502480000001],[-115.654575,43.251626],[-115.658936,43.2541450000001],[-115.661727,43.255766],[-115.664197,43.257165],[-115.6714,43.261305],[-115.673913,43.2627610000001],[-115.681622,43.267201],[-115.68295,43.267972],[-115.693857,43.2742400000001],[-115.699639,43.2784800000001],[-115.707278,43.2845410000001],[-115.71004,43.2867390000001],[-115.714994,43.2906800000001],[-115.726173,43.2995310000001],[-115.732191,43.3042780000001],[-115.734989,43.306491],[-115.73803,43.308932],[-115.744069,43.3137290000001],[-115.752206,43.3201970000001],[-115.754855,43.3222880000001],[-115.76048,43.3267500000001],[-115.762628,43.3284990000001],[-115.764999,43.330319],[-115.768089,43.3327820000001],[-115.770445,43.334595],[-115.775863,43.3389280000001],[-115.781531,43.343397],[-115.782816,43.3443740000001],[-115.788569,43.3489650000001],[-115.791225,43.3510420000001],[-115.795265,43.35459],[-115.796643,43.3558170000001],[-115.798113,43.357109],[-115.802475,43.3609280000001],[-115.803917,43.3622270000001],[-115.808643,43.3663680000001],[-115.81481,43.3717790000001],[-115.817844,43.374491],[-115.820335,43.376626],[-115.824797,43.3805800000001],[-115.830862,43.3858450000001],[-115.846301,43.393245],[-115.850723,43.3952860000001],[-115.852636,43.398019],[-115.855577,43.402274],[-115.858476,43.4065000000001],[-115.861567,43.4110400000001],[-115.864779,43.4157230000001],[-115.867891,43.418307],[-115.872417,43.422333],[-115.874551,43.4242530000001],[-115.878841,43.4264660000001],[-115.883553,43.428843],[-115.892369,43.4333540000001],[-115.903455,43.439086],[-115.905981,43.4403500000001],[-115.912256,43.443584],[-115.91811,43.4466170000001],[-115.92125,43.4481950000001],[-115.923892,43.449551],[-115.931116,43.45327],[-115.950472,43.4631800000001],[-115.952316,43.4641260000001],[-115.960364,43.46826],[-115.965552,43.4709070000001],[-115.967931,43.4721450000001],[-115.973434,43.474947],[-115.977842,43.4772070000001],[-115.981387,43.479021],[-115.985783,43.4812640000001],[-115.989935,43.483352],[-115.995722,43.486369],[-116.001624,43.48936],[-116.00743,43.492305],[-116.011582,43.494446],[-116.013159,43.4952430000001],[-116.018203,43.497825],[-116.021148,43.4993060000001],[-116.026026,43.501834],[-116.030761,43.50422],[-116.034919,43.5060580000001],[-116.039779,43.5082590000001],[-116.042944,43.5096270000001],[-116.053045,43.5140650000001],[-116.058488,43.5164770000001],[-116.059049,43.516716],[-116.065935,43.519734],[-116.068529,43.5208640000001],[-116.072437,43.5225950000001],[-116.076006,43.524148],[-116.078207,43.5251410000001],[-116.08139,43.5264920000001],[-116.086393,43.529525],[-116.096285,43.5354320000001],[-116.102752,43.539293],[-116.104869,43.5405660000001],[-116.106814,43.541702],[-116.108403,43.542666],[-116.110479,43.543981],[-116.112794,43.5454520000001],[-116.114546,43.5466010000001],[-116.119864,43.5500180000001],[-116.123296,43.5521610000001],[-116.12639,43.5570050000001],[-116.129253,43.5594170000001],[-116.133536,43.5594],[-116.1409,43.5594350000001],[-116.14859,43.559383],[-116.152102,43.5598410000001],[-116.152144,43.5597730000001],[-116.152173,43.5583930000001],[-116.15221,43.558381],[-116.152221,43.5583770000001],[-116.152687,43.5578370000001],[-116.152684,43.5578130000001],[-116.152689,43.557481],[-116.152735,43.557481],[-116.152736,43.557529],[-116.153057,43.557597],[-116.153084,43.5574730000001]]]},"properties":{"id":"uniti-wholesale-dark-20260919-fb5fa3a70146ed892d14","sourceId":"uniti-wholesale-dark-20260919","source":"Uniti Wholesale published dark-fiber network","sourceUrl":"https://www.unitiwholesale.com/network-map/","name":"Uniti Wholesale published dark-fiber network","carrier":"Uniti Wholesale","category":"unknown","routeStatus":"Publisher labels dark fiber; operating status and available strands unconfirmed","evidence":"publisher_route","geometryQuality":"publisher_geometry_unverified","dataDate":null,"metadataModified":"2025-06-12T22:27:17+00:00","retrievedAt":"2026-09-19T14:15:30.154436+00:00","networkType":"Carrier-published geometry; may overlap other network layers; physical diversity unconfirmed","serviceability":"Unconfirmed","routeDiversity":"Unconfirmed","states":["ID"],"publishedLineParts":1,"importBatch":"20260919-parcel","sourceRecordIds":["410"]},"bbox":[-116.153084,43.194371,-115.558651,43.5598410000001]},{"type":"Feature","geometry":{"type":"MultiLineString","coordinates":[[[-115.558722,43.195269],[-115.55873,43.195208],[-115.558874,43.1951720000001],[-115.558892,43.1951500000001],[-115.558835,43.195164]],[[-115.558835,43.195164],[-115.558677,43.195201],[-115.558679,43.195277]],[[-115.558651,43.194371],[-115.558758,43.1948320000001],[-115.558835,43.195164]],[[-115.558651,43.194371],[-115.558835,43.195164]]]},"properties":{"id":"uniti-wholesale-dark-20260919-6536da5f7ae510da8319","sourceId":"uniti-wholesale-dark-20260919","source":"Uniti Wholesale published dark-fiber network","sourceUrl":"https://www.unitiwholesale.com/network-map/","name":"Uniti Wholesale published dark-fiber network","carrier":"Uniti Wholesale","category":"unknown","routeStatus":"Publisher labels dark fiber; operating status and available strands unconfirmed","evidence":"publisher_route","geometryQuality":"publisher_geometry_unverified","dataDate":null,"metadataModified":"2025-06-12T22:27:17+00:00","retrievedAt":"2026-09-19T14:15:30.154436+00:00","networkType":"Carrier-published geometry; may overlap other network layers; physical diversity unconfirmed","serviceability":"Unconfirmed","routeDiversity":"Unconfirmed","states":["ID"],"publishedLineParts":4,"importBatch":"20260919-parcel","sourceRecordIds":["406","407","408","409"]},"bbox":[-115.558892,43.194371,-115.558651,43.195277]},{"type":"Feature","geometry":{"type":"MultiLineString","coordinates":[[[-114.946911,43.0457950000001],[-115.046259,43.050141],[-115.071048,43.051233],[-115.09026,43.0552010000001],[-115.095518,43.0563030000001],[-115.105667,43.05843],[-115.126144,43.062663],[-115.139658,43.0654660000001],[-115.148521,43.06733],[-115.164314,43.070572],[-115.171191,43.0721050000001],[-115.173512,43.072728],[-115.176713,43.073265],[-115.178722,43.073905],[-115.187098,43.0758460000001],[-115.192499,43.077189],[-115.2014,43.0792240000001],[-115.211199,43.0815520000001],[-115.227813,43.085361],[-115.234926,43.086236],[-115.252217,43.088938],[-115.266549,43.0911360000001],[-115.280979,43.0933410000001],[-115.286864,43.094258],[-115.28816,43.0946210000001],[-115.303098,43.099025],[-115.315729,43.1025710000001],[-115.319655,43.1038080000001],[-115.339379,43.109578],[-115.353919,43.1137620000001],[-115.370549,43.118682],[-115.385626,43.1230550000001],[-115.400375,43.127351],[-115.411891,43.1306920000001],[-115.430615,43.136125],[-115.454816,43.143237],[-115.475555,43.149205],[-115.497955,43.155713],[-115.517549,43.161393],[-115.519742,43.1631660000001],[-115.52455,43.167016],[-115.55009,43.1874350000001],[-115.558651,43.194371]]]},"properties":{"id":"uniti-wholesale-dark-20260919-de7717e275a20d109ab8","sourceId":"uniti-wholesale-dark-20260919","source":"Uniti Wholesale published dark-fiber network","sourceUrl":"https://www.unitiwholesale.com/network-map/","name":"Uniti Wholesale published dark-fiber network","carrier":"Uniti Wholesale","category":"unknown","routeStatus":"Publisher labels dark fiber; operating status and available strands unconfirmed","evidence":"publisher_route","geometryQuality":"publisher_geometry_unverified","dataDate":null,"metadataModified":"2025-06-12T22:27:17+00:00","retrievedAt":"2026-09-19T14:15:30.154436+00:00","networkType":"Carrier-published geometry; may overlap other network layers; physical diversity unconfirmed","serviceability":"Unconfirmed","routeDiversity":"Unconfirmed","states":["ID"],"publishedLineParts":1,"importBatch":"20260919-parcel","sourceRecordIds":["411"]},"bbox":[-115.558651,43.0457950000001,-114.946911,43.194371]},{"type":"Feature","geometry":{"type":"MultiLineString","coordinates":[[[-114.946027,43.045717],[-114.946914,43.045755],[-114.946911,43.0457950000001]],[[-114.945769,43.0453430000001],[-114.946027,43.045717]],[[-114.945769,43.0453430000001],[-114.945889,43.0455160000001],[-114.946027,43.045717]],[[-114.943693,43.0449420000001],[-114.945252,43.0449550000001],[-114.945311,43.0449540000001],[-114.945357,43.0449550000001],[-114.945402,43.0449610000001],[-114.945446,43.044973],[-114.945489,43.044991],[-114.945529,43.045014],[-114.945565,43.0450420000001],[-114.945598,43.0450740000001],[-114.945626,43.0451100000001],[-114.945769,43.0453430000001]],[[-114.94193,43.0449130000001],[-114.943693,43.0449420000001]],[[-114.94193,43.0449130000001],[-114.942853,43.044928],[-114.943693,43.0449420000001]],[[-114.941794,43.0451110000001],[-114.94193,43.0449130000001]],[[-114.941794,43.0451110000001],[-114.941879,43.0451120000001],[-114.941809,43.0451390000001],[-114.941808,43.0451810000001]],[[-114.941757,43.0451810000001],[-114.941757,43.0451110000001],[-114.941794,43.0451110000001]],[[-114.556895,42.9560940000001],[-114.565846,42.964145],[-114.610608,42.975505],[-114.639158,42.9827470000001],[-114.646085,42.9845030000001],[-114.648981,42.9938040000001],[-114.653618,43.0083440000001],[-114.657809,43.0220890000001],[-114.665939,43.022698],[-114.69405,43.024746],[-114.698154,43.02525],[-114.717688,43.0275950000001],[-114.737449,43.0298950000001],[-114.750506,43.031432],[-114.762555,43.0328270000001],[-114.777176,43.0345550000001],[-114.787936,43.0357930000001],[-114.808876,43.0382480000001],[-114.815164,43.038954],[-114.843297,43.0423010000001],[-114.862412,43.0443070000001],[-114.896263,43.044384],[-114.914483,43.044381],[-114.94268,43.045645],[-114.946911,43.0457950000001]]]},"properties":{"id":"uniti-wholesale-dark-20260919-32f0db3ee6b498ea7971","sourceId":"uniti-wholesale-dark-20260919","source":"Uniti Wholesale published dark-fiber network","sourceUrl":"https://www.unitiwholesale.com/network-map/","name":"Uniti Wholesale published dark-fiber network","carrier":"Uniti Wholesale","category":"unknown","routeStatus":"Publisher labels dark fiber; operating status and available strands unconfirmed","evidence":"publisher_route","geometryQuality":"publisher_geometry_unverified","dataDate":null,"metadataModified":"2025-06-12T22:27:17+00:00","retrievedAt":"2026-09-19T14:15:30.154436+00:00","networkType":"Carrier-published geometry; may overlap other network layers; physical diversity unconfirmed","serviceability":"Unconfirmed","routeDiversity":"Unconfirmed","states":["ID"],"publishedLineParts":10,"importBatch":"20260919-parcel","sourceRecordIds":["412","413","414","415","416","417","418","419","420","421"]},"bbox":[-114.946914,42.9560940000001,-114.556895,43.0457950000001]},{"type":"Feature","geometry":{"type":"MultiLineString","coordinates":[[[-114.556368,42.956015],[-114.556443,42.956017],[-114.556802,42.956105],[-114.556895,42.9560940000001]],[[-114.556322,42.956033],[-114.556396,42.9560980000001],[-114.556818,42.9561330000001],[-114.556895,42.9560940000001]]]},"properties":{"id":"uniti-wholesale-dark-20260919-27389cd2879590045d52","sourceId":"uniti-wholesale-dark-20260919","source":"Uniti Wholesale published dark-fiber network","sourceUrl":"https://www.unitiwholesale.com/network-map/","name":"Uniti Wholesale published dark-fiber network","carrier":"Uniti Wholesale","category":"unknown","routeStatus":"Publisher labels dark fiber; operating status and available strands unconfirmed","evidence":"publisher_route","geometryQuality":"publisher_geometry_unverified","dataDate":null,"metadataModified":"2025-06-12T22:27:17+00:00","retrievedAt":"2026-09-19T14:15:30.154436+00:00","networkType":"Carrier-published geometry; may overlap other network layers; physical diversity unconfirmed","serviceability":"Unconfirmed","routeDiversity":"Unconfirmed","states":["ID"],"publishedLineParts":2,"importBatch":"20260919-parcel","sourceRecordIds":["422","423"]},"bbox":[-114.556895,42.956015,-114.556322,42.9561330000001]},{"type":"Feature","geometry":{"type":"MultiLineString","coordinates":[[[-113.976017,42.9090370000001],[-113.981094,42.9089960000001],[-113.99614,42.909096],[-114.189884,42.811003],[-114.406872,42.8386530000001],[-114.407171,42.838578],[-114.408604,42.838691],[-114.417071,42.8387440000001],[-114.418405,42.8389030000001],[-114.419637,42.836686],[-114.42368,42.83671],[-114.425055,42.837998],[-114.511975,42.915831],[-114.528928,42.931023],[-114.553623,42.953175],[-114.556895,42.9560940000001]]]},"properties":{"id":"uniti-wholesale-dark-20260919-8b0c19978220935c0fdb","sourceId":"uniti-wholesale-dark-20260919","source":"Uniti Wholesale published dark-fiber network","sourceUrl":"https://www.unitiwholesale.com/network-map/","name":"Uniti Wholesale published dark-fiber network","carrier":"Uniti Wholesale","category":"unknown","routeStatus":"Publisher labels dark fiber; operating status and available strands unconfirmed","evidence":"publisher_route","geometryQuality":"publisher_geometry_unverified","dataDate":null,"metadataModified":"2025-06-12T22:27:17+00:00","retrievedAt":"2026-09-19T14:15:30.154436+00:00","networkType":"Carrier-published geometry; may overlap other network layers; physical diversity unconfirmed","serviceability":"Unconfirmed","routeDiversity":"Unconfirmed","states":["ID"],"publishedLineParts":1,"importBatch":"20260919-parcel","sourceRecordIds":["437"]},"bbox":[-114.556895,42.811003,-113.976017,42.9560940000001]},{"type":"Feature","geometry":{"type":"MultiLineString","coordinates":[[[-113.979127,42.8973250000001],[-113.979406,42.8972890000001]],[[-113.979127,42.8973250000001],[-113.979267,42.8973070000001],[-113.979406,42.8972890000001]],[[-113.978875,42.8973370000001],[-113.979005,42.897336],[-113.979127,42.8973250000001]],[[-113.978841,42.893672],[-113.978875,42.8973370000001]],[[-113.978841,42.893672],[-113.978857,42.8953710000001],[-113.978875,42.8973370000001]],[[-113.978805,42.8897400000001],[-113.978841,42.893672]],[[-113.978805,42.8897400000001],[-113.978811,42.8903770000001],[-113.978841,42.893672]],[[-113.978779,42.8868810000001],[-113.978805,42.8897400000001]],[[-113.978779,42.8868810000001],[-113.978789,42.8879400000001],[-113.978805,42.8897400000001]],[[-113.978376,42.8866320000001],[-113.978779,42.8868810000001]],[[-113.977084,42.904142],[-113.978498,42.9007560000001],[-113.979006,42.8997830000001],[-113.980068,42.897681],[-113.980366,42.8971510000001],[-113.980322,42.8971330000001],[-113.980248,42.897142],[-113.980012,42.897186],[-113.979728,42.8972380000001],[-113.979406,42.8972890000001]],[[-113.976396,42.905764],[-113.976406,42.905742],[-113.977084,42.904142]],[[-113.976396,42.905764],[-113.977084,42.904142]],[[-113.976017,42.906616],[-113.976396,42.905764]],[[-113.976017,42.906616],[-113.97616,42.906321],[-113.976396,42.905764]],[[-113.97593,42.906794],[-113.976017,42.906616]],[[-113.97593,42.906794],[-113.976013,42.9066240000001],[-113.976017,42.906616]],[[-113.975574,42.9075730000001],[-113.97593,42.906794]],[[-113.975309,42.9080900000001],[-113.975574,42.9075730000001]],[[-113.975309,42.9080900000001],[-113.975517,42.9076840000001],[-113.975574,42.9075730000001]],[[-113.976017,42.9090370000001],[-113.975889,42.908956],[-113.975015,42.9089240000001],[-113.974875,42.908865],[-113.974945,42.908779],[-113.975,42.908709],[-113.975309,42.9080900000001]]]},"properties":{"id":"uniti-wholesale-dark-20260919-560481bd2f24f0410374","sourceId":"uniti-wholesale-dark-20260919","source":"Uniti Wholesale published dark-fiber network","sourceUrl":"https://www.unitiwholesale.com/network-map/","name":"Uniti Wholesale published dark-fiber network","carrier":"Uniti Wholesale","category":"unknown","routeStatus":"Publisher labels dark fiber; operating status and available strands unconfirmed","evidence":"publisher_route","geometryQuality":"publisher_geometry_unverified","dataDate":null,"metadataModified":"2025-06-12T22:27:17+00:00","retrievedAt":"2026-09-19T14:15:30.154436+00:00","networkType":"Carrier-published geometry; may overlap other network layers; physical diversity unconfirmed","serviceability":"Unconfirmed","routeDiversity":"Unconfirmed","states":["ID"],"publishedLineParts":21,"importBatch":"20260919-parcel","sourceRecordIds":["424","425","426","427","428","429","430","431","432","433","434","435","436","438","439","440","441","442","443","444","445"]},"bbox":[-113.980366,42.8866320000001,-113.974875,42.9090370000001]},{"type":"Feature","geometry":{"type":"MultiLineString","coordinates":[[[-113.43744,42.813174],[-113.549552,42.886223],[-113.553306,42.8886140000001],[-113.560607,42.8934630000001],[-113.778573,42.893933],[-113.802201,42.893918],[-113.83054,42.8910490000001],[-113.848286,42.88935],[-113.85187,42.8893640000001],[-113.892616,42.8892500000001],[-113.900068,42.8922480000001],[-113.912032,42.8970880000001],[-113.923397,42.901642],[-113.941647,42.9090100000001],[-113.976017,42.9090370000001]]]},"properties":{"id":"uniti-wholesale-dark-20260919-c1e0923735b8c47e39a4","sourceId":"uniti-wholesale-dark-20260919","source":"Uniti Wholesale published dark-fiber network","sourceUrl":"https://www.unitiwholesale.com/network-map/","name":"Uniti Wholesale published dark-fiber network","carrier":"Uniti Wholesale","category":"unknown","routeStatus":"Publisher labels dark fiber; operating status and available strands unconfirmed","evidence":"publisher_route","geometryQuality":"publisher_geometry_unverified","dataDate":null,"metadataModified":"2025-06-12T22:27:17+00:00","retrievedAt":"2026-09-19T14:15:30.154436+00:00","networkType":"Carrier-published geometry; may overlap other network layers; physical diversity unconfirmed","serviceability":"Unconfirmed","routeDiversity":"Unconfirmed","states":["ID"],"publishedLineParts":1,"importBatch":"20260919-parcel","sourceRecordIds":["462"]},"bbox":[-113.976017,42.813174,-113.43744,42.9090370000001]},{"type":"Feature","geometry":{"type":"MultiLineString","coordinates":[[[-113.452049,42.8035120000001],[-113.452101,42.803391]],[[-113.452049,42.8035120000001],[-113.45205,42.8035100000001],[-113.452101,42.803391]],[[-113.452045,42.8033770000001],[-113.452101,42.803391]],[[-113.45191,42.8033970000001],[-113.452021,42.8033980000001],[-113.452045,42.8033770000001]],[[-113.451908,42.8033540000001],[-113.452018,42.8033570000001],[-113.452045,42.8033770000001]],[[-113.449362,42.8073860000001],[-113.449538,42.807332],[-113.449666,42.807285],[-113.449792,42.8072260000001],[-113.450071,42.8070960000001],[-113.450424,42.806929],[-113.45049,42.806897],[-113.450529,42.806872],[-113.450574,42.806836],[-113.450619,42.806789],[-113.450649,42.806748],[-113.450687,42.806677],[-113.451441,42.804878],[-113.451943,42.8037420000001],[-113.452049,42.8035120000001]],[[-113.448982,42.807481],[-113.449362,42.8073860000001]],[[-113.448982,42.807481],[-113.449082,42.8074560000001],[-113.449171,42.8074340000001],[-113.449362,42.8073860000001]],[[-113.44117,42.8108950000001],[-113.442125,42.8097730000001],[-113.442565,42.809292],[-113.442721,42.809105],[-113.442803,42.809044],[-113.442925,42.808968],[-113.442991,42.8089400000001],[-113.443071,42.8089170000001],[-113.443711,42.808768],[-113.446673,42.808032],[-113.448239,42.8076580000001],[-113.448982,42.807481]],[[-113.44104,42.811044],[-113.441052,42.8110290000001],[-113.44117,42.8108950000001]],[[-113.44104,42.811044],[-113.44117,42.8108950000001]],[[-113.440114,42.812102],[-113.44104,42.811044]],[[-113.440114,42.812102],[-113.441038,42.811046],[-113.44104,42.811044]],[[-113.438144,42.813612],[-113.438163,42.813591],[-113.438164,42.813592],[-113.438529,42.8131750000001],[-113.438583,42.813137],[-113.438672,42.8131090000001],[-113.439198,42.8129730000001],[-113.439325,42.812935],[-113.439438,42.8128820000001],[-113.439525,42.812819],[-113.439593,42.812752],[-113.439656,42.812686],[-113.440114,42.812102]],[[-113.437465,42.8131750000001],[-113.438144,42.813612]],[[-113.437465,42.8131750000001],[-113.437716,42.813336],[-113.438144,42.813612]],[[-113.43744,42.813174],[-113.437465,42.8131750000001]]]},"properties":{"id":"uniti-wholesale-dark-20260919-a88ea6aa6ef8678640d2","sourceId":"uniti-wholesale-dark-20260919","source":"Uniti Wholesale published dark-fiber network","sourceUrl":"https://www.unitiwholesale.com/network-map/","name":"Uniti Wholesale published dark-fiber network","carrier":"Uniti Wholesale","category":"unknown","routeStatus":"Publisher labels dark fiber; operating status and available strands unconfirmed","evidence":"publisher_route","geometryQuality":"publisher_geometry_unverified","dataDate":null,"metadataModified":"2025-06-12T22:27:17+00:00","retrievedAt":"2026-09-19T14:15:30.154436+00:00","networkType":"Carrier-published geometry; may overlap other network layers; physical diversity unconfirmed","serviceability":"Unconfirmed","routeDiversity":"Unconfirmed","states":["ID"],"publishedLineParts":17,"importBatch":"20260919-parcel","sourceRecordIds":["446","447","448","449","450","451","452","453","454","455","456","457","458","459","460","461","463"]},"bbox":[-113.452101,42.8033540000001,-113.43744,42.813612]},{"type":"Feature","geometry":{"type":"MultiLineString","coordinates":[[[-113.43744,42.813174],[-113.333527,42.7470730000001],[-113.315466,42.704434],[-113.301903,42.704434],[-113.235956,42.700627],[-112.948965,42.752237],[-112.92467,42.75219],[-112.922332,42.754465],[-112.917663,42.7550360000001],[-112.913694,42.755543],[-112.909582,42.760247],[-112.907496,42.7625830000001],[-112.895271,42.7626070000001],[-112.893302,42.760245],[-112.883766,42.7603050000001],[-112.87639,42.75814],[-112.872999,42.7546180000001],[-112.875917,42.752061],[-112.877368,42.750635],[-112.878196,42.7488280000001],[-112.878844,42.7475840000001],[-112.878549,42.746387],[-112.878657,42.737351],[-112.878196,42.7373460000001]]]},"properties":{"id":"uniti-wholesale-dark-20260919-cbd12c738c60f527394e","sourceId":"uniti-wholesale-dark-20260919","source":"Uniti Wholesale published dark-fiber network","sourceUrl":"https://www.unitiwholesale.com/network-map/","name":"Uniti Wholesale published dark-fiber network","carrier":"Uniti Wholesale","category":"unknown","routeStatus":"Publisher labels dark fiber; operating status and available strands unconfirmed","evidence":"publisher_route","geometryQuality":"publisher_geometry_unverified","dataDate":null,"metadataModified":"2025-06-12T22:27:17+00:00","retrievedAt":"2026-09-19T14:15:30.154436+00:00","networkType":"Carrier-published geometry; may overlap other network layers; physical diversity unconfirmed","serviceability":"Unconfirmed","routeDiversity":"Unconfirmed","states":["ID"],"publishedLineParts":1,"importBatch":"20260919-parcel","sourceRecordIds":["464"]},"bbox":[-113.43744,42.700627,-112.872999,42.813174]},{"type":"Feature","geometry":{"type":"MultiLineString","coordinates":[[[-116.701118,43.7121750000001],[-116.704131,43.716802],[-116.707105,43.7216040000001],[-116.708799,43.7241920000001],[-116.71185,43.728999],[-116.713254,43.7311740000001],[-116.715016,43.7339390000001],[-116.716967,43.736877],[-116.718656,43.738591],[-116.72194,43.741969],[-116.725224,43.745348],[-116.729532,43.7498000000001],[-116.732852,43.753226],[-116.743012,43.763848],[-116.751697,43.772854],[-116.758181,43.7795410000001],[-116.762754,43.784183],[-116.766735,43.788352],[-116.772896,43.794605],[-116.779341,43.8012790000001],[-116.78326,43.805305],[-116.790406,43.812715],[-116.796024,43.8184830000001],[-116.802891,43.825564],[-116.807695,43.830497],[-116.812877,43.835879],[-116.814912,43.837949],[-116.817974,43.8410620000001],[-116.81781,43.841173],[-116.837569,43.8614670000001],[-116.837676,43.861414],[-116.848788,43.8728360000001],[-116.856557,43.8808310000001],[-116.868347,43.892954],[-116.876639,43.9015200000001],[-116.887704,43.912918],[-116.890931,43.916235],[-116.89572,43.92116],[-116.898269,43.9237800000001],[-116.91583,43.94187],[-116.929845,43.9562710000001],[-116.931391,43.957859],[-116.937916,43.9645640000001],[-116.940094,43.966705],[-116.943823,43.970536],[-116.948404,43.975223],[-116.953008,43.979923],[-116.953391,43.980311],[-116.953799,43.9807240000001],[-116.963346,43.990479]]]},"properties":{"id":"uniti-wholesale-dark-20260919-c9e5ee99263950e75933","sourceId":"uniti-wholesale-dark-20260919","source":"Uniti Wholesale published dark-fiber network","sourceUrl":"https://www.unitiwholesale.com/network-map/","name":"Uniti Wholesale published dark-fiber network","carrier":"Uniti Wholesale","category":"unknown","routeStatus":"Publisher labels dark fiber; operating status and available strands unconfirmed","evidence":"publisher_route","geometryQuality":"publisher_geometry_unverified","dataDate":null,"metadataModified":"2025-06-12T22:27:17+00:00","retrievedAt":"2026-09-19T14:15:30.154436+00:00","networkType":"Carrier-published geometry; may overlap other network layers; physical diversity unconfirmed","serviceability":"Unconfirmed","routeDiversity":"Unconfirmed","states":["ID","OR"],"publishedLineParts":1,"importBatch":"20260919-parcel","sourceRecordIds":["402"]},"bbox":[-116.963346,43.7121750000001,-116.701118,43.990479]},{"type":"Feature","geometry":{"type":"MultiLineString","coordinates":[[[-112.545877,41.896197],[-112.54588,41.8963210000001],[-112.546547,41.896331],[-112.546774,41.8963210000001],[-112.549928,41.896008],[-112.566864,41.893805],[-112.569711,41.8937000000001],[-112.57268,41.8941080000001],[-112.574018,41.8941990000001],[-112.574604,41.89437],[-112.57427,41.8947200000001],[-112.57474,41.894904],[-112.574791,41.8949240000001],[-112.575246,41.8951250000001],[-112.575703,41.895404],[-112.57596,41.8955690000001],[-112.575992,41.895589],[-112.576113,41.8956660000001],[-112.576392,41.8958620000001],[-112.576495,41.895939],[-112.576917,41.8962670000001],[-112.577167,41.896487],[-112.577818,41.89714],[-112.578981,41.89842],[-112.579961,41.899482],[-112.580535,41.9000960000001],[-112.581667,41.9012490000001],[-112.582187,41.901889],[-112.582293,41.902478],[-112.58345,41.9038580000001],[-112.585368,41.9053710000001],[-112.58928,41.9067140000001],[-112.59126,41.9069850000001],[-112.593663,41.907026],[-112.596326,41.907649],[-112.59653,41.9085040000001],[-112.606833,41.9110420000001],[-112.611675,41.9122630000001],[-112.616366,41.9138570000001],[-112.619029,41.9152290000001],[-112.627129,41.9195510000001],[-112.633086,41.922917],[-112.636118,41.9235800000001],[-112.637416,41.9249980000001],[-112.63978,41.926364],[-112.646263,41.9299260000001],[-112.650247,41.9320510000001],[-112.652802,41.9332170000001],[-112.654873,41.9351060000001],[-112.66406,41.943427],[-112.673134,41.951763],[-112.675274,41.9536870000001],[-112.687537,41.9583450000001],[-112.687538,41.9645590000001],[-112.687503,41.979813],[-112.687561,41.9934680000001],[-112.686804,41.9948],[-112.687508,41.995237],[-112.687589,41.9995460000001],[-112.694029,41.9994110000001],[-112.694665,42.0000410000001],[-112.694667,42.000165],[-112.694669,42.0002880000001],[-112.694725,42.004199],[-112.695443,42.0045680000001],[-112.69545,42.013939],[-112.695455,42.0309090000001],[-112.69463,42.0314030000001],[-112.694564,42.035693],[-112.694575,42.048342],[-112.694586,42.0562100000001],[-112.694305,42.056786],[-112.694701,42.05712],[-112.6943,42.057635],[-112.693068,42.058182],[-112.690673,42.0582630000001],[-112.675219,42.058387],[-112.661184,42.058518],[-112.659436,42.0586680000001],[-112.658083,42.059153],[-112.656737,42.060099],[-112.656498,42.061288],[-112.656309,42.0716100000001],[-112.656602,42.0935180000001],[-112.656291,42.1159680000001],[-112.656231,42.138155],[-112.6562,42.1519680000001],[-112.656262,42.168778],[-112.656977,42.1699970000001],[-112.660064,42.1753820000001],[-112.664927,42.181153],[-112.675088,42.192523],[-112.681041,42.19931],[-112.682248,42.200387],[-112.685352,42.201912],[-112.689333,42.2040180000001],[-112.693778,42.2076060000001],[-112.699647,42.2125130000001],[-112.705877,42.216948],[-112.707744,42.2177080000001],[-112.717248,42.220019],[-112.723917,42.2240880000001],[-112.727864,42.2260420000001],[-112.730996,42.228759],[-112.732853,42.229906],[-112.741262,42.232898],[-112.742146,42.2339400000001],[-112.74424,42.2360590000001],[-112.744898,42.2379030000001],[-112.746354,42.239565],[-112.747585,42.2398670000001],[-112.751088,42.243885],[-112.751787,42.245029],[-112.752595,42.2466210000001],[-112.75328,42.2496570000001],[-112.754008,42.2504880000001],[-112.754456,42.251896],[-112.754163,42.25286],[-112.755858,42.253333],[-112.757902,42.254378],[-112.759078,42.2566170000001],[-112.761794,42.260429],[-112.761655,42.262454],[-112.762212,42.2643100000001],[-112.764781,42.269029],[-112.76889,42.276827],[-112.769976,42.278692],[-112.771685,42.280089],[-112.774266,42.2816040000001],[-112.778002,42.2839720000001],[-112.780631,42.2880650000001],[-112.780551,42.2894650000001],[-112.781976,42.292289],[-112.784791,42.295625],[-112.786778,42.2972950000001],[-112.791788,42.3035860000001],[-112.798256,42.313044],[-112.798832,42.312814],[-112.79894,42.312869],[-112.799073,42.312937],[-112.798478,42.313092],[-112.80522,42.3230150000001],[-112.810024,42.329526],[-112.814805,42.3361560000001],[-112.817561,42.338805],[-112.818798,42.3404180000001],[-112.821588,42.346228],[-112.824043,42.3487240000001],[-112.827271,42.3520060000001],[-112.827767,42.3531760000001],[-112.829254,42.355375],[-112.830356,42.356002],[-112.830179,42.3697270000001],[-112.830158,42.3851680000001],[-112.830991,42.3859850000001],[-112.831197,42.3917870000001],[-112.830416,42.3920430000001],[-112.83045,42.395204],[-112.829608,42.396935],[-112.82721,42.399642],[-112.826024,42.401264],[-112.825451,42.402806],[-112.825503,42.41488],[-112.825353,42.422465],[-112.825133,42.4362350000001],[-112.825408,42.443186],[-112.826132,42.4435540000001],[-112.826011,42.4581610000001],[-112.82528,42.4594920000001],[-112.825198,42.4602360000001],[-112.824406,42.46088],[-112.825228,42.4620850000001],[-112.828835,42.4673260000001],[-112.831502,42.470451],[-112.834171,42.4727270000001],[-112.837426,42.4752350000001],[-112.839168,42.477168],[-112.840502,42.479812],[-112.841052,42.482056],[-112.841228,42.487515],[-112.840722,42.4910550000001],[-112.839518,42.494764],[-112.838865,42.497706],[-112.839045,42.4993040000001],[-112.839572,42.5016670000001],[-112.839508,42.503992],[-112.839717,42.505277],[-112.841244,42.5076250000001],[-112.840631,42.509867],[-112.840742,42.512477],[-112.841598,42.5176930000001],[-112.843612,42.523104],[-112.844901,42.52448],[-112.848333,42.525112],[-112.85197,42.525717],[-112.854246,42.5268090000001],[-112.855979,42.5291300000001],[-112.858698,42.5341790000001],[-112.863509,42.540421],[-112.864674,42.545596],[-112.865717,42.545537],[-112.866765,42.548295],[-112.868953,42.5511750000001],[-112.869638,42.552243],[-112.869961,42.5531270000001],[-112.870292,42.560497],[-112.872233,42.5634470000001],[-112.875959,42.5691370000001],[-112.876217,42.570184],[-112.877575,42.570547],[-112.879564,42.571753],[-112.879491,42.574465],[-112.879596,42.5796250000001],[-112.880879,42.5805380000001],[-112.88162,42.5818310000001],[-112.88156,42.583306],[-112.880774,42.585919],[-112.88085,42.58838],[-112.881237,42.589951],[-112.882617,42.5925510000001],[-112.883498,42.59398],[-112.883096,42.5975070000001],[-112.88261,42.5981120000001],[-112.881116,42.5989250000001],[-112.87747,42.60002],[-112.875193,42.6010910000001],[-112.869306,42.607923],[-112.867521,42.609702],[-112.863816,42.6114220000001],[-112.862861,42.6127050000001],[-112.862669,42.6145060000001],[-112.863649,42.616772],[-112.863775,42.6308490000001],[-112.863873,42.643733],[-112.864128,42.64563],[-112.86564,42.647904],[-112.870259,42.65398],[-112.874724,42.6605010000001],[-112.875979,42.661727],[-112.87961,42.6695920000001],[-112.880916,42.674248],[-112.880861,42.680048],[-112.880008,42.681318],[-112.879434,42.6858730000001],[-112.8787,42.6880540000001],[-112.875244,42.692522],[-112.875157,42.6949660000001],[-112.875581,42.696687],[-112.878324,42.6996500000001],[-112.878408,42.716128],[-112.878374,42.7211530000001],[-112.878079,42.722968],[-112.878657,42.7372050000001],[-112.878185,42.737212]]]},"properties":{"id":"uniti-wholesale-dark-20260919-bda0f650f9fdbb5c3e98","sourceId":"uniti-wholesale-dark-20260919","source":"Uniti Wholesale published dark-fiber network","sourceUrl":"https://www.unitiwholesale.com/network-map/","name":"Uniti Wholesale published dark-fiber network","carrier":"Uniti Wholesale","category":"unknown","routeStatus":"Publisher labels dark fiber; operating status and available strands unconfirmed","evidence":"publisher_route","geometryQuality":"publisher_geometry_unverified","dataDate":null,"metadataModified":"2025-06-12T22:27:17+00:00","retrievedAt":"2026-09-19T14:15:30.154436+00:00","networkType":"Carrier-published geometry; may overlap other network layers; physical diversity unconfirmed","serviceability":"Unconfirmed","routeDiversity":"Unconfirmed","states":["ID","UT"],"publishedLineParts":1,"importBatch":"20260919-parcel","sourceRecordIds":["465"]},"bbox":[-112.883498,41.8937000000001,-112.545877,42.737212]}]}