{"type":"FeatureCollection","features":[{"type":"Feature","geometry":{"type":"LineString","coordinates":[[-86.74985647236129,37.90103581268871],[-86.750275739969,37.9006656894043],[-86.75057306840293,37.9006660119574],[-86.75084500027934,37.90066700013514]]},"properties":{"id":"arcgis-229-5-dc1a572db1a0f37a","sourceId":"arcgis-229-5","source":"KYTC - Kentucky Wired \u2014 Aerial","sourceUrl":"https://maps.kytc.ky.gov/arcgis/rest/services/Apps/KYWired/MapServer/5","name":"KYTC - Kentucky Wired \u2014 Aerial","carrier":"Not published","routeStatus":"Construction complete","category":"existing","evidence":"agency_route","dataDate":null,"metadataModified":"2025-02-06T15:08:27+00:00","retrievedAt":"2026-09-18T02:43:58.328068+00:00","networkType":"Published fiber route; network class not specified","serviceability":"Unconfirmed","routeDiversity":"Unconfirmed","states":["IN"]},"bbox":[-86.75084500027934,37.9006656894043,-86.74985647236129,37.90103581268871]},{"type":"Feature","geometry":{"type":"LineString","coordinates":[[-86.75084500027934,37.90066700013514],[-86.75106811562505,37.900810952974894],[-86.751828000116,37.90081599988242],[-86.75234700083504,37.9007829995779],[-86.7528100000552,37.900734000264805],[-86.75331591175592,37.90068320803131],[-86.75399000051975,37.900447999849916],[-86.75424700040888,37.900351000281084],[-86.75456800077721,37.900231000148764],[-86.75493200014651,37.90008299961208],[-86.75556413995228,37.89999137189459]]},"properties":{"id":"arcgis-229-5-fb2dbec9d3a658b6","sourceId":"arcgis-229-5","source":"KYTC - Kentucky Wired \u2014 Aerial","sourceUrl":"https://maps.kytc.ky.gov/arcgis/rest/services/Apps/KYWired/MapServer/5","name":"KYTC - Kentucky Wired \u2014 Aerial","carrier":"Not published","routeStatus":"Construction complete","category":"existing","evidence":"agency_route","dataDate":null,"metadataModified":"2025-02-06T15:08:27+00:00","retrievedAt":"2026-09-18T02:43:58.328068+00:00","networkType":"Published fiber route; network class not specified","serviceability":"Unconfirmed","routeDiversity":"Unconfirmed","states":["IN","KY"]},"bbox":[-86.75556413995228,37.89999137189459,-86.75084500027934,37.90081599988242]},{"type":"Feature","geometry":{"type":"LineString","coordinates":[[-86.7498511000619,37.901246546620726],[-86.74979343358473,37.901214587323494]]},"properties":{"id":"arcgis-229-5-63892df274aa3a8e","sourceId":"arcgis-229-5","source":"KYTC - Kentucky Wired \u2014 Aerial","sourceUrl":"https://maps.kytc.ky.gov/arcgis/rest/services/Apps/KYWired/MapServer/5","name":"KYTC - Kentucky Wired \u2014 Aerial","carrier":"Not published","routeStatus":"Construction complete","category":"existing","evidence":"agency_route","dataDate":null,"metadataModified":"2025-02-06T15:08:27+00:00","retrievedAt":"2026-09-18T02:43:58.328068+00:00","networkType":"Published fiber route; network class not specified","serviceability":"Unconfirmed","routeDiversity":"Unconfirmed","states":["IN"]},"bbox":[-86.7498511000619,37.901214587323494,-86.74979343358473,37.901246546620726]},{"type":"Feature","geometry":{"type":"LineString","coordinates":[[-86.74903349274155,37.89824451650658],[-86.74931899995829,37.8981060000019],[-86.75027199953722,37.89844200021472],[-86.74989600014582,37.89903899946618],[-86.74949500053545,37.8996760004794],[-86.74979099987877,37.899907000718045],[-86.75007799971453,37.90012500013651],[-86.75042400043847,37.90035699968796],[-86.75084500027934,37.90066700013514]]},"properties":{"id":"arcgis-229-5-64f5e5616b9b679e","sourceId":"arcgis-229-5","source":"KYTC - Kentucky Wired \u2014 Aerial","sourceUrl":"https://maps.kytc.ky.gov/arcgis/rest/services/Apps/KYWired/MapServer/5","name":"KYTC - Kentucky Wired \u2014 Aerial","carrier":"Not published","routeStatus":"Construction complete","category":"existing","evidence":"agency_route","dataDate":null,"metadataModified":"2025-02-06T15:08:27+00:00","retrievedAt":"2026-09-18T02:43:58.328068+00:00","networkType":"Published fiber route; network class not specified","serviceability":"Unconfirmed","routeDiversity":"Unconfirmed","states":["IN"]},"bbox":[-86.75084500027934,37.8981060000019,-86.74903349274155,37.90066700013514]},{"type":"Feature","geometry":{"type":"LineString","coordinates":[[-86.74979343358473,37.901214587323494],[-86.74984147829441,37.90105008247186],[-86.74985647236129,37.90103581268871]]},"properties":{"id":"arcgis-229-5-3d5cb612691e650c","sourceId":"arcgis-229-5","source":"KYTC - Kentucky Wired \u2014 Aerial","sourceUrl":"https://maps.kytc.ky.gov/arcgis/rest/services/Apps/KYWired/MapServer/5","name":"KYTC - Kentucky Wired \u2014 Aerial","carrier":"Not published","routeStatus":"Construction complete","category":"existing","evidence":"agency_route","dataDate":null,"metadataModified":"2025-02-06T15:08:27+00:00","retrievedAt":"2026-09-18T02:43:58.328068+00:00","networkType":"Published fiber route; network class not specified","serviceability":"Unconfirmed","routeDiversity":"Unconfirmed","states":["IN"]},"bbox":[-86.74985647236129,37.90103581268871,-86.74979343358473,37.901214587323494]},{"type":"Feature","geometry":{"type":"LineString","coordinates":[[-86.74983835961135,37.901259032950676],[-86.7498511000619,37.901246546620726]]},"properties":{"id":"arcgis-229-5-cfd5fe8118f3dd96","sourceId":"arcgis-229-5","source":"KYTC - Kentucky Wired \u2014 Aerial","sourceUrl":"https://maps.kytc.ky.gov/arcgis/rest/services/Apps/KYWired/MapServer/5","name":"KYTC - Kentucky Wired \u2014 Aerial","carrier":"Not published","routeStatus":"Construction complete","category":"existing","evidence":"agency_route","dataDate":null,"metadataModified":"2025-02-06T15:08:27+00:00","retrievedAt":"2026-09-18T02:43:58.328068+00:00","networkType":"Published fiber route; network class not specified","serviceability":"Unconfirmed","routeDiversity":"Unconfirmed","states":["IN"]},"bbox":[-86.7498511000619,37.901246546620726,-86.74983835961135,37.901259032950676]},{"type":"Feature","geometry":{"type":"LineString","coordinates":[[-86.74864993644944,37.89870168819703],[-86.74865088136508,37.898684844360545],[-86.74865704460775,37.89868475515142]]},"properties":{"id":"arcgis-229-5-4092896716b80853","sourceId":"arcgis-229-5","source":"KYTC - Kentucky Wired \u2014 Aerial","sourceUrl":"https://maps.kytc.ky.gov/arcgis/rest/services/Apps/KYWired/MapServer/5","name":"KYTC - Kentucky Wired \u2014 Aerial","carrier":"Not published","routeStatus":"Construction complete","category":"existing","evidence":"agency_route","dataDate":null,"metadataModified":"2025-02-06T15:08:27+00:00","retrievedAt":"2026-09-18T02:43:58.328068+00:00","networkType":"Published fiber route; network class not specified","serviceability":"Unconfirmed","routeDiversity":"Unconfirmed","states":["IN"]},"bbox":[-86.74865704460775,37.89868475515142,-86.74864993644944,37.89870168819703]},{"type":"Feature","geometry":{"type":"LineString","coordinates":[[-86.74865704460775,37.89868475515142],[-86.74902748464922,37.89825154185377]]},"properties":{"id":"arcgis-229-6-431febc48baf092c","sourceId":"arcgis-229-6","source":"KYTC - Kentucky Wired \u2014 Underground","sourceUrl":"https://maps.kytc.ky.gov/arcgis/rest/services/Apps/KYWired/MapServer/6","name":"KYTC - Kentucky Wired \u2014 Underground","carrier":"Not published","routeStatus":"Construction complete","category":"existing","evidence":"agency_route","dataDate":null,"metadataModified":"2025-02-06T15:08:27+00:00","retrievedAt":"2026-09-18T02:42:11.427403+00:00","networkType":"Published fiber route; network class not specified","serviceability":"Unconfirmed","routeDiversity":"Unconfirmed","states":["IN"]},"bbox":[-86.74902748464922,37.89825154185377,-86.74865704460775,37.89868475515142]},{"type":"Feature","geometry":{"type":"LineString","coordinates":[[-86.74902748464922,37.89825154185377],[-86.74903349274155,37.89824451650658]]},"properties":{"id":"arcgis-229-6-1fed0050119047dd","sourceId":"arcgis-229-6","source":"KYTC - Kentucky Wired \u2014 Underground","sourceUrl":"https://maps.kytc.ky.gov/arcgis/rest/services/Apps/KYWired/MapServer/6","name":"KYTC - Kentucky Wired \u2014 Underground","carrier":"Not published","routeStatus":"Construction complete","category":"existing","evidence":"agency_route","dataDate":null,"metadataModified":"2025-02-06T15:08:27+00:00","retrievedAt":"2026-09-18T02:42:11.427403+00:00","networkType":"Published fiber route; network class not specified","serviceability":"Unconfirmed","routeDiversity":"Unconfirmed","states":["IN"]},"bbox":[-86.74903349274155,37.89824451650658,-86.74902748464922,37.89825154185377]}]}