{"type":"FeatureCollection","features":[{"type":"Feature","geometry":{"type":"LineString","coordinates":[[-92.59712800000001,30.529899],[-92.613238,30.526521],[-92.746477,30.523916],[-92.891055,30.50418],[-92.923801,30.507235],[-92.979667,30.487957],[-93.230814,30.433295]]},"properties":{"id":"fna-member-routes-20260918-7cf56e504720d213e622","sourceId":"fna-member-routes-20260918","category":"unknown","states":["LA"],"routeStatus":"Status not established","carrier":"Planters","publishedLineParts":1},"bbox":[-93.230814,30.433187,-92.595622,30.529899]},{"type":"Feature","geometry":{"type":"LineString","coordinates":[[-91.95704,30.663612],[-92.067233,30.652617],[-92.316468,30.608644],[-92.402329,30.580725],[-92.43142900000001,30.57821],[-92.46856799999999,30.565499],[-92.54659,30.549473],[-92.59712800000001,30.529899]]},"properties":{"id":"fna-member-routes-20260918-1517579c38565d40ee5d","sourceId":"fna-member-routes-20260918","category":"unknown","states":["LA"],"routeStatus":"Status not established","carrier":"Planters","publishedLineParts":1},"bbox":[-92.59720000000002,30.52897400000001,-91.956893,30.663612]},{"type":"Feature","geometry":{"type":"LineString","coordinates":[[-91.267841,30.74541200000001],[-91.284814,30.736105],[-91.377875,30.707422],[-91.55083000000002,30.714088],[-91.556651,30.711123],[-91.70290700000001,30.707934],[-91.729579,30.711321],[-91.740645,30.70762],[-91.743007,30.711033],[-91.745239,30.70656],[-91.755479,30.706659],[-91.80431,30.694038],[-91.95704,30.663612]]},"properties":{"id":"fna-member-routes-20260918-be051cc2ef46c91299cb","sourceId":"fna-member-routes-20260918","category":"unknown","states":["LA"],"routeStatus":"Status not established","carrier":"Planters","publishedLineParts":1},"bbox":[-91.95704,30.663405,-91.267841,30.745501]},{"type":"Feature","geometry":{"type":"LineString","coordinates":[[-90.703445,30.99197],[-90.70776199999999,30.993479],[-90.84478799999998,30.923007],[-91.00795199999999,30.844576],[-91.04124500000002,30.832889],[-91.09083499999998,30.821148],[-91.264451,30.74339],[-91.267853,30.74541200000001]]},"properties":{"id":"fna-member-routes-20260918-04f274d21426107d0993","sourceId":"fna-member-routes-20260918","category":"unknown","states":["LA"],"routeStatus":"Status not established","carrier":"Planters","publishedLineParts":1},"bbox":[-91.26822899999999,30.743346,-90.703434,30.993479]},{"type":"Feature","geometry":{"type":"LineString","coordinates":[[-90.201816,31.248867],[-90.29164100000001,31.20744699999999],[-90.298875,31.200377],[-90.32605400000001,31.191017],[-90.34713999999998,31.176733],[-90.470961,31.112253],[-90.483191,31.108381],[-90.618479,31.035394],[-90.70768900000002,30.993497],[-90.703445,30.99197]]},"properties":{"id":"fna-member-routes-20260918-c959200decd71bd03aa6","sourceId":"fna-member-routes-20260918","category":"unknown","states":["LA","MS"],"routeStatus":"Status not established","carrier":"Planters","publishedLineParts":1},"bbox":[-90.70768900000002,30.99197,-90.201352,31.248867]},{"type":"Feature","geometry":{"type":"LineString","coordinates":[[-93.230814,30.433295],[-93.376109,30.410298],[-93.422689,30.39306],[-93.457542,30.384796],[-93.581066,30.36205],[-93.762785,30.350354],[-93.795874,30.343114],[-93.914365,30.305071]]},"properties":{"id":"fna-member-routes-20260918-7bef61c844ab9ca5ec29","sourceId":"fna-member-routes-20260918","category":"unknown","states":["LA","TX"],"routeStatus":"Status not established","carrier":"Planters","publishedLineParts":1},"bbox":[-93.914365,30.304837,-93.230814,30.434409]}]}