{"type":"FeatureCollection","features":[{"type":"Feature","geometry":{"type":"MultiLineString","coordinates":[[[-77.0580213462342,38.3503000115145],[-77.05626026829,38.3491356737263],[-77.0876352770608,38.3331486692811],[-77.1196351835876,38.2871816580576],[-77.1425262899145,38.2679186534981],[-77.1421381889656,38.2501186498319],[-77.1497072902434,38.2401936477993],[-77.154659290078,38.2117526415072],[-77.1628132925221,38.2031216393232],[-77.1801162974701,38.1943196368485],[-77.1851971974631,38.1793036335918],[-77.1916712991219,38.1711786322383],[-77.2169103060557,38.1466256261819],[-77.2271723086202,38.1416936247436],[-77.2591133171055,38.1150426180268],[-77.2715933202936,38.1010406148452],[-77.2967813271738,38.0915436119293],[-77.3087343301072,38.0795996092953],[-77.3321143364426,38.066752605354],[-77.3419903392177,38.0570136032625],[-77.339918338184,38.0473436011291],[-77.3434103385267,38.0401595995732],[-77.3337843333019,38.006945593103],[-77.3739393346241,37.8129335519931],[-77.370185332544,37.7899865473036],[-77.3708813310565,37.7682955425834],[-77.3601043270345,37.7500345388695],[-77.3589352253878,37.7357515366078],[-77.3835113313374,37.7084045298046],[-77.3849773315755,37.7006355282179],[-77.3807512297792,37.6809575240925],[-77.3857733296471,37.6590795196572],[-77.4240173403739,37.6402735140975],[-77.4273313413396,37.6449235149372],[-77.4380693450035,37.6433385144607],[-77.4414112458454,37.646933514726],[-77.4404473454607,37.6420565137908],[-77.4507373485126,37.6358625125064],[-77.462076352051,37.6350105116079],[-77.4698133547436,37.6389385123972],[-77.4887013606536,37.6408085120393],[-77.5140043671615,37.6299025085205],[-77.5459512775781,37.6283525070409],[-77.5594513806534,37.6187175048125],[-77.5645213813872,37.6075735024811],[-77.5639533811246,37.5994975005415],[-77.5720943831499,37.5892044979516],[-77.5687603811943,37.5810484963791],[-77.5769082831793,37.5711234940146],[-77.5771003834112,37.5651914933007],[-77.5708243809338,37.5586904920927],[-77.5697743797241,37.5516764905198],[-77.5529233746877,37.5454194897024],[-77.5623233772618,37.5373504874609],[-77.5527743729282,37.5096484824863],[-77.5450883693909,37.4974104800241],[-77.5371142671589,37.4991314809004],[-77.5344323657428,37.4854244778456],[-77.5113483569885,37.4557454723875],[-77.5113483560902,37.4437634700941],[-77.4888143489534,37.4435434713097],[-77.4915623493064,37.4290334680625],[-77.5015653514048,37.4212294659465],[-77.5015653514048,37.4103464633276],[-77.5148663545755,37.398255460713],[-77.5148663536772,37.3829754574729],[-77.5132173531411,37.3778094565322],[-77.5013453486019,37.3723134557451],[-77.4943103460662,37.3538464520059],[-77.495739345596,37.3449424499919],[-77.4874953418419,37.3268054467126],[-77.4955193436913,37.3199894447596],[-77.49398034276,37.3026214414019],[-77.4968383436162,37.2960264401965],[-77.4661703323303,37.2703044353618],[-77.4835373368523,37.261070432879],[-77.4847473369973,37.2489794302663],[-77.4833403354122,37.2308104265562],[-77.4754053323529,37.2252714262262],[-77.4734973313507,37.2159234242057],[-77.4551983256197,37.2146294243287],[-77.4615523270166,37.2012984213398],[-77.5145453407104,37.162462411174],[-77.5252993433695,37.1384074059807],[-77.551206350125,37.1203734013649],[-77.5588182516345,37.107364398432],[-77.5839203580139,37.0797453914186],[-77.6595683783201,37.0287063784448],[-77.6774713824193,37.0110243737383],[-77.7146163924309,36.9831743668717],[-77.7288033958815,36.9681413633509],[-77.7293573959004,36.9552083599892],[-77.7359573964462,36.9415993572062],[-77.8049594161757,36.9057483473537],[-77.8284034220852,36.8840083416917],[-77.8517384282148,36.8689593377296],[-77.8834774370337,36.8592333345259],[-77.9556063566216,36.8080603214527],[-77.9769454624967,36.7887543164934],[-78.1021704981186,36.7482923035673]],[[-77.0580461154816,38.3503002299057],[-77.0568542684918,38.3548146744078],[-77.049023266088,38.3524486744429],[-77.040019263349,38.3560656751955],[-76.9710572420058,38.364895679632],[-76.9583981390046,38.3740346819767],[-76.9529092385825,38.4005556875063],[-76.9539032397157,38.4088686892314],[-76.988429252839,38.4484266964005],[-76.9912432542125,38.4585986981415],[-76.9818162545693,38.5174377104128],[-76.985863258349,38.5613017190102],[-76.9775202566574,38.5711957212098],[-76.9511592494421,38.5830387248147],[-76.9769932581993,38.592654725702],[-77.0168192695151,38.5872757236092],[-77.0146022696147,38.5938587249257],[-77.0171182710625,38.6006107258763],[-77.0104652699148,38.6152977292219],[-77.0156662719665,38.623799730745],[-77.0154572726274,38.6404207341401],[-76.9966832674185,38.6523497376023],[-77.0179832750192,38.6651477391618],[-76.9942462692068,38.6871837444028],[-76.9872852671893,38.6991757468666],[-76.9988202759361,38.787976764941],[-76.9984621778195,38.8156107702544],[-77.0073232810546,38.8260617722707],[-77.0091222822769,38.8387677743095],[-77.0026182819905,38.8671607806448],[-77.0107052844874,38.8682777805353],[-77.0058042838081,38.8723387813144],[-77.0058332841204,38.8784687824423],[-77.0087322849845,38.8784437824597],[-77.0085992849151,38.8838847836645],[-77.0148772870423,38.8860357839032],[-77.0151401879934,38.8914457846932],[-77.0392402955386,38.8986337851916],[-77.0393821961158,38.9024857865984],[-77.0466052977872,38.902669785768],[-77.0468492981846,38.9056067863123],[-77.0364792956651,38.9075497873585],[-77.0364302970579,38.9286777919889],[-77.0663973062153,38.9373347919999],[-77.0693053081986,38.943154793096],[-77.0619073054397,38.9431147935039],[-77.0629340627415,38.9446728402351]],[[-77.2116962505847,38.9201117831936],[-77.2056613496414,38.9268957847124],[-77.1848333429421,38.9297857861889],[-77.1777983395081,38.9157157841313],[-77.1677143363205,38.9120357831774],[-77.1567513334241,38.9183017853748],[-77.1361303282107,38.9399717904654],[-77.122490324208,38.9343217898271],[-77.1179173217951,38.92924378859],[-77.1117783204834,38.9302627889799],[-77.1071303186257,38.9247687883208],[-77.09720631617,38.932575790288],[-77.0890893135359,38.9345947909263],[-77.0772973102609,38.9478797941485],[-77.0656593069718,38.9478897944244],[-77.0629340627415,38.9446728402351]],[[-77.0629340627415,38.9446728402351],[-77.0627393061913,38.944245793704],[-77.0634983062495,38.9442447939046],[-77.0629340627415,38.9446728402351]]]},"properties":{"id":"arcgis-1-4-0afb97604cde293d","sourceId":"arcgis-1-4","category":"existing","states":["DC","MD","VA"],"routeStatus":"Existing (publisher reported)","carrier":"Not published"},"bbox":[-78.1021704981186,36.7482923035673,-76.9511592494421,38.9479017941948]},{"type":"Feature","geometry":{"type":"MultiLineString","coordinates":[[[-75.854565319,38.929106233],[-75.836808793,38.921582824],[-75.839780091,38.909892821],[-75.837701658,38.8945225570001],[-75.842426648,38.890948671],[-75.830065067,38.8848148710001]],[[-75.84872297,38.9387551360001],[-75.855449832,38.9295989400001],[-75.854572535,38.929086187]]]},"properties":{"id":"arcgis-205-0-b676a6fc92d88e6b","sourceId":"arcgis-205-0","category":"unknown","states":["MD"],"routeStatus":"Unknown","carrier":"Not published"},"bbox":[-75.855462441,38.8846651420001,-75.830065067,38.9387551360001]},{"type":"Feature","geometry":{"type":"LineString","coordinates":[[-75.848723931,38.938758007],[-75.840224345,38.94928349],[-75.8403139819999,38.9571710060001],[-75.832984349,38.9707544020001],[-75.8151204279999,38.986610237],[-75.808027479,38.979263126],[-75.802014303,38.984155247]]},"properties":{"id":"arcgis-205-0-f84f377e967c4f1a","sourceId":"arcgis-205-0","category":"unknown","states":["MD"],"routeStatus":"Unknown","carrier":"Not published"},"bbox":[-75.848723931,38.938758007,-75.802014303,38.986610237]},{"type":"Feature","geometry":{"type":"MultiLineString","coordinates":[[[-75.848721615,38.9387529840001],[-75.860064316,38.9501540730001]],[[-75.860077826,38.950156307],[-75.860604461,38.9541231360001],[-75.872786928,38.9611381010001],[-75.8839815009999,38.952744357]]]},"properties":{"id":"arcgis-205-0-8bcc7155ca63c17a","sourceId":"arcgis-205-0","category":"unknown","states":["MD"],"routeStatus":"Unknown","carrier":"Not published"},"bbox":[-75.884070954,38.9387529840001,-75.848721615,38.9611381010001]},{"type":"Feature","geometry":{"type":"LineString","coordinates":[[-75.9047896989999,38.7120228810001],[-75.902291104,38.708289197],[-75.891747922,38.7172144570001],[-75.8760924759999,38.7145690180001],[-75.8680237899999,38.7223144880001],[-75.8547939489999,38.727736037],[-75.848799005,38.7270137290001],[-75.833699688,38.7396645260001],[-75.825667214,38.7425163120001],[-75.822010806,38.7537432930001],[-75.824584901,38.7565085380001]]},"properties":{"id":"arcgis-205-0-2ddf3ed07bf46efe","sourceId":"arcgis-205-0","category":"unknown","states":["MD"],"routeStatus":"Unknown","carrier":"Not published"},"bbox":[-75.9047896989999,38.708289197,-75.822010806,38.7565085380001]},{"type":"Feature","geometry":{"type":"LineString","coordinates":[[-75.8245672089999,38.7565376810001],[-75.82207555,38.7536167150001],[-75.8238310999999,38.7454645060001],[-75.8293790119999,38.740761122],[-75.804289209,38.7148605960001],[-75.795269329,38.7140319260001],[-75.7890157679999,38.709172761],[-75.789720215,38.695537739]]},"properties":{"id":"arcgis-205-0-d0a98df01cb5b771","sourceId":"arcgis-205-0","category":"unknown","states":["MD"],"routeStatus":"Unknown","carrier":"Not published"},"bbox":[-75.8293790119999,38.695535729,-75.7890157679999,38.7565376810001]},{"type":"Feature","geometry":{"type":"LineString","coordinates":[[-75.826923494,38.88014751],[-75.831300789,38.8803497210001]]},"properties":{"id":"arcgis-205-0-efe9ec9013c12c01","sourceId":"arcgis-205-0","category":"unknown","states":["MD"],"routeStatus":"Unknown","carrier":"Not published"},"bbox":[-75.831815222,38.8793856550001,-75.82632416,38.8805042070001]},{"type":"Feature","geometry":{"type":"LineString","coordinates":[[-75.8313121849999,38.880343404],[-75.831453659,38.876527707],[-75.8346004809999,38.8762401550001],[-75.834678004,38.870891376],[-75.8319589929999,38.869871914]]},"properties":{"id":"arcgis-205-0-666ea6a24f0f4e03","sourceId":"arcgis-205-0","category":"unknown","states":["MD"],"routeStatus":"Unknown","carrier":"Not published"},"bbox":[-75.834678004,38.869871914,-75.830742172,38.880385652]},{"type":"Feature","geometry":{"type":"LineString","coordinates":[[-75.8301125849999,38.8848260710001],[-75.83390353,38.8864435780001]]},"properties":{"id":"arcgis-205-0-0a5f48417556c947","sourceId":"arcgis-205-0","category":"unknown","states":["MD"],"routeStatus":"Unknown","carrier":"Not published"},"bbox":[-75.8342869479999,38.8846713360001,-75.8301125849999,38.8864812030001]},{"type":"Feature","geometry":{"type":"LineString","coordinates":[[-75.7827330059999,38.6954613020001],[-75.779555924,38.6910110200001]]},"properties":{"id":"arcgis-205-0-3a283532804df5d8","sourceId":"arcgis-205-0","category":"unknown","states":["MD"],"routeStatus":"Unknown","carrier":"Not published"},"bbox":[-75.7827330059999,38.6908785530001,-75.779555924,38.695526332]},{"type":"Feature","geometry":{"type":"LineString","coordinates":[[-75.8309092969999,38.8706464410001],[-75.825459547,38.870497931],[-75.8208477539999,38.856969588],[-75.815826982,38.851657195],[-75.831314374,38.838280695],[-75.843141938,38.8337130690001],[-75.848074721,38.820221207],[-75.864420713,38.8115413470001],[-75.868489568,38.801922999],[-75.840467304,38.7909971120001],[-75.843343137,38.773231018],[-75.837704786,38.753277041],[-75.824649682,38.753802237],[-75.824533415,38.756492935]]},"properties":{"id":"arcgis-205-0-80d6daffa276d31f","sourceId":"arcgis-205-0","category":"unknown","states":["MD"],"routeStatus":"Unknown","carrier":"Not published"},"bbox":[-75.868489568,38.752825918,-75.815826982,38.8706929900001]},{"type":"Feature","geometry":{"type":"LineString","coordinates":[[-75.782740277,38.6954693330001],[-75.7762040489999,38.6950317500001]]},"properties":{"id":"arcgis-205-0-f36aa5627f20ef1b","sourceId":"arcgis-205-0","category":"unknown","states":["MD"],"routeStatus":"Unknown","carrier":"Not published"},"bbox":[-75.782740277,38.69404444,-75.7762040489999,38.69551813]},{"type":"Feature","geometry":{"type":"MultiLineString","coordinates":[[[-75.828605109,38.8841840540001],[-75.8286611469999,38.884057225]],[[-75.828605109,38.8841840540001],[-75.827539444,38.883901807],[-75.826089736,38.885876851]],[[-75.828607737,38.8841847400001],[-75.828605109,38.8841840540001]],[[-75.83009198,38.8848089250001],[-75.828605109,38.8841840540001]]]},"properties":{"id":"arcgis-205-0-c7e662780639309c","sourceId":"arcgis-205-0","category":"unknown","states":["MD"],"routeStatus":"Unknown","carrier":"Not published"},"bbox":[-75.830447869,38.883901807,-75.826035299,38.8859227610001]},{"type":"Feature","geometry":{"type":"LineString","coordinates":[[-75.830112298,38.884816936],[-75.8262389879999,38.883543084],[-75.8268674609999,38.8801067640001]]},"properties":{"id":"arcgis-205-0-aa1436077f4d8020","sourceId":"arcgis-205-0","category":"unknown","states":["MD"],"routeStatus":"Unknown","carrier":"Not published"},"bbox":[-75.830447869,38.880092968,-75.8262389879999,38.884816936]},{"type":"Feature","geometry":{"type":"LineString","coordinates":[[-75.782738583,38.6954522780001],[-75.781926834,38.69722016]]},"properties":{"id":"arcgis-205-0-4c0ab6989c3ed00b","sourceId":"arcgis-205-0","category":"unknown","states":["MD"],"routeStatus":"Unknown","carrier":"Not published"},"bbox":[-75.782738583,38.6954522780001,-75.7817861299999,38.69722016]},{"type":"Feature","geometry":{"type":"LineString","coordinates":[[-75.833265898,38.8869407500001],[-75.833915458,38.886445915]]},"properties":{"id":"arcgis-205-0-dcb006efd739f661","sourceId":"arcgis-205-0","category":"unknown","states":["MD"],"routeStatus":"Unknown","carrier":"Not published"},"bbox":[-75.83414965,38.886445915,-75.833265898,38.886980727]},{"type":"Feature","geometry":{"type":"LineString","coordinates":[[-75.833271886,38.8869384070001],[-75.833289898,38.887712577]]},"properties":{"id":"arcgis-205-0-464558c26655e0c7","sourceId":"arcgis-205-0","category":"unknown","states":["MD"],"routeStatus":"Unknown","carrier":"Not published"},"bbox":[-75.833362862,38.8869384070001,-75.833271886,38.887712577]},{"type":"Feature","geometry":{"type":"LineString","coordinates":[[-75.825051324,38.888937701],[-75.8330316139999,38.886888958]]},"properties":{"id":"arcgis-205-0-38abd04f609cf956","sourceId":"arcgis-205-0","category":"unknown","states":["MD"],"routeStatus":"Unknown","carrier":"Not published"},"bbox":[-75.8333587449999,38.886888958,-75.825051324,38.889234049]},{"type":"Feature","geometry":{"type":"LineString","coordinates":[[-75.830137626,38.8848062930001],[-75.825075861,38.8889048570001]]},"properties":{"id":"arcgis-205-0-9d06c26ffa84f1e7","sourceId":"arcgis-205-0","category":"unknown","states":["MD"],"routeStatus":"Unknown","carrier":"Not published"},"bbox":[-75.830405247,38.8845013850001,-75.825075861,38.889260548]},{"type":"Feature","geometry":{"type":"LineString","coordinates":[[-75.80202058,38.9841425270001],[-75.808005462,38.979273893],[-75.805460866,38.976283255]]},"properties":{"id":"arcgis-205-0-acc98b8d756eb12d","sourceId":"arcgis-205-0","category":"unknown","states":["MD"],"routeStatus":"Unknown","carrier":"Not published"},"bbox":[-75.808005462,38.9761956990001,-75.80202058,38.9841425270001]},{"type":"Feature","geometry":{"type":"LineString","coordinates":[[-75.830080312,38.884818314],[-75.831640579,38.8857115320001]]},"properties":{"id":"arcgis-205-0-73ccfdb922dbefa0","sourceId":"arcgis-205-0","category":"unknown","states":["MD"],"routeStatus":"Unknown","carrier":"Not published"},"bbox":[-75.831667264,38.8846924540001,-75.830041104,38.885714191]},{"type":"Feature","geometry":{"type":"LineString","coordinates":[[-75.8304041169999,38.8846947490001],[-75.830742172,38.877596098],[-75.8346004809999,38.8762401550001],[-75.834678004,38.870891376],[-75.8309092969999,38.8706464410001]]},"properties":{"id":"arcgis-205-0-facc6ac4a0dcc7c2","sourceId":"arcgis-205-0","category":"unknown","states":["MD"],"routeStatus":"Unknown","carrier":"Not published"},"bbox":[-75.834678004,38.8706464410001,-75.82990059,38.8846947490001]},{"type":"Feature","geometry":{"type":"LineString","coordinates":[[-75.8301125849999,38.8848260710001],[-75.83390353,38.8864435780001]]},"properties":{"id":"arcgis-205-0-ce1a77f946147de0","sourceId":"arcgis-205-0","category":"unknown","states":["MD"],"routeStatus":"Unknown","carrier":"Not published"},"bbox":[-75.8342869479999,38.8846713360001,-75.8301125849999,38.886489769]},{"type":"Feature","geometry":{"type":"LineString","coordinates":[[-75.840805752,38.9078028180001],[-75.837641801,38.8953033070001],[-75.8420780499999,38.8908581220001],[-75.830065067,38.8848148710001]]},"properties":{"id":"arcgis-205-0-0bcd120327dea664","sourceId":"arcgis-205-0","category":"unknown","states":["MD"],"routeStatus":"Unknown","carrier":"Not published"},"bbox":[-75.8420780499999,38.8846651420001,-75.830065067,38.9078028180001]},{"type":"Feature","geometry":{"type":"LineString","coordinates":[[-75.776179789,38.695036821],[-75.782740277,38.6954693330001]]},"properties":{"id":"arcgis-205-0-f0394823206829f6","sourceId":"arcgis-205-0","category":"unknown","states":["MD"],"routeStatus":"Unknown","carrier":"Not published"},"bbox":[-75.782740277,38.69404444,-75.776179789,38.69551813]},{"type":"Feature","geometry":{"type":"LineString","coordinates":[[-75.822581556,38.8654675550001],[-75.8255198419999,38.870709031],[-75.831958457,38.869853198]]},"properties":{"id":"arcgis-205-0-c2d9c5fc44bdcc15","sourceId":"arcgis-205-0","category":"unknown","states":["MD"],"routeStatus":"Unknown","carrier":"Not published"},"bbox":[-75.8319820469999,38.864859214,-75.822581556,38.870709031]},{"type":"Feature","geometry":{"type":"LineString","coordinates":[[-75.825051324,38.888937701],[-75.833290171,38.8877113340001]]},"properties":{"id":"arcgis-205-0-2429d5ba30843131","sourceId":"arcgis-205-0","category":"unknown","states":["MD"],"routeStatus":"Unknown","carrier":"Not published"},"bbox":[-75.8333587449999,38.886976541,-75.825051324,38.889234049]},{"type":"Feature","geometry":{"type":"LineString","coordinates":[[-75.8309804039999,38.883835444],[-75.8314789299999,38.883655699]]},"properties":{"id":"arcgis-205-0-f25e9ba84a7ad5c8","sourceId":"arcgis-205-0","category":"unknown","states":["MD"],"routeStatus":"Unknown","carrier":"Not published"},"bbox":[-75.8314789299999,38.8836332820001,-75.8309804039999,38.883835444]},{"type":"Feature","geometry":{"type":"LineString","coordinates":[[-75.830065046,38.884815013],[-75.8309804039999,38.883835444]]},"properties":{"id":"arcgis-205-0-d5892c17c06781d8","sourceId":"arcgis-205-0","category":"unknown","states":["MD"],"routeStatus":"Unknown","carrier":"Not published"},"bbox":[-75.8312278289999,38.883803169,-75.830065046,38.88481933]},{"type":"Feature","geometry":{"type":"LineString","coordinates":[[-75.831307094,38.880340634],[-75.828853715,38.8797705170001]]},"properties":{"id":"arcgis-205-0-b44edf82aa4a04d1","sourceId":"arcgis-205-0","category":"unknown","states":["MD"],"routeStatus":"Unknown","carrier":"Not published"},"bbox":[-75.831797245,38.8796632880001,-75.828853715,38.8803807140001]},{"type":"Feature","geometry":{"type":"LineString","coordinates":[[-75.832779611,38.88474038],[-75.830065067,38.8848148710001]]},"properties":{"id":"arcgis-205-0-e430f0b8ed7b4a27","sourceId":"arcgis-205-0","category":"unknown","states":["MD"],"routeStatus":"Unknown","carrier":"Not published"},"bbox":[-75.8331653879999,38.8846651420001,-75.830065067,38.8853378760001]},{"type":"Feature","geometry":{"type":"LineString","coordinates":[[-75.825075861,38.8889048570001],[-75.825807361,38.8889384510001]]},"properties":{"id":"arcgis-205-0-34a85d3f62c0b850","sourceId":"arcgis-205-0","category":"unknown","states":["MD"],"routeStatus":"Unknown","carrier":"Not published"},"bbox":[-75.825807361,38.8889048570001,-75.825075861,38.8891186390001]},{"type":"Feature","geometry":{"type":"LineString","coordinates":[[-75.8258189439999,38.8889296290001],[-75.8271718679999,38.890119085]]},"properties":{"id":"arcgis-205-0-922a996ea2e08922","sourceId":"arcgis-205-0","category":"unknown","states":["MD"],"routeStatus":"Unknown","carrier":"Not published"},"bbox":[-75.8271718679999,38.8889296290001,-75.8257019609999,38.890119085]},{"type":"Feature","geometry":{"type":"LineString","coordinates":[[-75.789720215,38.695537739],[-75.7823927599999,38.698235938],[-75.782679602,38.695468409]]},"properties":{"id":"arcgis-205-0-960e0d3cebe76b08","sourceId":"arcgis-205-0","category":"unknown","states":["MD"],"routeStatus":"Unknown","carrier":"Not published"},"bbox":[-75.789720215,38.695468409,-75.781768308,38.698235938]},{"type":"Feature","geometry":{"type":"LineString","coordinates":[[-77.732022,39.78669],[-77.749432,39.741269],[-77.757111,39.705577],[-77.753204,39.696693],[-77.74107,39.687434],[-77.737414,39.67353],[-77.721919,39.650522],[-77.735264,39.636443],[-77.741316,39.613491],[-77.754193,39.583874],[-77.758052,39.563833],[-77.766548,39.546197],[-77.763724,39.538837],[-77.769386,39.522818]]},"properties":{"id":"fna-member-routes-20260918-7a14b79cd2b79391a323","sourceId":"fna-member-routes-20260918","category":"unknown","states":["MD","PA"],"routeStatus":"Status not established","carrier":"Resurgence IG","publishedLineParts":1},"bbox":[-77.769386,39.522818,-77.721919,39.78669]},{"type":"Feature","geometry":{"type":"LineString","coordinates":[[-77.769512,39.522513],[-77.767667,39.510875],[-77.760161,39.498698],[-77.76093,39.46715],[-77.779393,39.439531],[-77.795966,39.433893],[-77.810203,39.422813],[-77.819421,39.420603],[-77.830316,39.410716],[-77.83779,39.397319],[-77.836722,39.383647],[-77.845171,39.36149],[-77.846763,39.342162],[-77.858538,39.31656]]},"properties":{"id":"fna-member-routes-20260918-c3a98833d9ae76de1b3e","sourceId":"fna-member-routes-20260918","category":"unknown","states":["MD","WV"],"routeStatus":"Status not established","carrier":"Resurgence IG","publishedLineParts":1},"bbox":[-77.858538,39.31656,-77.760158,39.522513]},{"type":"Feature","geometry":{"type":"MultiLineString","coordinates":[[[-79.405391,39.40964],[-79.406054,39.41041]],[[-79.40786,39.410303],[-79.407775,39.41028],[-79.407521,39.410206]],[[-79.403862,39.405747],[-79.406354,39.406599],[-79.40452,39.409902],[-79.408305,39.411202],[-79.40842,39.411019],[-79.408182,39.410754],[-79.408202,39.410717],[-79.407834,39.410272]],[[-79.411189,39.40945],[-79.412697,39.408894]],[[-79.403859,39.405738],[-79.403853,39.405702],[-79.404021,39.405402],[-79.402744,39.405008],[-79.402922,39.404587],[-79.392856,39.400599]],[[-79.40414,39.405668],[-79.404091,39.405776],[-79.403872,39.405732],[-79.403836,39.405704],[-79.403862,39.405747]],[[-79.40592,39.410409],[-79.405644,39.410345]]]},"properties":{"id":"fna-member-routes-20260918-ed301431b7631b037325","sourceId":"fna-member-routes-20260918","category":"unknown","states":["MD"],"routeStatus":"Status not established","carrier":"SEGRA","publishedLineParts":7},"bbox":[-79.413825,39.400412,-79.392823,39.411202]},{"type":"Feature","geometry":{"type":"MultiLineString","coordinates":[[[-78.927201,39.655939],[-78.926847,39.656171]],[[-78.779137,39.642649],[-78.779061,39.642671],[-78.779272,39.643045],[-78.781244,39.643792],[-78.781333,39.644049],[-78.782112,39.644382],[-78.783164,39.644068],[-78.783928,39.64259],[-78.787016,39.643643],[-78.788838,39.640212]],[[-78.795613,39.653714],[-78.789747,39.663133]],[[-78.760041,39.656483],[-78.765872,39.65668]],[[-78.765872,39.65668],[-78.770299,39.658539]],[[-78.759712,39.652214],[-78.760136,39.652273]],[[-78.759712,39.652214],[-78.76049,39.651205]],[[-78.759712,39.652214],[-78.759677,39.652072],[-78.758826,39.652287],[-78.760953,39.654783],[-78.760909,39.654813],[-78.759985,39.656484],[-78.759974,39.656538],[-78.759902,39.656586],[-78.759992,39.656614],[-78.760041,39.656485]],[[-78.764554,39.653652],[-78.763931,39.653402]],[[-78.765872,39.65668],[-78.765827,39.653705],[-78.773067,39.653852],[-78.773188,39.653028],[-78.773415,39.651791],[-78.773469,39.651466],[-78.773525,39.651086],[-78.773605,39.650571],[-78.774082,39.647798],[-78.782283,39.644485],[-78.782271,39.644443],[-78.782116,39.644356],[-78.781443,39.644054],[-78.781308,39.643754],[-78.780613,39.643502],[-78.779978,39.643254],[-78.779399,39.643034],[-78.779305,39.642994],[-78.779137,39.64265]],[[-78.773532,39.651038],[-78.773503,39.651113],[-78.773928,39.651175],[-78.774504,39.651261],[-78.776018,39.65148],[-78.776373,39.651528],[-78.776258,39.65207],[-78.781264,39.652571],[-78.788649,39.64802],[-78.794542,39.650913],[-78.794617,39.654013],[-78.797853,39.650966]],[[-78.765204,39.654211],[-78.76313,39.650973]],[[-78.760041,39.656483],[-78.759977,39.656459],[-78.760139,39.656091],[-78.756642,39.653644],[-78.757301,39.648112],[-78.749445,39.64535],[-78.748081,39.641586]],[[-78.779137,39.64265],[-78.780601,39.643481],[-78.780515,39.643599],[-78.780214,39.643598]],[[-78.762605,39.650426],[-78.761276,39.651388]],[[-78.762605,39.650425],[-78.759341,39.650196]],[[-78.763124,39.651317],[-78.762854,39.651461]],[[-78.768156,39.653388],[-78.767962,39.650612]],[[-78.779137,39.64265],[-78.779097,39.642581],[-78.779244,39.642281],[-78.779456,39.642138],[-78.779311,39.642101]],[[-78.759712,39.652214],[-78.760794,39.651949]]]},"properties":{"id":"fna-member-routes-20260918-d28a09547600ae11d3f8","sourceId":"fna-member-routes-20260918","category":"unknown","states":["MD"],"routeStatus":"Status not established","carrier":"SEGRA","publishedLineParts":20},"bbox":[-78.927243,39.6402,-78.748081,39.663162]},{"type":"Feature","geometry":{"type":"MultiLineString","coordinates":[[[-78.733678,39.651773],[-78.730597,39.653915]],[[-78.749621,39.64529],[-78.735511,39.644462],[-78.731532,39.646762],[-78.731868,39.648998],[-78.732823,39.649513]],[[-78.733678,39.651773],[-78.732858,39.649495]],[[-78.760041,39.656483],[-78.756689,39.654362],[-78.750138,39.657585],[-78.733678,39.651773]],[[-78.732877,39.649488],[-78.733007,39.64802]],[[-78.74809,39.641503],[-78.743571,39.640618],[-78.743777,39.631692]]]},"properties":{"id":"fna-member-routes-20260918-113c12e0ff6210eaf5fa","sourceId":"fna-member-routes-20260918","category":"unknown","states":["MD"],"routeStatus":"Status not established","carrier":"SEGRA","publishedLineParts":6},"bbox":[-78.760041,39.631692,-78.730596,39.657585]},{"type":"Feature","geometry":{"type":"LineString","coordinates":[[-78.178706,39.69988],[-78.178994,39.700609]]},"properties":{"id":"fna-member-routes-20260918-01c8a3199d23d7803e27","sourceId":"fna-member-routes-20260918","category":"unknown","states":["MD"],"routeStatus":"Status not established","carrier":"SEGRA","publishedLineParts":1},"bbox":[-78.178994,39.699856,-78.178425,39.70069]},{"type":"Feature","geometry":{"type":"MultiLineString","coordinates":[[[-77.751039,39.648999],[-77.750849,39.648982]],[[-77.799542,39.651525],[-77.808946,39.651911]],[[-77.809996,39.627825],[-77.809377,39.629159],[-77.808561,39.631336],[-77.807976,39.633406],[-77.808594,39.633253],[-77.809044,39.632117],[-77.809599,39.632441]],[[-77.799262,39.651654],[-77.799542,39.651525]],[[-77.770018,39.673206],[-77.767521,39.673047],[-77.769281,39.669534],[-77.781428,39.678566],[-77.787384,39.68104],[-77.789971,39.680958]],[[-77.818269,39.599489],[-77.833113,39.600054],[-77.83226,39.596026],[-77.836132,39.593561],[-77.835147,39.592802]],[[-77.804868,39.596418],[-77.80187,39.601726],[-77.797447,39.604436],[-77.797647,39.604523],[-77.79764,39.604553],[-77.797283,39.604577]],[[-77.804868,39.596418],[-77.804081,39.596551]],[[-77.803448,39.60174],[-77.802434,39.600996]],[[-77.78997,39.680958],[-77.798396,39.65909]],[[-77.808633,39.633154],[-77.808599,39.633184],[-77.808545,39.633323],[-77.808426,39.633884],[-77.808113,39.634685],[-77.807782,39.636129],[-77.807497,39.63684],[-77.81273,39.636239]],[[-77.804868,39.596418],[-77.804491,39.595365]],[[-77.808946,39.651911],[-77.809153,39.651873],[-77.809634,39.651828],[-77.810101,39.651781],[-77.81098,39.651711],[-77.812074,39.651712],[-77.817548,39.65234],[-77.849473,39.657726],[-77.853582,39.64891],[-77.859094,39.649882]],[[-77.751691,39.649832],[-77.751039,39.648999]],[[-77.799542,39.651525],[-77.799616,39.651416],[-77.799142,39.651393],[-77.798425,39.651355],[-77.797989,39.651324],[-77.797368,39.651296],[-77.793459,39.651058],[-77.793012,39.651041],[-77.791254,39.650919],[-77.789435,39.650829],[-77.78851,39.650753],[-77.787303,39.649008]],[[-77.797646,39.604521],[-77.797619,39.604518],[-77.797426,39.604433],[-77.797421,39.604429],[-77.79738,39.604435],[-77.797135,39.604569],[-77.79695,39.604665],[-77.796317,39.605092],[-77.795771,39.605796],[-77.795624,39.608298],[-77.78288,39.612526],[-77.781911,39.61065]],[[-77.808946,39.651911],[-77.808653,39.647808],[-77.817572,39.648204],[-77.816416,39.645997]],[[-77.751039,39.648999],[-77.757925,39.649393],[-77.757623,39.654772]],[[-77.750744,39.649022],[-77.749989,39.648493]],[[-77.769066,39.59866],[-77.77632,39.601178],[-77.773451,39.608228],[-77.777919,39.60954],[-77.775708,39.610811]],[[-77.818269,39.599489],[-77.806648,39.604384],[-77.804916,39.601139],[-77.800895,39.60443],[-77.799809,39.604011],[-77.797603,39.604519],[-77.797283,39.604577],[-77.796708,39.60468],[-77.793962,39.604899],[-77.792173,39.601749],[-77.780518,39.602608],[-77.769066,39.59866]],[[-77.818269,39.599489],[-77.812198,39.625705],[-77.809402,39.629155],[-77.808587,39.631336],[-77.80844,39.63191],[-77.807987,39.633458],[-77.80677,39.636998],[-77.80595,39.640882],[-77.801099,39.646808],[-77.800299,39.64846],[-77.799495,39.650684],[-77.799309,39.651388],[-77.799262,39.651654]],[[-77.799262,39.651654],[-77.750849,39.648982]],[[-77.835147,39.592802],[-77.826208,39.598653],[-77.825067,39.595316],[-77.819183,39.595391],[-77.818269,39.599489]],[[-77.769066,39.59866],[-77.767102,39.59805],[-77.751895,39.609188],[-77.738063,39.613048]],[[-77.752279,39.608744],[-77.752081,39.608683]]]},"properties":{"id":"fna-member-routes-20260918-71c98139772d7eb093f4","sourceId":"fna-member-routes-20260918","category":"unknown","states":["MD"],"routeStatus":"Status not established","carrier":"SEGRA","publishedLineParts":26},"bbox":[-77.859094,39.592779,-77.738063,39.681517]},{"type":"Feature","geometry":{"type":"MultiLineString","coordinates":[[[-77.511967,39.274877],[-77.512518,39.273832]],[[-77.512516,39.273833],[-77.514852,39.267097]]]},"properties":{"id":"fna-member-routes-20260918-fc41ef4a904ffb2f065e","sourceId":"fna-member-routes-20260918","category":"unknown","states":["MD"],"routeStatus":"Status not established","carrier":"SEGRA","publishedLineParts":2},"bbox":[-77.515218,39.267097,-77.511798,39.274877]},{"type":"Feature","geometry":{"type":"MultiLineString","coordinates":[[[-77.7385,39.721211],[-77.738461,39.7212],[-77.736596,39.721215],[-77.731649,39.720959],[-77.727251,39.721215]],[[-77.725791,39.639897],[-77.723847,39.641902],[-77.724549,39.642221],[-77.724846,39.642356],[-77.724837,39.642368],[-77.724707,39.642524],[-77.724545,39.642721],[-77.72452,39.642709]],[[-77.72633,39.640147],[-77.731732,39.639121]],[[-77.720549,39.622384],[-77.720038,39.622334]],[[-77.72633,39.640147],[-77.726294,39.640142],[-77.726113,39.640057],[-77.725791,39.639897]],[[-77.725791,39.639897],[-77.725569,39.639784],[-77.725353,39.639734],[-77.724962,39.639639],[-77.723897,39.639345],[-77.723005,39.639163],[-77.723592,39.63881]],[[-77.73934,39.617219],[-77.739383,39.617138],[-77.738864,39.616988],[-77.738742,39.617266]],[[-77.776465,39.699656],[-77.75531,39.705171],[-77.742106,39.700368],[-77.735489,39.701728],[-77.734982,39.701583],[-77.733385,39.701765],[-77.729697,39.702032],[-77.72251,39.70267],[-77.722193,39.70105],[-77.72123,39.688916],[-77.720274,39.678969],[-77.720141,39.678024],[-77.72001,39.676782],[-77.719481,39.670295],[-77.718998,39.666904],[-77.718221,39.657344],[-77.717858,39.653908],[-77.717842,39.653817],[-77.71782,39.653805],[-77.717697,39.653809],[-77.717739,39.652451],[-77.724466,39.642726]],[[-77.72231,39.646425],[-77.72617,39.645596]],[[-77.738742,39.617266],[-77.738699,39.617353],[-77.738308,39.617606],[-77.736663,39.619772],[-77.731517,39.624865],[-77.734746,39.626538],[-77.725791,39.639897]],[[-77.676612,39.592861],[-77.67024,39.589296]],[[-77.720037,39.622334],[-77.713484,39.621283],[-77.713967,39.622959],[-77.709845,39.62371],[-77.710308,39.625367],[-77.710345,39.625702],[-77.708628,39.627448]],[[-77.717713,39.653801],[-77.717692,39.653816],[-77.717645,39.653833],[-77.717016,39.653857],[-77.715389,39.655505],[-77.71467,39.655096],[-77.710584,39.658824],[-77.709887,39.658474],[-77.706641,39.663365],[-77.709517,39.664259]],[[-77.722039,39.67694],[-77.721821,39.675743],[-77.721553,39.675738],[-77.721369,39.675573],[-77.721098,39.675567],[-77.719961,39.675965],[-77.720025,39.67678],[-77.720154,39.678022],[-77.721294,39.675717]],[[-77.738742,39.617266],[-77.738723,39.617246],[-77.738862,39.616929],[-77.738551,39.616561],[-77.738934,39.615215],[-77.737488,39.615123],[-77.738162,39.613123],[-77.738174,39.613079],[-77.738063,39.613048]],[[-77.724556,39.64266],[-77.724637,39.642559],[-77.724572,39.642433],[-77.724595,39.642408],[-77.724607,39.642367],[-77.724699,39.642326],[-77.724768,39.642286],[-77.724711,39.642276],[-77.72445,39.642327],[-77.724575,39.642041],[-77.724725,39.642049],[-77.726018,39.640169],[-77.726119,39.640048],[-77.72633,39.640147]],[[-77.677011,39.598046],[-77.677631,39.5978],[-77.677671,39.597788],[-77.677609,39.597766],[-77.677341,39.596244],[-77.677237,39.596212],[-77.67731,39.596208],[-77.677326,39.596185],[-77.677337,39.59618]],[[-77.678885,39.62102],[-77.678733,39.621066],[-77.678775,39.621152],[-77.679487,39.620917],[-77.680414,39.622191]],[[-77.684455,39.62443],[-77.684483,39.624444],[-77.68586,39.625321],[-77.68681,39.625996],[-77.687085,39.626056],[-77.687156,39.626975]],[[-77.746091,39.648547],[-77.749759,39.642871],[-77.747382,39.643164]],[[-77.673749,39.642558],[-77.661082,39.642745],[-77.648565,39.642789],[-77.643151,39.641755],[-77.646126,39.637057],[-77.640851,39.635372],[-77.641846,39.632527]],[[-77.720505,39.681654],[-77.719282,39.682247]],[[-77.690846,39.613215],[-77.691252,39.613062]],[[-77.677337,39.596181],[-77.677461,39.593355]],[[-77.710324,39.625568],[-77.706419,39.625509]],[[-77.677461,39.593355],[-77.676612,39.592861]],[[-77.665743,39.631053],[-77.666203,39.630186],[-77.665228,39.628646],[-77.665163,39.628591],[-77.66476,39.628224],[-77.66692,39.626534]],[[-77.725045,39.702451],[-77.726884,39.703439]],[[-77.724421,39.642523],[-77.72452,39.642644]],[[-77.680415,39.622192],[-77.681639,39.623111],[-77.684456,39.624431],[-77.684583,39.624275],[-77.685362,39.623478],[-77.684796,39.623215]],[[-77.738742,39.617266],[-77.738784,39.617265],[-77.738868,39.617045],[-77.738906,39.617016],[-77.73892,39.616995],[-77.73892,39.617004],[-77.73892,39.617013],[-77.738933,39.61699],[-77.739469,39.616763],[-77.739675,39.616769]],[[-77.696691,39.636514],[-77.696482,39.636933]],[[-77.566696,39.507492],[-77.566263,39.505814]],[[-77.738741,39.617266],[-77.738358,39.617558],[-77.738322,39.617611],[-77.73809,39.617991],[-77.737868,39.618366],[-77.736989,39.61943],[-77.737314,39.619959]],[[-77.677461,39.593355],[-77.676636,39.592918],[-77.676612,39.592861]],[[-77.708627,39.627448],[-77.707097,39.62733]],[[-77.724548,39.642656],[-77.724555,39.642364],[-77.724621,39.642379],[-77.724757,39.642356],[-77.724779,39.642275],[-77.724711,39.642261],[-77.724552,39.642295],[-77.724549,39.642281],[-77.724716,39.642246],[-77.724803,39.642266],[-77.725017,39.642464]],[[-77.744535,39.702469],[-77.740608,39.721174],[-77.73851,39.721219],[-77.738481,39.721198],[-77.738493,39.721019]],[[-77.719725,39.673164],[-77.721745,39.673354]],[[-77.693052,39.616308],[-77.693038,39.616266],[-77.693495,39.616171],[-77.693783,39.616042],[-77.694405,39.615874],[-77.694422,39.615831],[-77.694477,39.615814],[-77.694261,39.615451],[-77.694494,39.61551]],[[-77.696533,39.636696],[-77.696215,39.637273],[-77.69569,39.638179],[-77.695752,39.638106],[-77.695983,39.63816],[-77.69606,39.63818],[-77.696062,39.638424]],[[-77.688621,39.605435],[-77.688496,39.606023],[-77.687626,39.606395],[-77.687611,39.606406],[-77.687562,39.606514],[-77.687526,39.606554],[-77.686994,39.606913],[-77.693766,39.616019],[-77.693716,39.616055],[-77.693497,39.616196],[-77.693048,39.616305],[-77.693049,39.616316]],[[-77.748907,39.648954],[-77.74846,39.649122],[-77.748088,39.649872],[-77.747706,39.650616],[-77.747378,39.651254],[-77.747139,39.651679],[-77.746876,39.65281],[-77.743929,39.65234]],[[-77.72055,39.622383],[-77.71355,39.621252],[-77.710188,39.611768],[-77.707822,39.611169],[-77.705362,39.61069],[-77.704667,39.610524],[-77.704003,39.610373],[-77.702019,39.609887],[-77.700156,39.609483],[-77.693945,39.608637],[-77.689486,39.607002],[-77.689038,39.606856],[-77.686492,39.606025],[-77.684008,39.605426],[-77.678158,39.600816],[-77.678016,39.599971],[-77.677355,39.596227],[-77.675934,39.592756],[-77.656849,39.581491],[-77.621442,39.556367],[-77.607146,39.540081],[-77.568673,39.511644],[-77.56653,39.506215],[-77.568951,39.491945],[-77.561052,39.477075],[-77.564287,39.468208],[-77.556341,39.464954],[-77.546709,39.443788],[-77.508908,39.430608],[-77.503979,39.424342],[-77.497518,39.421946],[-77.437859,39.415868],[-77.427694,39.424709]],[[-77.696276,39.63574],[-77.696799,39.636318],[-77.696691,39.636514],[-77.696175,39.637447],[-77.695731,39.638228],[-77.695354,39.638831],[-77.693735,39.642137],[-77.693214,39.642472],[-77.684175,39.642851],[-77.680992,39.642632],[-77.673824,39.642557],[-77.667967,39.642633],[-77.669493,39.635996],[-77.666228,39.633536],[-77.665092,39.628669],[-77.665406,39.628488],[-77.667392,39.627347],[-77.669342,39.626192],[-77.671592,39.624908],[-77.673706,39.624662],[-77.676108,39.622379],[-77.676666,39.621984],[-77.67761,39.621699],[-77.678744,39.621068],[-77.679833,39.620698],[-77.679824,39.621127],[-77.680082,39.621594],[-77.681424,39.622763],[-77.681623,39.621719]],[[-77.681619,39.621712],[-77.682832,39.621289]],[[-77.750849,39.648982],[-77.749923,39.648926],[-77.748907,39.648954]],[[-77.722617,39.641456],[-77.718998,39.63977],[-77.715465,39.644241],[-77.69341,39.642458],[-77.69375,39.642144],[-77.695384,39.638834],[-77.695725,39.638279],[-77.696191,39.637459],[-77.696482,39.636933],[-77.696818,39.636323],[-77.697434,39.635516],[-77.697369,39.635049],[-77.699441,39.632975],[-77.710424,39.631638],[-77.720028,39.623682],[-77.72055,39.622383]],[[-77.72055,39.622383],[-77.724638,39.611803],[-77.738063,39.613048]],[[-77.748907,39.648954],[-77.748205,39.648752],[-77.746091,39.648547],[-77.745297,39.648479],[-77.744311,39.648444],[-77.729535,39.646088],[-77.726392,39.643012],[-77.725017,39.642464],[-77.724693,39.64231],[-77.724555,39.642364]],[[-77.73934,39.617219],[-77.739266,39.617196]],[[-77.722617,39.641456],[-77.724421,39.642523]],[[-77.738063,39.613048],[-77.737459,39.61514],[-77.738913,39.615227],[-77.738533,39.616567],[-77.73887,39.616977],[-77.739395,39.617132],[-77.73934,39.617219]],[[-77.724555,39.642364],[-77.724421,39.642523]],[[-77.724555,39.642364],[-77.723754,39.642003],[-77.723286,39.641796],[-77.722617,39.641456]],[[-77.750849,39.648982],[-77.750573,39.648968],[-77.74951,39.650375],[-77.748861,39.650559],[-77.7476,39.650517],[-77.745691,39.650441],[-77.744314,39.65184]],[[-77.733731,39.70172],[-77.730665,39.701957]],[[-77.606708,39.541251],[-77.61528,39.550368]],[[-77.705027,39.61061],[-77.687711,39.619532],[-77.684496,39.619177],[-77.680472,39.6205],[-77.679775,39.620739],[-77.678853,39.621063],[-77.678847,39.621052],[-77.67916,39.620946]],[[-77.721283,39.672166],[-77.722163,39.672776]],[[-77.696532,39.636696],[-77.692233,39.636806]]]},"properties":{"id":"fna-member-routes-20260918-18cd6e37f483d00394d5","sourceId":"fna-member-routes-20260918","category":"unknown","states":["MD"],"routeStatus":"Status not established","carrier":"SEGRA","publishedLineParts":61},"bbox":[-77.776485,39.415868,-77.427658,39.721226]},{"type":"Feature","geometry":{"type":"MultiLineString","coordinates":[[[-77.427694,39.424709],[-77.427663,39.424729],[-77.427877,39.424875],[-77.427897,39.42487],[-77.427899,39.424847],[-77.426862,39.424109],[-77.42686,39.424103],[-77.426852,39.424073],[-77.426665,39.423931],[-77.426724,39.423451],[-77.426061,39.423502],[-77.425573,39.423198],[-77.425353,39.423087],[-77.425312,39.423087],[-77.424256,39.42246],[-77.424205,39.422455],[-77.415912,39.424861]],[[-77.403461,39.411861],[-77.40348,39.41181],[-77.403477,39.411739],[-77.403452,39.411609]],[[-77.409739,39.414384],[-77.413459,39.414377],[-77.421173,39.412662],[-77.425921,39.41358],[-77.425825,39.409195],[-77.439883,39.403053],[-77.435394,39.396936]],[[-77.404829,39.413148],[-77.404783,39.413177],[-77.40474,39.413815],[-77.405099,39.413844],[-77.405182,39.413939],[-77.405292,39.413949],[-77.405261,39.414068]],[[-77.415912,39.424861],[-77.415003,39.424074],[-77.413967,39.423659],[-77.411906,39.42295],[-77.406658,39.422516],[-77.404283,39.422476],[-77.405261,39.414068]],[[-77.405259,39.414068],[-77.405229,39.41406],[-77.405195,39.41394],[-77.405105,39.413801],[-77.404853,39.413782],[-77.4044,39.413768],[-77.402849,39.413661],[-77.401519,39.413729],[-77.399802,39.413477],[-77.391512,39.409279]],[[-77.415912,39.424861],[-77.415822,39.424778],[-77.416401,39.4235],[-77.414808,39.422665],[-77.414713,39.422382]],[[-77.461647,39.419267],[-77.47137,39.42054],[-77.470853,39.423458]],[[-77.435546,39.417257],[-77.437289,39.417659]],[[-77.403451,39.411608],[-77.403467,39.411441],[-77.403454,39.410861],[-77.403489,39.40991],[-77.405914,39.410906]],[[-77.391511,39.409279],[-77.38158,39.404424],[-77.377463,39.404459],[-77.377587,39.406979]],[[-77.464524,39.260909],[-77.455415,39.256035],[-77.46175,39.252117]],[[-77.415913,39.42486],[-77.415922,39.424837],[-77.415857,39.424781],[-77.416405,39.423496],[-77.414748,39.422372]],[[-77.406251,39.376171],[-77.407818,39.378081]],[[-77.415912,39.424861],[-77.415933,39.424834],[-77.415865,39.42478],[-77.416221,39.424576],[-77.416492,39.424602]],[[-77.429445,39.340966],[-77.428982,39.342229],[-77.427847,39.341973],[-77.427529,39.341795],[-77.42762,39.341062]],[[-77.405261,39.414068],[-77.409732,39.414408]],[[-77.427694,39.424709],[-77.427917,39.424874],[-77.428147,39.42505],[-77.428579,39.425389],[-77.429022,39.425856],[-77.431439,39.427572],[-77.433243,39.430284],[-77.433844,39.430004]],[[-77.427694,39.424709],[-77.42769,39.424734],[-77.42792,39.424896],[-77.427924,39.424837],[-77.426907,39.424105],[-77.426861,39.424103],[-77.426796,39.424102],[-77.425349,39.423094],[-77.425291,39.423092],[-77.424252,39.422491],[-77.424256,39.422458],[-77.424206,39.42247],[-77.423604,39.422801],[-77.421092,39.424225],[-77.417439,39.426349],[-77.404238,39.422497],[-77.405194,39.414385],[-77.405213,39.413927],[-77.405134,39.413819],[-77.404783,39.413791],[-77.404829,39.413148]],[[-77.406251,39.376171],[-77.401086,39.38241],[-77.411922,39.405979],[-77.404893,39.405831],[-77.403111,39.409619],[-77.403474,39.40991],[-77.403433,39.410861],[-77.403446,39.411445],[-77.403461,39.411897],[-77.403459,39.411745],[-77.404134,39.411749],[-77.404716,39.411852],[-77.404829,39.413148]],[[-77.429445,39.340966],[-77.428521,39.343506],[-77.423235,39.353334],[-77.403075,39.369535],[-77.406251,39.376171]],[[-77.464524,39.260909],[-77.464998,39.277163],[-77.445819,39.305625],[-77.429445,39.340966]],[[-77.427797,39.424821],[-77.428034,39.425024]],[[-77.405261,39.414068],[-77.410244,39.41369]],[[-77.409731,39.414399],[-77.409641,39.414176],[-77.412134,39.414323],[-77.411938,39.414182]]]},"properties":{"id":"fna-member-routes-20260918-7dd5046cb05ee3f9e5ba","sourceId":"fna-member-routes-20260918","category":"unknown","states":["MD"],"routeStatus":"Status not established","carrier":"SEGRA","publishedLineParts":25},"bbox":[-77.47137,39.251971,-77.37654,39.430284]},{"type":"Feature","geometry":{"type":"LineString","coordinates":[[-77.799262,39.651654],[-77.790774,39.679438],[-77.767497,39.715383],[-77.766634,39.726297],[-77.754694,39.75813],[-77.740067,39.774685],[-77.728033,39.774275],[-77.729499,39.781193],[-77.725966,39.788386]]},"properties":{"id":"fna-member-routes-20260918-5645a417a20389789232","sourceId":"fna-member-routes-20260918","category":"unknown","states":["MD","PA"],"routeStatus":"Status not established","carrier":"SEGRA","publishedLineParts":1},"bbox":[-77.799262,39.651654,-77.725966,39.788408]},{"type":"Feature","geometry":{"type":"LineString","coordinates":[[-77.72725,39.721215],[-77.724984,39.721466],[-77.72467,39.729864],[-77.725991,39.745617],[-77.729152,39.745368]]},"properties":{"id":"fna-member-routes-20260918-895b2d72deda18659ed7","sourceId":"fna-member-routes-20260918","category":"unknown","states":["MD","PA"],"routeStatus":"Status not established","carrier":"SEGRA","publishedLineParts":1},"bbox":[-77.729869,39.721215,-77.724525,39.746907]},{"type":"Feature","geometry":{"type":"LineString","coordinates":[[-77.547248,39.113579],[-77.538315,39.113808],[-77.54648,39.138836],[-77.535779,39.164072],[-77.538035,39.175502],[-77.535186,39.186508],[-77.538342,39.197945],[-77.529602,39.248669],[-77.543022,39.256117],[-77.543984,39.267688],[-77.548253,39.271632],[-77.527514,39.275701],[-77.498522,39.274729],[-77.488338,39.265353],[-77.470057,39.256849],[-77.464524,39.260909]]},"properties":{"id":"fna-member-routes-20260918-0b9b83e8416c25a9c124","sourceId":"fna-member-routes-20260918","category":"unknown","states":["MD","VA"],"routeStatus":"Status not established","carrier":"SEGRA","publishedLineParts":1},"bbox":[-77.548413,39.113579,-77.464524,39.275701]},{"type":"Feature","geometry":{"type":"LineString","coordinates":[[-79.403862,39.405747],[-79.416005,39.411287],[-79.42499,39.400239],[-79.437363,39.393574],[-79.448337,39.389636],[-79.464266,39.389137],[-79.469935,39.405583],[-79.479596,39.412588],[-79.481035,39.417664],[-79.493837,39.422818],[-79.492918,39.432153],[-79.515456,39.438667],[-79.519823,39.43559],[-79.541741,39.443687]]},"properties":{"id":"fna-member-routes-20260918-6e4352f136d8f4439a12","sourceId":"fna-member-routes-20260918","category":"unknown","states":["MD","WV"],"routeStatus":"Status not established","carrier":"SEGRA","publishedLineParts":1},"bbox":[-79.541741,39.388703,-79.403862,39.443814]},{"type":"Feature","geometry":{"type":"MultiLineString","coordinates":[[[-77.910187,39.519833],[-77.898827,39.53106],[-77.894792,39.54782],[-77.886545,39.561297],[-77.869681,39.566707],[-77.836101,39.567966],[-77.831277,39.589184],[-77.835147,39.592802]],[[-77.835147,39.592802],[-77.853404,39.594056],[-77.951242,39.577956],[-77.958141,39.581284],[-77.970354,39.562997],[-77.981787,39.562584],[-77.979619,39.562455]]]},"properties":{"id":"fna-member-routes-20260918-cc01aadf4b3f7d78f281","sourceId":"fna-member-routes-20260918","category":"unknown","states":["MD","WV"],"routeStatus":"Status not established","carrier":"SEGRA","publishedLineParts":2},"bbox":[-77.981787,39.519833,-77.831277,39.594056]},{"type":"Feature","geometry":{"type":"MultiLineString","coordinates":[[[-76.814432,39.102573],[-76.814424,39.102852]],[[-76.808314,39.10304],[-76.808948,39.102671],[-76.809421,39.102126]],[[-76.802462,39.102284],[-76.802944,39.104048],[-76.803545,39.104379],[-76.80366,39.104414],[-76.805557,39.10493],[-76.80366,39.104414],[-76.803602,39.104397],[-76.803545,39.104379],[-76.803222,39.104238],[-76.802944,39.104048],[-76.802505,39.103369],[-76.802462,39.102284]],[[-76.808314,39.10304],[-76.808432,39.10296],[-76.808373,39.10287],[-76.808019,39.103016],[-76.807825,39.103069],[-76.807214,39.103211],[-76.806884,39.103318],[-76.805885,39.103999],[-76.805848,39.104295],[-76.805774,39.104433],[-76.804677,39.106945],[-76.804508,39.107324],[-76.80404,39.107987],[-76.80628,39.11125],[-76.806113,39.109745],[-76.80404,39.107987],[-76.804298,39.107687],[-76.804508,39.107324],[-76.804677,39.106945],[-76.805774,39.104433],[-76.805797,39.104387],[-76.805848,39.104295],[-76.805705,39.10424],[-76.805885,39.103999],[-76.806294,39.103631],[-76.806884,39.103318],[-76.807047,39.10326],[-76.807214,39.103211],[-76.808019,39.103016],[-76.808205,39.102948],[-76.808373,39.10287],[-76.808314,39.10304]],[[-76.80905,39.102009],[-76.80984,39.10225],[-76.810054,39.102335],[-76.811505,39.103158],[-76.815862,39.102911],[-76.817046,39.106909],[-76.819091,39.107347],[-76.820792,39.107905],[-76.821027,39.107971],[-76.8232,39.108542],[-76.824368,39.108847]],[[-76.825439,39.096285],[-76.825578,39.096268]],[[-76.698361,39.137084],[-76.713534,39.135081],[-76.728347,39.142206],[-76.738308,39.130515],[-76.763567,39.142823],[-76.774665,39.133667],[-76.785443,39.13048],[-76.789244,39.123605],[-76.80785,39.122815],[-76.818043,39.11842],[-76.822124,39.114379],[-76.822817,39.112389],[-76.823883,39.110141],[-76.824309,39.109024],[-76.824526,39.108295],[-76.825916,39.101267],[-76.826192,39.098559],[-76.826142,39.098274],[-76.825782,39.096952],[-76.825517,39.096064],[-76.821655,39.09797]]]},"properties":{"id":"fna-member-routes-20260918-5cd1ff540ce6250e75b6","sourceId":"fna-member-routes-20260918","category":"unknown","states":["MD"],"routeStatus":"Status not established","carrier":"WOW-Glen Burnie","publishedLineParts":7},"bbox":[-76.826204,39.096064,-76.698361,39.142823]},{"type":"Feature","geometry":{"type":"MultiLineString","coordinates":[[[-76.544829,39.161165],[-76.554318,39.15835],[-76.563959,39.162956],[-76.551577,39.177116],[-76.542443,39.177362],[-76.529437,39.169251]],[[-76.54406,39.092788],[-76.547894,39.093594]],[[-76.505046,39.065624],[-76.503341,39.054324],[-76.511512,39.054272]],[[-76.527356,39.062899],[-76.527653,39.058041]],[[-76.53677,39.076622],[-76.543279,39.074469]],[[-76.528462,39.058056],[-76.538781,39.062565],[-76.550556,39.076375]],[[-76.534904,39.146336],[-76.525152,39.14458]],[[-76.516219,39.157208],[-76.51566,39.156995]],[[-76.505138,39.13506],[-76.505602,39.137849]],[[-76.52,39.126867],[-76.52231,39.129674]],[[-76.486177,39.144437],[-76.493691,39.139392],[-76.501091,39.136586],[-76.50684,39.134418],[-76.512136,39.132431],[-76.51421,39.132155],[-76.522901,39.123658]],[[-76.518125,39.13888],[-76.523114,39.138197],[-76.51421,39.132155]],[[-76.527455,39.138958],[-76.527064,39.139736]],[[-76.537277,39.134367],[-76.535377,39.134226],[-76.535029,39.134172],[-76.534527,39.134067]],[[-76.512348,39.162098],[-76.514084,39.161306],[-76.516074,39.157393],[-76.518329,39.154218],[-76.52375,39.148052],[-76.527064,39.139736],[-76.534228,39.134766],[-76.534834,39.126016]],[[-76.547326,39.13962],[-76.544707,39.135462],[-76.545638,39.131767],[-76.546424,39.128581],[-76.546603,39.127778],[-76.547406,39.124583],[-76.551624,39.124334]],[[-76.563209,39.131867],[-76.563159,39.131323]],[[-76.563209,39.131867],[-76.564516,39.138366],[-76.566959,39.141208],[-76.568575,39.143402],[-76.568825,39.14393],[-76.569224,39.148483],[-76.569444,39.149758],[-76.569894,39.151877],[-76.563959,39.162956],[-76.568902,39.157079],[-76.569894,39.151877],[-76.568825,39.14393],[-76.563209,39.131867]],[[-76.585334,39.154],[-76.587554,39.157359],[-76.595019,39.15136],[-76.590502,39.144035]],[[-76.524454,39.10519],[-76.522807,39.112182]],[[-76.53966,39.103197],[-76.546408,39.103515],[-76.546955,39.101909],[-76.549598,39.101953],[-76.550383,39.101936],[-76.550726,39.101911]],[[-76.551249,39.102534],[-76.555578,39.099617],[-76.567137,39.100882]],[[-76.542435,39.081516],[-76.548237,39.08103],[-76.55009,39.087306],[-76.547897,39.094655],[-76.550619,39.101716],[-76.553885,39.107454],[-76.52655,39.110124],[-76.517482,39.118316],[-76.517253,39.122901]],[[-76.555697,39.115786],[-76.559527,39.114968],[-76.556525,39.1123],[-76.555916,39.111329],[-76.555279,39.110146],[-76.553885,39.107454]],[[-76.577116,39.109015],[-76.583752,39.117824],[-76.595331,39.121383]],[[-76.550556,39.076375],[-76.577116,39.109015]],[[-76.57691,39.109167],[-76.576673,39.108829],[-76.574729,39.109497],[-76.569966,39.109835],[-76.556322,39.111103],[-76.55585,39.111207]],[[-76.452877,39.100984],[-76.465806,39.105336],[-76.472726,39.103921],[-76.496214,39.108533],[-76.515998,39.122649],[-76.516907,39.122841],[-76.517579,39.122958],[-76.518694,39.123136],[-76.522574,39.123648],[-76.525795,39.123702],[-76.527156,39.123926],[-76.541383,39.12779],[-76.544648,39.12831],[-76.546663,39.128617],[-76.551556,39.129371],[-76.556971,39.130186],[-76.561372,39.131197],[-76.572239,39.131808],[-76.584667,39.134144]],[[-76.588786,39.121131],[-76.58955,39.126238],[-76.584626,39.134217],[-76.590502,39.144035],[-76.594302,39.14076]],[[-76.635767,39.151299],[-76.635984,39.151557]],[[-76.636225,39.15086],[-76.635767,39.151299]],[[-76.635984,39.151557],[-76.634837,39.152181],[-76.633587,39.153158],[-76.633403,39.153255],[-76.632191,39.153848],[-76.631344,39.154222],[-76.630918,39.154425],[-76.631344,39.154222],[-76.632191,39.153848],[-76.633587,39.153158],[-76.635984,39.151557]],[[-76.595331,39.121383],[-76.613827,39.124308]],[[-76.598657,39.103674],[-76.606489,39.106185]],[[-76.582393,39.087725],[-76.586913,39.082654],[-76.601542,39.084819],[-76.614636,39.092138],[-76.606489,39.106185],[-76.627266,39.103131]],[[-76.607095,39.114518],[-76.61205,39.111389],[-76.63092,39.111544],[-76.626936,39.101139],[-76.624793,39.101246]],[[-76.660623,39.210689],[-76.660671,39.210668]],[[-76.676451,39.220486],[-76.665471,39.224572],[-76.657466,39.200996],[-76.662072,39.201037]],[[-76.641632,39.218032],[-76.643124,39.217134],[-76.643231,39.216872],[-76.643365,39.216202],[-76.643643,39.21474]],[[-76.649722,39.218588],[-76.644616,39.216363],[-76.642072,39.209308]],[[-76.617783,39.215579],[-76.614609,39.220225],[-76.614614,39.229789]],[[-76.608417,39.217563],[-76.608321,39.216216],[-76.62224,39.215044]],[[-76.615242,39.207223],[-76.613369,39.199324]],[[-76.658456,39.205565],[-76.641898,39.205646],[-76.642072,39.209308],[-76.62224,39.215044],[-76.621672,39.210743],[-76.614862,39.210996],[-76.614911,39.207394]],[[-76.627687,39.200683],[-76.620928,39.20247],[-76.613369,39.199324],[-76.613704,39.189001]],[[-76.641767,39.196223],[-76.642434,39.186897]],[[-76.629137,39.180233],[-76.631905,39.185221]],[[-76.643733,39.184651],[-76.642882,39.187274],[-76.640527,39.18496],[-76.632252,39.185189],[-76.613704,39.189001],[-76.614538,39.182645],[-76.618087,39.176155],[-76.620222,39.172804],[-76.623135,39.167872]],[[-76.591539,39.180219],[-76.594278,39.175837],[-76.605647,39.172575],[-76.602582,39.163258]],[[-76.617244,39.162307],[-76.618531,39.166204],[-76.623817,39.168107],[-76.627801,39.16575],[-76.62703,39.161395]],[[-76.605257,39.170715],[-76.618129,39.165281]],[[-76.620303,39.151091],[-76.622488,39.157389],[-76.629106,39.157703]],[[-76.623766,39.151139],[-76.620303,39.151091],[-76.618773,39.144655],[-76.610796,39.143929],[-76.607846,39.146867]],[[-76.696663,39.056199],[-76.697399,39.062195],[-76.706382,39.067863]],[[-76.712756,39.066949],[-76.715296,39.068381]],[[-76.715538,39.068404],[-76.711903,39.071914],[-76.705887,39.068099],[-76.700816,39.082635]],[[-76.636301,39.142312],[-76.635099,39.145764],[-76.63593,39.146898],[-76.636108,39.147049],[-76.637116,39.147796],[-76.638339,39.148743]],[[-76.6435,39.147507],[-76.640008,39.147143]],[[-76.626325,39.140208],[-76.628312,39.141317],[-76.631416,39.141778],[-76.631699,39.141795],[-76.63229,39.141863]],[[-76.627054,39.161369],[-76.627963,39.159847],[-76.63093,39.154401],[-76.631926,39.151165],[-76.633141,39.138306]],[[-76.633146,39.138294],[-76.635528,39.134455]],[[-76.630892,39.135015],[-76.634469,39.135569]],[[-76.625544,39.135783],[-76.619915,39.126927],[-76.613827,39.124308],[-76.618182,39.117884],[-76.627853,39.117915],[-76.632719,39.117624],[-76.63344,39.117473],[-76.633777,39.117366],[-76.634205,39.117153]],[[-76.707857,39.103405],[-76.716721,39.117647],[-76.70043,39.12599],[-76.698361,39.137085],[-76.684088,39.136256],[-76.681956,39.112202],[-76.685647,39.102237],[-76.678634,39.090311]],[[-76.635529,39.134454],[-76.640384,39.126698],[-76.637509,39.12139],[-76.634086,39.117],[-76.632432,39.114663],[-76.631045,39.111379]],[[-76.637948,39.11815],[-76.635688,39.119013]],[[-76.657312,39.140488],[-76.653219,39.140299],[-76.652887,39.14005]],[[-76.689989,39.114898],[-76.691512,39.115187]],[[-76.700815,39.082637],[-76.691236,39.100369],[-76.693728,39.102878],[-76.692647,39.108974],[-76.691632,39.114531],[-76.691092,39.117467],[-76.690795,39.119053],[-76.690358,39.120824],[-76.683971,39.121513]],[[-76.655002,39.13691],[-76.663377,39.130742],[-76.670321,39.120568],[-76.676412,39.117749]],[[-76.646936,39.117495],[-76.643136,39.124835],[-76.659237,39.133299]],[[-76.636225,39.15086],[-76.639923,39.147219],[-76.640296,39.146884],[-76.640392,39.1468],[-76.640808,39.14649],[-76.653131,39.139883],[-76.654951,39.136914],[-76.666463,39.13604],[-76.672485,39.134512]],[[-76.686582,39.159079],[-76.684239,39.158712],[-76.685675,39.136825]],[[-76.672486,39.134512],[-76.683776,39.134546]],[[-76.709201,39.114065],[-76.713697,39.115099]],[[-76.714524,39.107149],[-76.712854,39.108208]],[[-76.705406,39.157039],[-76.703904,39.152925]],[[-76.703905,39.152924],[-76.711188,39.14454],[-76.710418,39.135687]],[[-76.711892,39.134227],[-76.711416,39.135321]]]},"properties":{"id":"fna-member-routes-20260918-ee1ef009a875fd77b287","sourceId":"fna-member-routes-20260918","category":"unknown","states":["MD"],"routeStatus":"Status not established","carrier":"WOW-Glen Burnie","publishedLineParts":79},"bbox":[-76.716721,39.053753,-76.452867,39.229789]},{"type":"Feature","geometry":{"type":"MultiLineString","coordinates":[[[-76.442838,39.032435],[-76.444631,39.029189]],[[-76.444215,39.041702],[-76.455828,39.041514],[-76.456689,39.036102]],[[-76.477458,39.050576],[-76.482508,39.048225],[-76.488259,39.038078]],[[-76.432222,39.026535],[-76.444726,39.026901],[-76.45367,39.035978],[-76.466808,39.036165],[-76.471094,39.036538],[-76.488494,39.038099],[-76.492151,39.0391],[-76.509113,39.053627],[-76.528462,39.058056],[-76.545565,39.07957]],[[-76.467401,39.11785],[-76.468826,39.107733],[-76.464572,39.09941]],[[-76.477274,39.105807],[-76.475189,39.101271]],[[-76.485238,39.10706],[-76.482921,39.112032]],[[-76.501284,39.113806],[-76.489533,39.118686]]]},"properties":{"id":"fna-member-routes-20260918-74f43c1beb9c753f939e","sourceId":"fna-member-routes-20260918","category":"unknown","states":["MD"],"routeStatus":"Status not established","carrier":"WOW-Glen Burnie","publishedLineParts":8},"bbox":[-76.547033,39.025149,-76.432222,39.118686]}]}