{"type":"FeatureCollection","features":[{"type":"Feature","geometry":{"type":"MultiLineString","coordinates":[[[-87.951337,32.19897],[-87.951236,32.199338],[-87.950873,32.199482],[-87.95067,32.199482],[-87.950554,32.199455],[-87.950478,32.199392],[-87.95031,32.199294],[-87.950234,32.199231],[-87.95014,32.199213],[-87.949975,32.199195],[-87.9495,32.199276],[-87.949188,32.199401],[-87.949043,32.19941],[-87.948821,32.199788],[-87.948144,32.201548],[-87.948013,32.201755],[-87.947879,32.202617],[-87.947512,32.203956],[-87.947418,32.203947],[-87.947416,32.203965],[-87.947641,32.203983],[-87.947589,32.20454],[-87.948346,32.204603],[-87.951077,32.20463],[-87.951271,32.20418],[-87.951656,32.204153],[-87.951969,32.204126],[-87.952236,32.204091],[-87.952553,32.204037],[-87.952978,32.203974],[-87.953355,32.203911],[-87.954125,32.20365],[-87.954785,32.203408],[-87.955361,32.203165],[-87.95591,32.202959],[-87.956589,32.202653],[-87.957266,32.202375],[-87.95803,32.202051],[-87.958594,32.201818],[-87.959033,32.201629],[-87.959523,32.201414],[-87.960014,32.201189],[-87.960631,32.200911],[-87.961234,32.20065],[-87.961796,32.200425],[-87.96237,32.20021],[-87.962907,32.199994],[-87.963521,32.199743],[-87.964118,32.199527],[-87.964632,32.199312],[-87.965181,32.199105],[-87.965782,32.198853],[-87.96636,32.198602],[-87.966907,32.198413],[-87.967399,32.19818],[-87.967874,32.197991],[-87.968387,32.197784],[-87.968798,32.197632],[-87.969162,32.19747],[-87.969602,32.197281],[-87.970054,32.197084],[-87.970389,32.196967],[-87.970903,32.196751],[-87.971314,32.196599],[-87.971812,32.196419],[-87.972451,32.196149],[-87.973116,32.195871],[-87.97378,32.195593],[-87.974418,32.195332],[-87.974918,32.195134],[-87.975481,32.19491],[-87.97598,32.194721],[-87.976407,32.194533],[-87.976931,32.194335],[-87.97742,32.194119],[-87.977834,32.193949],[-87.978396,32.193724],[-87.978909,32.193517],[-87.979311,32.193338],[-87.979613,32.193203],[-87.979875,32.193104],[-87.980124,32.193014],[-87.980512,32.192853],[-87.981051,32.192628],[-87.981437,32.192484],[-87.981828,32.192305],[-87.982118,32.19217],[-87.982476,32.192062],[-87.982865,32.191892],[-87.983503,32.19164],[-87.984055,32.191397],[-87.98463,32.191173],[-87.985193,32.190939],[-87.985733,32.190706],[-87.986357,32.190463],[-87.986921,32.19023],[-87.987498,32.189987],[-87.988111,32.189736],[-87.988699,32.189493],[-87.989376,32.189215],[-87.989927,32.188981],[-87.990451,32.188783],[-87.990964,32.188577],[-87.991502,32.188352],[-87.992043,32.18811],[-87.992769,32.187813],[-87.993342,32.187598],[-87.993905,32.187373],[-87.994458,32.18713],[-87.995059,32.186879],[-87.995635,32.186645],[-87.996184,32.18643],[-87.996698,32.186214],[-87.997361,32.185945],[-87.997912,32.18572],[-87.998537,32.185469],[-87.999126,32.185217],[-87.999664,32.185002],[-88.000237,32.184786],[-88.000802,32.184543],[-88.001391,32.184292],[-88.001993,32.18404],[-88.002618,32.183789],[-88.003555,32.18342],[-88.003712,32.18298],[-88.004546,32.182468],[-88.005226,32.182369],[-88.0061,32.182235],[-88.007223,32.182118],[-88.009369,32.18183],[-88.010187,32.181768],[-88.010815,32.181705],[-88.011734,32.181597],[-88.012411,32.181633],[-88.013027,32.181669],[-88.013309,32.181714],[-88.013618,32.181723],[-88.013866,32.18175],[-88.014459,32.181777],[-88.015088,32.181813],[-88.015669,32.181848],[-88.016237,32.181884],[-88.017021,32.181813],[-88.016994,32.181947],[-88.017061,32.1821],[-88.017603,32.181947],[-88.018219,32.181777],[-88.018849,32.181588],[-88.019699,32.181354],[-88.020018,32.181283],[-88.020613,32.181193],[-88.021243,32.181103],[-88.021864,32.180995],[-88.02252,32.180896],[-88.023175,32.180806],[-88.023914,32.180708],[-88.024449,32.180618],[-88.025056,32.180528],[-88.025664,32.180429],[-88.026307,32.180339],[-88.026913,32.180258],[-88.027582,32.180151],[-88.028236,32.180061],[-88.02882,32.179962],[-88.029487,32.179872],[-88.030144,32.179764],[-88.030749,32.179693],[-88.031466,32.179576],[-88.03251,32.179423],[-88.034028,32.179189],[-88.03484,32.179082],[-88.035339,32.179001],[-88.035862,32.178911],[-88.036504,32.17883],[-88.037124,32.178731],[-88.037632,32.178668],[-88.03819,32.178588],[-88.038568,32.178516],[-88.038834,32.178489],[-88.039065,32.178453],[-88.039502,32.17839],[-88.040048,32.178309],[-88.040363,32.178264],[-88.040886,32.178183],[-88.041499,32.17804],[-88.042112,32.177896],[-88.042761,32.177743],[-88.043386,32.177599],[-88.044036,32.177447],[-88.044686,32.177294],[-88.045336,32.177141],[-88.045923,32.177016],[-88.046448,32.176908],[-88.04705,32.176755],[-88.047674,32.17662],[-88.048436,32.176432],[-88.049059,32.176306],[-88.049659,32.176171],[-88.050259,32.176036],[-88.050885,32.175884],[-88.051523,32.175731],[-88.052183,32.175587],[-88.052746,32.175461],[-88.053383,32.175318],[-88.053982,32.175192],[-88.054632,32.175039],[-88.055269,32.174896],[-88.055882,32.174752],[-88.056532,32.174599],[-88.057058,32.174482],[-88.057717,32.174357],[-88.058283,32.174204],[-88.058845,32.174087],[-88.059336,32.17397],[-88.059753,32.173871],[-88.060206,32.173773],[-88.060732,32.173656],[-88.061208,32.173566],[-88.061663,32.173449],[-88.062213,32.173333],[-88.062727,32.173216],[-88.063094,32.173135],[-88.063475,32.173045],[-88.063806,32.172964],[-88.064057,32.172856],[-88.064371,32.172713],[-88.064837,32.172497],[-88.065393,32.172228],[-88.065933,32.171985],[-88.066526,32.171707],[-88.067079,32.171455],[-88.067659,32.171177],[-88.068164,32.170934],[-88.06872,32.170557],[-88.069239,32.170188],[-88.06982,32.169793],[-88.070788,32.169146],[-88.071397,32.168715],[-88.071981,32.168302],[-88.072523,32.167943],[-88.073106,32.167529],[-88.073595,32.167215],[-88.074062,32.166883],[-88.074489,32.166586],[-88.074917,32.16629],[-88.07542,32.165948],[-88.075899,32.165616],[-88.076376,32.165302],[-88.076686,32.165095],[-88.076991,32.164933],[-88.077391,32.164772],[-88.077917,32.164547],[-88.07867,32.164224],[-88.079335,32.163936],[-88.079923,32.163694],[-88.080386,32.163505],[-88.080962,32.163262],[-88.081552,32.163002],[-88.082114,32.162777],[-88.082764,32.162517],[-88.083327,32.162292],[-88.08384,32.162077],[-88.084392,32.161843],[-88.084916,32.161637],[-88.08548,32.161394],[-88.086043,32.161169],[-88.086656,32.160918],[-88.087406,32.160612],[-88.088046,32.160334],[-88.088669,32.1601],[-88.089158,32.159894],[-88.089732,32.159669],[-88.090422,32.159373],[-88.091097,32.159103],[-88.091773,32.158816],[-88.092373,32.158573],[-88.092997,32.158331],[-88.09346,32.158142],[-88.093976,32.157909],[-88.094601,32.157657],[-88.095338,32.157361],[-88.095827,32.157154],[-88.096427,32.156911],[-88.097077,32.156651],[-88.097516,32.156462],[-88.098166,32.156193],[-88.098592,32.156013],[-88.099093,32.155807],[-88.099567,32.155627],[-88.100091,32.15542],[-88.10054,32.15525],[-88.10093,32.15507],[-88.101464,32.154881],[-88.10184,32.154729],[-88.102166,32.154585],[-88.102528,32.154441],[-88.102815,32.154333],[-88.103201,32.15419],[-88.10354,32.154037],[-88.104102,32.153812],[-88.104739,32.153561],[-88.105339,32.153318],[-88.10585,32.15313],[-88.106538,32.152851],[-88.107089,32.152618],[-88.107503,32.152438],[-88.108076,32.152222],[-88.108563,32.152034],[-88.108961,32.15189],[-88.109473,32.151683],[-88.110036,32.15145],[-88.110422,32.151306],[-88.110858,32.151144],[-88.111319,32.150974],[-88.111609,32.150839],[-88.111945,32.150713],[-88.112442,32.150533],[-88.11313,32.150255],[-88.11378,32.149995],[-88.114403,32.149761],[-88.114978,32.149527],[-88.11559,32.149285],[-88.116175,32.149069],[-88.116776,32.148818],[-88.117199,32.148665],[-88.117699,32.148458],[-88.118198,32.14827],[-88.118719,32.14809],[-88.119243,32.147892],[-88.119744,32.147677],[-88.120168,32.147515],[-88.12058,32.147353],[-88.120867,32.147237],[-88.121106,32.147129],[-88.121406,32.147012],[-88.121815,32.146877],[-88.122302,32.14668],[-88.122826,32.146482],[-88.123251,32.146311],[-88.123629,32.146132],[-88.124176,32.145934],[-88.124736,32.145728],[-88.125209,32.145557],[-88.125747,32.145332],[-88.126259,32.145126],[-88.126856,32.14491],[-88.127369,32.144703],[-88.127806,32.144533],[-88.128117,32.144416],[-88.128368,32.144308],[-88.12869,32.1442],[-88.129028,32.144057],[-88.129252,32.143976],[-88.129489,32.143886],[-88.129839,32.143742],[-88.130544,32.143527],[-88.131092,32.14332],[-88.131724,32.143113],[-88.132333,32.142898],[-88.132889,32.142727],[-88.133387,32.142539],[-88.133971,32.142332],[-88.134479,32.14217],[-88.134876,32.142036],[-88.135333,32.141892],[-88.135857,32.141694],[-88.136241,32.141568],[-88.136564,32.141452],[-88.137222,32.141218],[-88.137754,32.141056],[-88.138448,32.140823],[-88.139056,32.140616],[-88.139414,32.140508],[-88.139651,32.140419],[-88.140037,32.140275],[-88.140397,32.140149],[-88.140608,32.140077],[-88.14087,32.139978],[-88.141279,32.139844],[-88.141627,32.139718],[-88.141924,32.139619],[-88.142345,32.139484],[-88.142914,32.139305],[-88.14346,32.139116],[-88.143958,32.138936],[-88.144415,32.138793],[-88.145038,32.138559],[-88.145621,32.138361],[-88.146216,32.138164],[-88.146837,32.137948],[-88.147392,32.137787],[-88.147817,32.137616],[-88.148001,32.137463],[-88.148196,32.137319],[-88.148388,32.137203],[-88.148623,32.137023],[-88.148986,32.136762],[-88.149337,32.136502],[-88.149857,32.136125],[-88.150361,32.135783],[-88.150902,32.135424],[-88.151352,32.135137],[-88.151687,32.134912],[-88.152073,32.134768],[-88.152497,32.134607],[-88.15312,32.134373],[-88.153729,32.134157],[-88.154266,32.133942],[-88.154863,32.133726],[-88.15551,32.133484],[-88.156035,32.133277],[-88.156423,32.133115],[-88.157269,32.132801],[-88.15788,32.132567],[-88.158439,32.13237],[-88.159049,32.132145],[-88.159636,32.131912],[-88.16022,32.131705],[-88.160731,32.131507],[-88.161341,32.131283],[-88.1619,32.131085],[-88.162512,32.130843],[-88.163108,32.130735],[-88.163717,32.130627],[-88.164459,32.130501],[-88.165506,32.130313],[-88.165884,32.130241],[-88.166948,32.129908],[-88.167551,32.129738],[-88.168196,32.129522],[-88.168752,32.129351],[-88.169383,32.129154],[-88.169977,32.128956],[-88.170572,32.128759],[-88.171189,32.128579],[-88.171797,32.128372],[-88.172378,32.128193],[-88.172995,32.128004],[-88.173626,32.127806],[-88.174158,32.127636],[-88.174764,32.127447],[-88.175477,32.127151],[-88.176073,32.126944],[-88.176611,32.126719],[-88.17721,32.126486],[-88.177809,32.126252],[-88.178357,32.126046],[-88.178944,32.125812],[-88.179542,32.125588],[-88.180211,32.125363],[-88.180649,32.125183],[-88.181062,32.125004],[-88.181362,32.124887],[-88.181911,32.124671],[-88.182447,32.124465],[-88.183059,32.124222],[-88.183645,32.123998],[-88.184242,32.123773],[-88.184816,32.123548],[-88.185426,32.123324],[-88.186013,32.12309],[-88.1866,32.122857],[-88.187223,32.122623],[-88.187821,32.12239],[-88.188357,32.122183],[-88.188931,32.121958],[-88.18958,32.121707],[-88.19018,32.121464],[-88.190915,32.121186],[-88.191277,32.121042],[-88.191385,32.121033],[-88.191553,32.121024],[-88.191588,32.121033],[-88.191705,32.121051],[-88.19174,32.12106],[-88.191949,32.121114],[-88.191984,32.121123],[-88.192194,32.121159],[-88.194597,32.117916],[-88.195149,32.117242],[-88.19549,32.116757],[-88.195713,32.11647],[-88.19584,32.11629],[-88.197127,32.114592],[-88.197759,32.113739],[-88.198088,32.113254],[-88.198364,32.112921],[-88.198944,32.112104],[-88.19937,32.111601],[-88.199994,32.110721],[-88.200363,32.110298],[-88.200889,32.109544],[-88.20173,32.108421],[-88.202125,32.107981],[-88.202444,32.107478],[-88.202767,32.107038],[-88.203129,32.106579],[-88.203478,32.106121],[-88.203734,32.105753],[-88.203806,32.105645],[-88.204167,32.105187],[-88.204584,32.104657],[-88.204899,32.104298],[-88.205338,32.103893],[-88.20583,32.103543],[-88.206377,32.103238],[-88.206942,32.102986],[-88.207528,32.102762],[-88.208114,32.102537],[-88.208328,32.102429],[-88.20834,32.102429],[-88.208628,32.102312],[-88.208641,32.102303],[-88.209266,32.102043],[-88.20969,32.101881],[-88.209691,32.101872],[-88.210077,32.101729],[-88.210104,32.101702],[-88.210453,32.101567],[-88.210515,32.10154],[-88.210665,32.101477],[-88.210787,32.101351],[-88.21104,32.101216],[-88.211381,32.101055],[-88.211666,32.100956],[-88.211919,32.10083],[-88.212417,32.100642],[-88.21317,32.100309],[-88.213564,32.100192],[-88.213906,32.100022],[-88.214129,32.099941],[-88.214319,32.099842],[-88.214569,32.099743],[-88.214955,32.0996],[-88.215492,32.099384],[-88.216102,32.09915],[-88.216783,32.098935],[-88.217386,32.098656],[-88.218144,32.098279],[-88.219109,32.097435],[-88.219395,32.09712],[-88.219625,32.09677],[-88.219755,32.096563],[-88.219884,32.096375],[-88.22017,32.095737],[-88.220501,32.09491],[-88.220727,32.094165],[-88.220793,32.093787],[-88.220933,32.093177],[-88.221011,32.092799],[-88.221119,32.09226],[-88.221235,32.091757],[-88.221316,32.091245],[-88.221386,32.090832],[-88.221648,32.090832],[-88.221803,32.090841],[-88.22197,32.090841],[-88.222246,32.090823],[-88.222566,32.090841],[-88.222567,32.090509],[-88.222591,32.090293],[-88.222625,32.090095],[-88.222648,32.089898],[-88.223207,32.089907],[-88.223603,32.089889],[-88.223607,32.089422],[-88.223609,32.089188],[-88.223602,32.088829],[-88.223683,32.088532],[-88.223653,32.088056],[-88.223638,32.08776],[-88.223695,32.087356],[-88.223698,32.087014],[-88.223939,32.086987],[-88.224438,32.086897],[-88.224765,32.086853],[-88.225059,32.08679],[-88.225375,32.086736],[-88.225824,32.086664],[-88.227593,32.086412],[-88.22821,32.086448],[-88.228585,32.086502],[-88.229125,32.086583],[-88.22917,32.086601],[-88.229228,32.086619],[-88.229263,32.086628],[-88.229485,32.086664],[-88.22952,32.086673],[-88.230082,32.086772],[-88.230116,32.086781],[-88.230466,32.086853],[-88.230502,32.086853],[-88.231273,32.086996],[-88.231308,32.087005],[-88.232815,32.087284],[-88.232827,32.087284],[-88.23285,32.087293],[-88.232862,32.087293],[-88.233505,32.08741],[-88.233539,32.087418],[-88.233949,32.08749],[-88.233984,32.087499],[-88.234253,32.087544],[-88.2343,32.087553],[-88.235083,32.087697],[-88.235117,32.087706],[-88.236086,32.087895],[-88.236121,32.087904],[-88.237524,32.088155],[-88.239011,32.088191],[-88.240035,32.087993],[-88.24027,32.087922],[-88.24082,32.087796],[-88.241211,32.087715],[-88.24148,32.087652],[-88.244894,32.08688],[-88.24589,32.086826],[-88.247164,32.086951],[-88.247447,32.087095],[-88.24806,32.087158],[-88.248105,32.087176],[-88.248387,32.087221],[-88.248432,32.087239],[-88.249203,32.087392],[-88.249237,32.087401],[-88.249647,32.087472],[-88.249682,32.087481],[-88.250312,32.087607],[-88.250346,32.087616],[-88.250803,32.087697],[-88.250837,32.087706],[-88.251466,32.087841],[-88.251501,32.08785],[-88.251561,32.08785],[-88.251596,32.087859],[-88.251758,32.087904],[-88.251771,32.087895],[-88.251816,32.087913],[-88.25219,32.087984],[-88.252225,32.087993],[-88.252833,32.088101],[-88.252868,32.08811],[-88.253463,32.088227],[-88.25351,32.088236],[-88.254014,32.088317],[-88.254094,32.088344],[-88.254129,32.088353],[-88.254868,32.088568],[-88.254903,32.088577],[-88.255238,32.088676],[-88.255273,32.088685],[-88.255561,32.088775],[-88.255596,32.088784],[-88.255918,32.088892],[-88.256111,32.088973],[-88.25635,32.08908],[-88.25663,32.089242],[-88.256991,32.089431],[-88.25743,32.089772],[-88.257915,32.090239],[-88.258282,32.090688],[-88.258661,32.091146],[-88.259017,32.091587],[-88.259386,32.092027],[-88.259435,32.092117],[-88.259446,32.092126],[-88.259969,32.09279],[-88.25999,32.092817],[-88.260116,32.09297],[-88.26045,32.093401],[-88.260816,32.093859],[-88.261159,32.094317],[-88.261527,32.094767],[-88.26188,32.095234],[-88.262267,32.095728],[-88.262615,32.096141],[-88.262927,32.096554],[-88.26321,32.096905],[-88.263364,32.097129],[-88.263627,32.097336],[-88.263716,32.097506],[-88.263972,32.097884],[-88.264298,32.098171],[-88.265013,32.098719],[-88.265503,32.099034],[-88.265793,32.099213],[-88.266255,32.099456],[-88.266663,32.099653],[-88.267206,32.099914],[-88.267464,32.100067],[-88.267745,32.100219],[-88.268131,32.100399],[-88.268291,32.100462],[-88.268338,32.100471],[-88.268407,32.100489],[-88.268443,32.100489],[-88.268478,32.100498],[-88.268513,32.100507],[-88.269081,32.100651],[-88.269115,32.100669],[-88.269744,32.100803],[-88.269779,32.100812],[-88.270152,32.100893],[-88.270187,32.100902],[-88.27085,32.101055],[-88.270885,32.101064],[-88.271059,32.101109],[-88.271094,32.101118],[-88.271431,32.101199],[-88.271477,32.101207],[-88.272035,32.101342],[-88.272071,32.101342],[-88.272663,32.101495],[-88.272697,32.101504],[-88.273279,32.101639],[-88.273313,32.101657],[-88.273988,32.101809],[-88.274023,32.101818],[-88.274279,32.101872],[-88.274313,32.10189],[-88.274547,32.101935],[-88.27457,32.101935],[-88.275128,32.10207],[-88.275175,32.102079],[-88.276373,32.102357],[-88.276408,32.102366],[-88.276769,32.102447],[-88.276804,32.102456],[-88.276815,32.102465],[-88.276849,32.102474],[-88.277769,32.102681],[-88.277804,32.10269],[-88.278267,32.102815],[-88.278314,32.102824],[-88.278876,32.102923],[-88.278923,32.102932],[-88.280072,32.10322],[-88.280107,32.103229],[-88.281351,32.103525],[-88.281397,32.103534],[-88.281956,32.10366],[-88.282002,32.103678],[-88.282584,32.103813],[-88.282618,32.103822],[-88.283211,32.103965],[-88.283258,32.103974],[-88.283829,32.1041],[-88.283863,32.104109],[-88.284283,32.104199],[-88.284318,32.104208],[-88.285086,32.104387],[-88.285132,32.104396],[-88.285714,32.104531],[-88.285749,32.10454],[-88.286342,32.104675],[-88.286377,32.104684],[-88.287596,32.104882],[-88.288242,32.10498],[-88.288266,32.10498],[-88.288757,32.10507],[-88.288792,32.105079],[-88.288804,32.105079],[-88.288817,32.10507],[-88.289058,32.105043],[-88.289205,32.1049],[-88.289366,32.104738],[-88.289579,32.10454],[-88.290319,32.104325],[-88.290757,32.104136],[-88.290891,32.10401],[-88.291144,32.103336],[-88.291179,32.101612],[-88.291201,32.100875],[-88.291306,32.10057],[-88.291398,32.100282],[-88.291528,32.100076],[-88.29172,32.099851],[-88.29204,32.099653],[-88.292505,32.099546],[-88.293056,32.099528],[-88.293869,32.099519],[-88.294762,32.099528],[-88.295411,32.099492],[-88.295827,32.099501],[-88.296111,32.09942],[-88.296405,32.099348],[-88.29748,32.0988],[-88.298197,32.098459],[-88.298971,32.098045],[-88.299344,32.097695],[-88.300099,32.097012],[-88.300661,32.096788],[-88.300758,32.096662],[-88.301521,32.096563],[-88.302076,32.096402],[-88.302444,32.096204],[-88.302866,32.095943],[-88.303126,32.095746],[-88.30368,32.095593],[-88.304383,32.095494],[-88.304832,32.095431],[-88.305135,32.095386],[-88.305268,32.095261],[-88.305407,32.095081],[-88.305677,32.094578],[-88.30587,32.094237],[-88.306077,32.093877],[-88.306556,32.09332],[-88.308021,32.092045],[-88.308049,32.091901],[-88.308371,32.091685],[-88.30899,32.091371],[-88.309813,32.090949],[-88.310345,32.090661],[-88.310779,32.09041],[-88.311185,32.090185],[-88.312926,32.089763],[-88.31449,32.089431],[-88.315283,32.089161],[-88.315994,32.088883],[-88.316822,32.088407],[-88.317168,32.088191],[-88.317313,32.088065],[-88.317523,32.087895],[-88.318228,32.087347],[-88.31878,32.086772],[-88.319236,32.086314],[-88.31945,32.086107],[-88.319793,32.085918],[-88.320194,32.085748],[-88.321044,32.085505],[-88.321519,32.085415],[-88.321949,32.085406],[-88.322571,32.085397],[-88.323403,32.085424],[-88.323737,32.085424],[-88.32411,32.085397],[-88.324704,32.085307],[-88.325528,32.085191],[-88.325579,32.085164],[-88.326029,32.085083],[-88.327347,32.084813],[-88.327465,32.084724],[-88.327708,32.084571],[-88.327975,32.084319],[-88.328342,32.083798],[-88.328399,32.083717],[-88.328432,32.083637],[-88.328902,32.082729],[-88.329621,32.081831],[-88.330114,32.081148],[-88.330497,32.080699],[-88.331244,32.079666],[-88.331467,32.07937],[-88.331584,32.078956],[-88.331726,32.078543],[-88.332454,32.077456],[-88.332537,32.077241],[-88.332832,32.076953],[-88.332955,32.076702],[-88.333112,32.076576],[-88.333242,32.076262],[-88.333726,32.075121],[-88.333809,32.074043],[-88.33388,32.073728],[-88.334092,32.072884],[-88.334163,32.072246],[-88.334383,32.071545],[-88.334516,32.071204],[-88.33466,32.070979],[-88.334803,32.070764],[-88.335221,32.070333],[-88.335442,32.070171],[-88.335582,32.069982],[-88.335565,32.069704],[-88.335645,32.068868],[-88.335644,32.068231],[-88.335728,32.068123],[-88.335879,32.068051],[-88.336107,32.068033],[-88.337221,32.068096],[-88.337573,32.06815],[-88.337608,32.068159],[-88.338366,32.06832],[-88.338401,32.06832],[-88.339125,32.068464],[-88.339755,32.068482],[-88.340731,32.0685],[-88.342264,32.068338],[-88.343241,32.06824],[-88.343862,32.068123],[-88.344346,32.06806],[-88.344916,32.067979],[-88.345181,32.067844],[-88.34577,32.067476],[-88.345975,32.06735],[-88.346328,32.06718],[-88.346638,32.06718],[-88.346979,32.067225],[-88.347026,32.067234],[-88.347389,32.067287],[-88.347424,32.067296],[-88.348041,32.06744],[-88.348075,32.067449],[-88.3484,32.06753],[-88.348953,32.067386],[-88.349348,32.067269],[-88.349743,32.067144],[-88.350234,32.067126],[-88.350269,32.067135],[-88.351343,32.067458],[-88.352466,32.067656],[-88.352844,32.067575],[-88.353184,32.067521],[-88.353511,32.067476],[-88.354017,32.067323],[-88.354283,32.067296],[-88.354819,32.067296],[-88.35524,32.067269],[-88.355275,32.067278],[-88.355818,32.067431],[-88.355853,32.06744],[-88.356232,32.067575],[-88.356764,32.067835],[-88.357173,32.068024],[-88.357219,32.068033],[-88.357487,32.068096],[-88.357521,32.068105],[-88.357788,32.068177],[-88.358712,32.068231],[-88.359437,32.068258],[-88.359484,32.068267],[-88.360218,32.068419],[-88.360253,32.068428],[-88.361046,32.068599],[-88.36164,32.06894],[-88.36221,32.069506],[-88.362867,32.070261],[-88.363284,32.070692],[-88.36369,32.071015],[-88.364989,32.072004],[-88.365351,32.072075],[-88.365365,32.071842],[-88.365385,32.071653],[-88.365424,32.071411],[-88.365409,32.071114],[-88.365445,32.070791],[-88.365477,32.070171],[-88.365524,32.069632],[-88.365632,32.069084],[-88.365762,32.068554],[-88.365883,32.067997],[-88.365996,32.067512],[-88.366177,32.066955],[-88.366393,32.066398],[-88.366737,32.065662],[-88.367029,32.065176],[-88.367303,32.064745],[-88.367606,32.064269],[-88.367896,32.063802],[-88.368176,32.063317],[-88.368466,32.06285],[-88.368795,32.062356],[-88.369111,32.061862],[-88.36943,32.06135],[-88.369724,32.060847],[-88.370088,32.060362],[-88.37047,32.059921],[-88.370946,32.059499],[-88.371468,32.059095],[-88.371948,32.058745],[-88.37242,32.058358],[-88.372883,32.058053],[-88.373444,32.05772],[-88.374014,32.057424],[-88.37459,32.057173],[-88.375128,32.056939],[-88.375683,32.056777],[-88.376399,32.056562],[-88.37662,32.056499],[-88.377002,32.056391],[-88.377619,32.056202],[-88.37846,32.055825],[-88.379035,32.055475],[-88.379348,32.05534],[-88.379388,32.055187],[-88.379961,32.054433],[-88.380312,32.053948],[-88.380615,32.053471],[-88.380941,32.053004],[-88.381398,32.052322],[-88.381501,32.052034],[-88.381679,32.051504],[-88.381721,32.051118],[-88.382067,32.05101],[-88.382256,32.05092],[-88.382516,32.05083],[-88.382802,32.050723],[-88.383126,32.050597],[-88.383713,32.050363],[-88.384249,32.050148],[-88.384834,32.049923],[-88.385484,32.049654],[-88.386059,32.04942],[-88.386632,32.049196],[-88.387244,32.048944],[-88.387805,32.048719],[-88.388368,32.048486],[-88.388966,32.048252],[-88.389502,32.048046],[-88.390102,32.047794],[-88.390688,32.047561],[-88.391263,32.047318],[-88.391797,32.047129],[-88.392398,32.046869],[-88.392982,32.046653],[-88.393595,32.046393],[-88.394171,32.04615],[-88.394718,32.045944],[-88.395316,32.04571],[-88.395915,32.045468],[-88.396515,32.045216],[-88.397289,32.044902],[-88.397877,32.044659],[-88.398488,32.044417],[-88.399087,32.044174],[-88.399658,32.043967],[-88.40026,32.043698],[-88.400796,32.043491],[-88.401435,32.043213],[-88.40201,32.04297],[-88.402544,32.042773],[-88.40317,32.042503],[-88.403751,32.042216],[-88.404317,32.041946],[-88.404923,32.041749],[-88.405514,32.041578],[-88.406109,32.041371],[-88.406691,32.041174],[-88.407296,32.040994],[-88.407888,32.040814],[-88.408483,32.040608],[-88.409097,32.040446],[-88.409702,32.040257],[-88.409987,32.040159],[-88.410305,32.040087],[-88.411514,32.039826],[-88.412145,32.039727],[-88.412783,32.039674],[-88.413485,32.039584],[-88.413935,32.039395],[-88.414456,32.039206],[-88.415158,32.038901],[-88.415657,32.038703],[-88.416294,32.038434],[-88.416904,32.0382],[-88.417455,32.037967],[-88.418076,32.037742],[-88.418624,32.037527],[-88.419262,32.037257],[-88.419824,32.037024],[-88.420387,32.036781],[-88.420934,32.036583],[-88.421548,32.036314],[-88.422108,32.036098],[-88.42272,32.035847],[-88.423294,32.035613],[-88.423831,32.035398],[-88.424454,32.035155],[-88.425041,32.034912],[-88.425615,32.034679],[-88.426326,32.034391],[-88.427288,32.033996],[-88.427885,32.033772],[-88.428459,32.033538],[-88.428984,32.033322],[-88.429631,32.033071],[-88.430232,32.03281],[-88.430794,32.032586],[-88.431418,32.032334],[-88.431952,32.032137],[-88.4325,32.031921],[-88.433114,32.031652],[-88.433685,32.031445],[-88.43422,32.031247],[-88.435423,32.030717],[-88.437206,32.030008],[-88.438406,32.029505],[-88.439539,32.029065],[-88.440116,32.028813],[-88.440654,32.028579],[-88.441173,32.028409],[-88.441683,32.02822],[-88.442322,32.027942],[-88.442958,32.027681],[-88.443458,32.027475],[-88.443756,32.027367],[-88.444159,32.027169],[-88.444759,32.026918],[-88.445315,32.026639],[-88.445889,32.026406],[-88.446464,32.026163],[-88.447038,32.025929],[-88.447622,32.025714],[-88.448206,32.025498],[-88.448769,32.025256],[-88.449356,32.025013],[-88.44993,32.024789],[-88.450504,32.024555],[-88.451091,32.024312],[-88.45194,32.023962],[-88.452249,32.023863],[-88.452833,32.023648],[-88.453407,32.023414],[-88.453967,32.023199],[-88.454586,32.022992],[-88.455146,32.022776],[-88.455596,32.022588],[-88.456104,32.022417],[-88.456874,32.022139],[-88.457444,32.021833],[-88.457557,32.021779],[-88.45816,32.021393],[-88.458886,32.020971],[-88.459615,32.020522],[-88.460178,32.020171],[-88.460559,32.019956],[-88.461081,32.01965],[-88.461593,32.019336],[-88.462041,32.019057],[-88.462497,32.018806],[-88.46297,32.018518],[-88.463508,32.018177],[-88.464018,32.017881],[-88.46458,32.017539],[-88.465176,32.017216],[-88.465649,32.016919],[-88.46621,32.016587],[-88.466695,32.0163],[-88.467168,32.016012],[-88.467679,32.015698],[-88.468212,32.015401],[-88.468736,32.015087],[-88.469235,32.014772],[-88.469756,32.014485],[-88.470268,32.014162],[-88.470726,32.013901],[-88.471148,32.013641],[-88.471453,32.01347],[-88.471796,32.013272],[-88.472119,32.013048],[-88.472462,32.01285],[-88.47301,32.012536],[-88.473469,32.012257],[-88.473732,32.012149],[-88.476025,32.011458],[-88.475027,32.010335],[-88.474991,32.010344],[-88.474807,32.010389]]]},"properties":{"id":"fna-member-routes-20260918-4ac7686377fef4e31eff","sourceId":"fna-member-routes-20260918","source":"Fiber Network Alliance member fiber lines","sourceUrl":"https://www.fibernetworkalliance.com/membership-map-line/","name":"Planters published routes","carrier":"Planters","category":"unknown","routeStatus":"Status not established","evidence":"publisher_route","dataDate":null,"metadataModified":null,"retrievedAt":"2026-09-18T19:56:04.130240+00:00","networkType":"Published fiber route; precision and network class unverified","serviceability":"Unconfirmed","routeDiversity":"Unconfirmed","states":["AL","MS"],"publishedLineParts":1},"bbox":[-88.476025,32.010335,-87.947416,32.20463]},{"type":"Feature","geometry":{"type":"MultiLineString","coordinates":[[[-90.201816,31.248867],[-90.201877,31.248849],[-90.201952,31.248814],[-90.201352,31.248068],[-90.20265500000001,31.248068],[-90.20473000000001,31.247816],[-90.21109200000001,31.244403],[-90.21435900000002,31.24266],[-90.21591900000001,31.24187],[-90.21767399999999,31.241034],[-90.219043,31.240378],[-90.223125,31.23842],[-90.22558900000001,31.237243],[-90.23215499999999,31.23427],[-90.23727799999999,31.23185399999999],[-90.241345,31.229922],[-90.246721,31.227344],[-90.249796,31.225979],[-90.25245,31.224559],[-90.2562,31.222367],[-90.257711,31.221712],[-90.262434,31.219726],[-90.265255,31.218415],[-90.27049600000001,31.216582],[-90.27499599999999,31.215055],[-90.27588899999999,31.214651],[-90.279998,31.212765],[-90.281963,31.21183],[-90.284222,31.210797],[-90.288502,31.208866],[-90.29164100000001,31.20744699999999],[-90.292867,31.205848],[-90.29362899999998,31.204626],[-90.296734,31.202129],[-90.298017,31.201024],[-90.298875,31.200377],[-90.301562,31.199209],[-90.306345,31.196981],[-90.306662,31.196882],[-90.308936,31.196882],[-90.310684,31.196685],[-90.311334,31.19645999999999],[-90.312403,31.19584],[-90.31400999999998,31.195526],[-90.31749000000002,31.194116],[-90.320373,31.192993],[-90.323023,31.192193],[-90.324562,31.191726],[-90.32605400000001,31.191017],[-90.32711000000002,31.189579],[-90.328323,31.188573],[-90.33780599999999,31.184333],[-90.33800699999999,31.1841],[-90.338396,31.182231],[-90.33856700000001,31.181944],[-90.34088400000002,31.18056],[-90.342663,31.179464],[-90.34392199999999,31.17871],[-90.34713999999998,31.176733],[-90.349183,31.175835],[-90.353851,31.173787],[-90.355364,31.173104],[-90.358298,31.17182],[-90.359673,31.171101],[-90.36149800000001,31.170131],[-90.364703,31.167921],[-90.36663999999999,31.16714],[-90.369317,31.166053],[-90.371239,31.165307],[-90.374958,31.163394],[-90.37737899999999,31.162145],[-90.381635,31.159953],[-90.382208,31.159666],[-90.384534,31.158309],[-90.387174,31.156764],[-90.392981,31.153737],[-90.394879,31.152749],[-90.39809099999998,31.151051],[-90.400513,31.149793],[-90.402212,31.148904],[-90.40565399999998,31.147026],[-90.407221,31.146155],[-90.41061,31.144574],[-90.41428,31.142786],[-90.416193,31.141888],[-90.41802200000001,31.14099],[-90.41979899999998,31.140145],[-90.424187,31.138043],[-90.433146,31.133776],[-90.433393,31.133552],[-90.433426,31.132285],[-90.43355300000002,31.13196200000001],[-90.433734,31.1318],[-90.43700999999999,31.130408],[-90.438804,31.129617],[-90.44261699999998,31.127937],[-90.446577,31.126204],[-90.44790999999998,31.125656],[-90.44910799999998,31.12491],[-90.452144,31.123185],[-90.454619,31.121748],[-90.45569900000001,31.121119],[-90.45666799999998,31.120544],[-90.457269,31.120212],[-90.45782199999998,31.119889],[-90.460623,31.118263],[-90.462796,31.117005],[-90.464314,31.116143],[-90.465544,31.115433],[-90.470961,31.112253],[-90.471511,31.112199],[-90.472506,31.112181],[-90.473431,31.111687],[-90.476317,31.110034],[-90.479488,31.108139],[-90.479782,31.10804],[-90.479818,31.10804],[-90.48017799999998,31.108103],[-90.48022400000002,31.108112],[-90.481002,31.108265],[-90.48103599999999,31.108274],[-90.48213699999998,31.108507],[-90.48250400000002,31.108507],[-90.483191,31.108381],[-90.484022,31.107878],[-90.48523,31.107151],[-90.486554,31.106333],[-90.487344,31.105884],[-90.48868999999999,31.105085],[-90.49075600000002,31.103827],[-90.49267100000002,31.10265],[-90.49415500000002,31.10177],[-90.49641099999998,31.100386],[-90.499131,31.098734],[-90.500641,31.097826],[-90.503689,31.095976],[-90.504737,31.095428],[-90.506023,31.094754],[-90.50741699999999,31.094062],[-90.509563,31.092948],[-90.510533,31.092356],[-90.512094,31.091403],[-90.514376,31.089993],[-90.51694500000002,31.08843],[-90.51841399999999,31.087702],[-90.520465,31.086705],[-90.52255299999999,31.08569],[-90.523895,31.084927],[-90.525006,31.084226],[-90.527095,31.083202],[-90.528401,31.082564],[-90.529398,31.082052],[-90.53030499999998,31.081621],[-90.53232000000001,31.080624],[-90.53524499999999,31.079168],[-90.53677300000001,31.078432],[-90.538592,31.077507],[-90.54079299999998,31.076429],[-90.54146,31.075791],[-90.542415,31.075342],[-90.545053,31.07403],[-90.54666000000002,31.073222],[-90.549109,31.072027],[-90.553876,31.069646],[-90.556687,31.068254],[-90.558526,31.067365],[-90.56232100000001,31.065478],[-90.565322,31.063969],[-90.566122,31.063529],[-90.569506,31.062208],[-90.576742,31.05866],[-90.581538,31.0561],[-90.58571500000001,31.053809],[-90.589334,31.051545],[-90.592368,31.049938],[-90.595216,31.04841],[-90.59745,31.047225],[-90.600823,31.045419],[-90.603379,31.043964],[-90.606384,31.042284],[-90.608255,31.04118799999999],[-90.611749,31.03923],[-90.615059,31.037334],[-90.618479,31.035394],[-90.623646,31.033373],[-90.625195,31.03278],[-90.62674399999999,31.032178],[-90.629981,31.030893],[-90.631689,31.030238],[-90.632383,31.02979699999999],[-90.633794,31.028926],[-90.63547100000001,31.027875],[-90.637627,31.026519],[-90.64015300000001,31.024902],[-90.64157800000001,31.024003],[-90.643824,31.022575],[-90.645904,31.021273],[-90.647275,31.020913],[-90.64963199999998,31.020275],[-90.650749,31.019862],[-90.653183,31.01856],[-90.654967,31.017742],[-90.65809,31.016404],[-90.66066599999999,31.015344],[-90.663067,31.014859],[-90.667206,31.01317],[-90.670706,31.011733],[-90.67603499999998,31.009127],[-90.67813599999998,31.008085],[-90.682869,31.005777],[-90.685144,31.004645],[-90.687429,31.003531],[-90.689628,31.002453],[-90.69145600000002,31.001537],[-90.69345900000002,31.001133],[-90.69533100000001,31.000126],[-90.69683099999999,30.999426],[-90.698244,30.998761],[-90.699745,30.997926],[-90.70768900000002,30.993497],[-90.705065,30.992194],[-90.703395,30.992114],[-90.703404,30.992024],[-90.703445,30.99197]]]},"properties":{"id":"fna-member-routes-20260918-c959200decd71bd03aa6","sourceId":"fna-member-routes-20260918","source":"Fiber Network Alliance member fiber lines","sourceUrl":"https://www.fibernetworkalliance.com/membership-map-line/","name":"Planters published routes","carrier":"Planters","category":"unknown","routeStatus":"Status not established","evidence":"publisher_route","dataDate":null,"metadataModified":null,"retrievedAt":"2026-09-18T19:56:04.130240+00:00","networkType":"Published fiber route; precision and network class unverified","serviceability":"Unconfirmed","routeDiversity":"Unconfirmed","states":["LA","MS"],"publishedLineParts":1},"bbox":[-90.70768900000002,30.99197,-90.201352,31.248867]},{"type":"Feature","geometry":{"type":"MultiLineString","coordinates":[[[-89.516813,31.571404],[-89.516441,31.57109],[-89.518148,31.57021],[-89.520375,31.569015],[-89.524231,31.567461],[-89.526054,31.566715],[-89.529993,31.56482],[-89.531786,31.563912],[-89.53261,31.563526],[-89.537534,31.560948],[-89.541368,31.558909],[-89.544751,31.556753],[-89.546474,31.555837],[-89.54925,31.554372],[-89.552856,31.552477],[-89.558217,31.550025],[-89.564363,31.546764],[-89.569551,31.544033],[-89.573214,31.541922],[-89.577426,31.538984],[-89.57977,31.537341],[-89.583451,31.534241],[-89.584406,31.533622],[-89.587882,31.531367],[-89.594759,31.527567],[-89.601733,31.524207],[-89.615485,31.516392],[-89.619608,31.513958],[-89.623899,31.511505],[-89.629005,31.509089],[-89.632598,31.507409],[-89.637229,31.505217],[-89.639466,31.504022],[-89.644859,31.501471],[-89.646717,31.500609],[-89.651279,31.49839],[-89.653066,31.497752],[-89.655661,31.49654],[-89.662578,31.493243],[-89.664998,31.492111],[-89.669179,31.490135],[-89.675458,31.487152],[-89.67858,31.485661],[-89.683158,31.483514],[-89.68981,31.480361],[-89.693278,31.478726],[-89.696687,31.4771],[-89.699168,31.475941],[-89.700318,31.474342],[-89.706838,31.470974],[-89.708464,31.469932],[-89.71101,31.468494],[-89.71508,31.467003],[-89.717335,31.466545],[-89.724733,31.463859],[-89.725572,31.463545],[-89.730589,31.460814],[-89.734691,31.459008],[-89.736459,31.458209],[-89.739832,31.456565],[-89.743433,31.454786],[-89.749401,31.452262],[-89.753898,31.449846],[-89.757163,31.448103],[-89.763041,31.444941],[-89.769522,31.442039],[-89.771981,31.44097],[-89.773138,31.440458],[-89.777918,31.439317],[-89.780557,31.438114],[-89.789042,31.435104],[-89.791286,31.43382],[-89.794409,31.432059],[-89.80176,31.42887],[-89.80437,31.42772],[-89.80791,31.426175],[-89.811032,31.425349],[-89.815965,31.423633],[-89.820972,31.421315],[-89.824479,31.41986],[-89.829027,31.417965],[-89.835746,31.415144],[-89.839203,31.413707],[-89.843016,31.412153],[-89.844676,31.411003],[-89.852101,31.407895],[-89.858113,31.405478],[-89.86779,31.40156199999999],[-89.872972,31.399486],[-89.874723,31.399073],[-89.876354,31.398435],[-89.878147,31.397483],[-89.882958,31.395561],[-89.886595,31.394097],[-89.888623,31.393288],[-89.895782,31.390432],[-89.903716,31.387773],[-89.909561,31.38523],[-89.912279,31.38417],[-89.916074,31.382661],[-89.924586,31.37932],[-89.928489,31.377801],[-89.93425,31.375035],[-89.939919,31.372358],[-89.944819,31.370004],[-89.950615,31.367246],[-89.953918,31.365665],[-89.957094,31.364174],[-89.960597,31.362494],[-89.962989,31.361362],[-89.971759,31.357212],[-89.974304,31.355514],[-89.9814,31.352541],[-89.988896,31.349379],[-89.992757,31.347789],[-89.995659,31.346064],[-89.999752,31.343594],[-90.00278800000001,31.341716],[-90.006868,31.339255],[-90.012349,31.335949],[-90.015695,31.334404],[-90.021699,31.331664],[-90.028088,31.328754],[-90.035334,31.325457],[-90.038542,31.323984],[-90.043926,31.321513],[-90.047606,31.319241],[-90.05183000000001,31.317327],[-90.057611,31.314668],[-90.059252,31.313923],[-90.06130200000001,31.312989],[-90.06727,31.31024],[-90.074354,31.307006],[-90.082001,31.303475],[-90.086178,31.301553],[-90.08909200000001,31.300511],[-90.090684,31.299774],[-90.097207,31.296801],[-90.101683,31.294735],[-90.104625,31.293414],[-90.107075,31.292274],[-90.109254,31.291241],[-90.11174,31.290091],[-90.114895,31.288653],[-90.11901399999999,31.285896],[-90.121101,31.284943],[-90.12464900000002,31.283371],[-90.12765299999998,31.282024],[-90.13467200000001,31.27894300000001],[-90.1371,31.277892],[-90.138938,31.277056],[-90.143846,31.274927],[-90.14794899999998,31.273131],[-90.14938299999999,31.272664],[-90.15186,31.271837],[-90.15256199999999,31.271568],[-90.15779500000001,31.269385],[-90.159514,31.268666],[-90.16180199999998,31.267714],[-90.164338,31.266654],[-90.175118,31.262091],[-90.17893,31.260249],[-90.187098,31.256314],[-90.191382,31.252955],[-90.197359,31.248311],[-90.197798,31.248068],[-90.19831,31.248041],[-90.201328,31.248068],[-90.201897,31.248778],[-90.20184600000002,31.248814],[-90.201816,31.248867]]]},"properties":{"id":"fna-member-routes-20260918-44ab2a97ae7f18a15108","sourceId":"fna-member-routes-20260918","source":"Fiber Network Alliance member fiber lines","sourceUrl":"https://www.fibernetworkalliance.com/membership-map-line/","name":"Planters published routes","carrier":"Planters","category":"unknown","routeStatus":"Status not established","evidence":"publisher_route","dataDate":null,"metadataModified":null,"retrievedAt":"2026-09-18T19:56:04.130240+00:00","networkType":"Published fiber route; precision and network class unverified","serviceability":"Unconfirmed","routeDiversity":"Unconfirmed","states":["MS"],"publishedLineParts":1},"bbox":[-90.201897,31.248041,-89.516441,31.571404]},{"type":"Feature","geometry":{"type":"MultiLineString","coordinates":[[[-89.051935,31.814845],[-89.051875,31.814845],[-89.051838,31.815088],[-89.051803,31.815079],[-89.051746,31.815393],[-89.051517,31.816094],[-89.051474,31.816507],[-89.053671,31.81622],[-89.056292,31.814971],[-89.058962,31.813696],[-89.059413,31.81348],[-89.06,31.813219],[-89.0606,31.81295],[-89.061404,31.812555],[-89.061944,31.812061],[-89.062551,31.811495],[-89.063184,31.810911],[-89.063777,31.810372],[-89.064183,31.810129],[-89.064968,31.809689],[-89.065953,31.80915],[-89.066356,31.808944],[-89.066765,31.808683],[-89.067255,31.808431],[-89.067838,31.808099],[-89.068393,31.807803],[-89.068877,31.807506],[-89.069443,31.807219],[-89.069964,31.806904],[-89.07033,31.806707],[-89.07071,31.806491],[-89.071013,31.806329],[-89.071346,31.806105],[-89.071699,31.805916],[-89.072066,31.80571],[-89.072444,31.805512],[-89.072867,31.805341],[-89.073374,31.805162],[-89.073737,31.804991],[-89.074125,31.804811],[-89.074461,31.804677],[-89.075017,31.804479],[-89.07554,31.804263],[-89.07605,31.804057],[-89.076722,31.803778],[-89.077246,31.803554],[-89.07782,31.803302],[-89.078392,31.803069],[-89.078989,31.802826],[-89.079525,31.802601],[-89.080063,31.802359],[-89.080696,31.802107],[-89.081319,31.801847],[-89.081854,31.801622],[-89.08244,31.80138],[-89.08295,31.801164],[-89.08346,31.800958],[-89.083932,31.800769],[-89.084505,31.800535],[-89.084991,31.800329],[-89.085539,31.800095],[-89.085943,31.79988],[-89.086468,31.799637],[-89.087148,31.799287],[-89.087639,31.799035],[-89.088131,31.798775],[-89.088534,31.798559],[-89.089212,31.798227],[-89.089741,31.797948],[-89.090255,31.797706],[-89.090909,31.797373],[-89.091332,31.797203],[-89.091833,31.79696],[-89.092348,31.796709],[-89.092911,31.796448],[-89.093488,31.79617],[-89.094026,31.795927],[-89.094491,31.795685],[-89.094779,31.79555],[-89.095277,31.795343],[-89.095792,31.795092],[-89.096332,31.794822],[-89.096908,31.794553],[-89.097582,31.794256],[-89.097996,31.794059],[-89.09841,31.793852],[-89.098973,31.7936],[-89.099439,31.793358],[-89.099863,31.793169],[-89.100227,31.79299],[-89.100794,31.79281],[-89.101359,31.792639],[-89.101923,31.792487],[-89.10254,31.79228],[-89.103179,31.792091],[-89.103722,31.791912],[-89.104426,31.791669],[-89.105026,31.791507],[-89.105569,31.791328],[-89.106224,31.790986],[-89.106816,31.790672],[-89.107457,31.790349],[-89.107731,31.790232],[-89.108246,31.78998],[-89.108761,31.78972],[-89.109225,31.789504],[-89.109804,31.789199],[-89.110503,31.788893],[-89.111153,31.788597],[-89.11167,31.788327],[-89.112173,31.788067],[-89.112736,31.787806],[-89.113139,31.7876],[-89.113641,31.787348],[-89.113957,31.787178],[-89.11437,31.786989],[-89.114884,31.786737],[-89.115476,31.786432],[-89.116003,31.786171],[-89.116392,31.785983],[-89.116981,31.785704],[-89.118112,31.785129],[-89.118827,31.784788],[-89.119332,31.78451],[-89.119996,31.784195],[-89.120547,31.783935],[-89.121047,31.78371],[-89.121595,31.783369],[-89.122053,31.783081],[-89.122717,31.78265],[-89.123149,31.782399],[-89.123725,31.782012],[-89.124288,31.781752],[-89.125081,31.781339],[-89.126083,31.780862],[-89.126773,31.78053],[-89.129896,31.779246],[-89.131426,31.778617],[-89.132398,31.778203],[-89.132959,31.777961],[-89.133542,31.777736],[-89.134076,31.777521],[-89.134589,31.777287],[-89.135136,31.77706299999999],[-89.135495,31.776928],[-89.135956,31.776739],[-89.136538,31.776524],[-89.137185,31.776254],[-89.137783,31.776003],[-89.138292,31.775796],[-89.138839,31.77558000000001],[-89.139562,31.775266],[-89.140356,31.774961],[-89.140768,31.774781],[-89.141078,31.774655],[-89.1414,31.774538],[-89.141861,31.774341],[-89.142468,31.773999],[-89.142881,31.773811],[-89.143376,31.773514],[-89.143867,31.773263],[-89.144447,31.772957],[-89.144951,31.772688],[-89.145557,31.772355],[-89.146093,31.772122],[-89.146643,31.77187],[-89.147096,31.771646],[-89.147435,31.771475],[-89.14772,31.771367],[-89.148009,31.771224],[-89.148408,31.771044],[-89.148635,31.770927],[-89.149086,31.770712],[-89.149574,31.770487],[-89.149964,31.77028],[-89.150492,31.77002],[-89.151038,31.769688],[-89.151457,31.769445],[-89.151868,31.769265],[-89.152309,31.769032],[-89.153033,31.768717],[-89.153833,31.768349],[-89.15427,31.768151],[-89.154763,31.767882],[-89.155168,31.767648],[-89.155561,31.767415],[-89.156003,31.767172],[-89.156446,31.766921],[-89.156966,31.766615],[-89.157498,31.76631],[-89.15793,31.766049],[-89.158408,31.765807],[-89.158863,31.765555],[-89.159306,31.765304],[-89.159823,31.765025],[-89.160153,31.764828],[-89.160457,31.764657],[-89.160836,31.764441],[-89.161212,31.764262],[-89.161594,31.764028],[-89.16196,31.763822],[-89.162327,31.76361500000001],[-89.162671,31.763399],[-89.163023,31.76322],[-89.163427,31.763004],[-89.163807,31.76278],[-89.164148,31.762591],[-89.164451,31.762429],[-89.164755,31.76225],[-89.165147,31.762034],[-89.165462,31.761863],[-89.165807,31.761639],[-89.166082,31.761513],[-89.166376,31.761324],[-89.166666,31.761172],[-89.166983,31.760983],[-89.167248,31.760839],[-89.167513,31.760695],[-89.16788,31.760489],[-89.168273,31.760255],[-89.168687,31.760058],[-89.169003,31.759878],[-89.169334,31.759671],[-89.16965,31.759492],[-89.169902,31.759357],[-89.17014,31.759249],[-89.170537,31.759096],[-89.17098,31.75895300000001],[-89.171402,31.758791],[-89.171772,31.758665],[-89.172143,31.758531],[-89.17254,31.758378],[-89.172901,31.758225],[-89.17325,31.758081],[-89.17355,31.757938],[-89.173914,31.757758],[-89.174225,31.757632],[-89.174726,31.75739],[-89.175126,31.75721],[-89.175526,31.75703],[-89.175975,31.756833],[-89.176451,31.756608],[-89.176989,31.756357],[-89.177413,31.756168],[-89.177854,31.755934],[-89.17829,31.755746],[-89.178838,31.755512],[-89.179252,31.755315],[-89.179627,31.755144],[-89.180026,31.754964],[-89.180427,31.754776],[-89.180775,31.754632],[-89.181139,31.754452],[-89.181537,31.754291],[-89.182108,31.75406600000001],[-89.182689,31.753859],[-89.183319,31.753635],[-89.184378,31.753302],[-89.185521,31.752952],[-89.186633,31.75256600000001],[-89.18806,31.752233],[-89.188894,31.752],[-89.189445,31.751739],[-89.190675,31.751129],[-89.191853,31.750563],[-89.192921,31.750024],[-89.194037,31.749476],[-89.195293,31.748847],[-89.196234,31.74838],[-89.19886,31.747059],[-89.202512,31.745245],[-89.207104,31.742756],[-89.212614,31.739792],[-89.217883,31.736971],[-89.219421,31.735803],[-89.220501,31.734923],[-89.221407,31.734222],[-89.221923,31.733836],[-89.222473,31.733468],[-89.222938,31.733234],[-89.223855,31.732767],[-89.224481,31.732471],[-89.225187,31.732093],[-89.225927,31.731734],[-89.226729,31.731348],[-89.227371,31.731006],[-89.227933,31.730755],[-89.228524,31.73045],[-89.229402,31.730018],[-89.230015,31.729731],[-89.230971,31.729237],[-89.233464,31.728267],[-89.234005,31.728096],[-89.236678,31.726659],[-89.239999,31.724817],[-89.243031,31.723128],[-89.243615,31.722778],[-89.244855,31.72195200000001],[-89.247892,31.719993],[-89.250754,31.718448],[-89.257578,31.714963],[-89.264052,31.711522],[-89.270809,31.707875],[-89.274234,31.705719],[-89.277287,31.703815],[-89.279259,31.702584],[-89.281986,31.700617],[-89.284426,31.699126],[-89.288236,31.696925],[-89.290049,31.695847],[-89.292242,31.694553],[-89.294218,31.693511],[-89.301298,31.68972],[-89.309181,31.685408],[-89.312715,31.684825],[-89.312935,31.684771],[-89.314881,31.682866],[-89.315076,31.682714],[-89.323288,31.678204],[-89.327155,31.676021],[-89.330723,31.673964],[-89.334308,31.671853],[-89.338676,31.669194],[-89.344311,31.66578000000001],[-89.349969,31.662376],[-89.354816,31.659456],[-89.359433,31.656681],[-89.364978,31.65333],[-89.36926,31.650231],[-89.37302,31.648713],[-89.373889,31.648362],[-89.37476,31.64798499999999],[-89.37543,31.64771500000001],[-89.376237,31.647392],[-89.377031,31.647069],[-89.377641,31.646808],[-89.378098,31.646647],[-89.378545,31.646458],[-89.379401,31.646116],[-89.380037,31.645838],[-89.380753,31.645578],[-89.381363,31.645317],[-89.381976,31.645021],[-89.382667,31.64467],[-89.383634,31.644167],[-89.388276,31.641832],[-89.393869,31.638696],[-89.396242,31.637026],[-89.399438,31.635328],[-89.400869,31.6346],[-89.404096,31.632606],[-89.408531,31.630199],[-89.41135,31.628923],[-89.415896,31.626471],[-89.421922,31.623273],[-89.426608,31.62073],[-89.433383,31.617182],[-89.442529,31.612205],[-89.452321,31.606834],[-89.462061,31.601507],[-89.471968,31.596054],[-89.479702,31.592631],[-89.484091,31.590188],[-89.487087,31.589029],[-89.488522,31.588257],[-89.490135,31.587134],[-89.49577,31.583217],[-89.503922,31.578501],[-89.508167,31.576067],[-89.514456,31.572132],[-89.516441,31.57109],[-89.516813,31.571404]]]},"properties":{"id":"fna-member-routes-20260918-922cfc88536152c0b674","sourceId":"fna-member-routes-20260918","source":"Fiber Network Alliance member fiber lines","sourceUrl":"https://www.fibernetworkalliance.com/membership-map-line/","name":"Planters published routes","carrier":"Planters","category":"unknown","routeStatus":"Status not established","evidence":"publisher_route","dataDate":null,"metadataModified":null,"retrievedAt":"2026-09-18T19:56:04.130240+00:00","networkType":"Published fiber route; precision and network class unverified","serviceability":"Unconfirmed","routeDiversity":"Unconfirmed","states":["MS"],"publishedLineParts":1},"bbox":[-89.516813,31.57109,-89.051474,31.816507]},{"type":"Feature","geometry":{"type":"MultiLineString","coordinates":[[[-88.474807,32.010389],[-88.474937,32.01029],[-88.475037,32.010245],[-88.476062,32.011449],[-88.48081,32.010002],[-88.494699,32.005762],[-88.498532,32.004613],[-88.500371,32.003714],[-88.502478,32.003418],[-88.508397,32.001621],[-88.512812,32.000274],[-88.522011,31.99748],[-88.530063,31.995037],[-88.53227,31.994363],[-88.533622,31.993986],[-88.53694,31.993078],[-88.546471,31.990509],[-88.550596,31.98909],[-88.561545,31.985209],[-88.567013,31.983269],[-88.568372,31.982936],[-88.57633,31.980897],[-88.578474,31.980367],[-88.580155,31.979927],[-88.586036,31.978463],[-88.589971,31.977466],[-88.592103,31.976936],[-88.593956,31.976442],[-88.596785,31.976073],[-88.599356,31.975786],[-88.600562,31.975328],[-88.603669,31.97416],[-88.605033,31.97366600000001],[-88.608049,31.972902],[-88.609057,31.972615],[-88.613822,31.971214],[-88.617282,31.970198],[-88.622307,31.968707],[-88.625461,31.967755],[-88.627861,31.967063],[-88.630814,31.96621],[-88.633071,31.965509],[-88.637563,31.96420699999999],[-88.644546,31.962572],[-88.650412,31.961233],[-88.65727,31.959652],[-88.66382,31.958152],[-88.667466,31.95729],[-88.670299,31.956661],[-88.674512,31.955062],[-88.683542,31.951675],[-88.688457,31.94987],[-88.693239,31.948073],[-88.697552,31.94642899999999],[-88.701807,31.944884],[-88.704149,31.943833],[-88.707925,31.942414],[-88.710073,31.941614],[-88.712093,31.940896],[-88.71554,31.940312],[-88.723012,31.938434],[-88.725603,31.937725],[-88.731108,31.936072],[-88.736465,31.934464],[-88.739668,31.933269],[-88.75112,31.929945],[-88.755656,31.92899299999999],[-88.762827,31.926909],[-88.765348,31.926181],[-88.767821,31.925463],[-88.769891,31.924493],[-88.777512,31.921762],[-88.782471,31.919965],[-88.784424,31.919094],[-88.789366,31.916893],[-88.791481,31.91595],[-88.792765,31.915087],[-88.795048,31.913569],[-88.795358,31.913461],[-88.798683,31.912231],[-88.798984,31.912204],[-88.799875,31.912339],[-88.800331,31.912195],[-88.804258,31.910793],[-88.808161,31.909401],[-88.816491,31.906383],[-88.821084,31.904766],[-88.829074,31.901909],[-88.833957,31.900149],[-88.843904,31.896591],[-88.849108,31.894714],[-88.85705,31.891857],[-88.86331,31.889459],[-88.870176,31.886854],[-88.872623,31.885919],[-88.875342,31.88556000000001],[-88.876927,31.884994],[-88.882703,31.882775],[-88.885028,31.881859],[-88.89051,31.879712],[-88.896693,31.877251],[-88.898907,31.876703],[-88.899686,31.876433],[-88.900682,31.876029],[-88.901951,31.875526],[-88.906086,31.873828],[-88.907759,31.873666],[-88.908598,31.873622],[-88.90986,31.873514],[-88.911562,31.872858],[-88.912425,31.872472],[-88.91901,31.869804],[-88.93006,31.865357],[-88.934317,31.863632],[-88.939833,31.861369],[-88.945234,31.859186],[-88.951981,31.856446],[-88.953864,31.855871],[-88.963517,31.85155],[-88.96548,31.85067],[-88.966608,31.85014],[-88.966921,31.849996],[-88.969291,31.848873],[-88.969692,31.848685],[-88.969909,31.84855],[-88.971555,31.847175],[-88.971912,31.846951],[-88.974151,31.845828],[-88.976022,31.844912],[-88.977538,31.844202],[-88.981328,31.842495],[-88.982017,31.842172],[-88.98272,31.841831],[-88.984244,31.841157],[-88.985182,31.840735],[-88.986059,31.840097],[-88.986891,31.839324],[-88.987378,31.839001],[-88.987898,31.838704],[-88.988298,31.838408],[-88.989082,31.838094],[-88.994548,31.835839],[-88.995283,31.83565],[-88.99606,31.835623],[-88.996618,31.835641],[-88.997167,31.83574],[-88.997707,31.835812],[-88.998307,31.835767],[-88.9992,31.835776],[-89.000083,31.835641],[-89.001402,31.835444],[-89.002077,31.835255],[-89.00371,31.834563],[-89.005027,31.834051],[-89.006166,31.833638],[-89.007434,31.83325200000001],[-89.00782,31.832973],[-89.011293,31.830422],[-89.012016,31.830117],[-89.013088,31.829658],[-89.014595,31.829039],[-89.018493,31.82742199999999],[-89.021568,31.826155],[-89.024472,31.824924],[-89.02497,31.824727],[-89.025829,31.824367],[-89.026326,31.82417],[-89.026801,31.823963],[-89.029504,31.822831],[-89.03047,31.822481],[-89.035414,31.820424],[-89.039565,31.818663],[-89.040512,31.818268],[-89.042503,31.81745],[-89.045044,31.816956],[-89.047734,31.816516],[-89.04786,31.815205],[-89.047858,31.814657],[-89.048078,31.813696],[-89.051282,31.813687],[-89.051528,31.814747],[-89.051784,31.8148],[-89.051746,31.815052],[-89.051817,31.815061],[-89.051853,31.814827],[-89.051935,31.814845]]]},"properties":{"id":"fna-member-routes-20260918-f275adc8f90a061445af","sourceId":"fna-member-routes-20260918","source":"Fiber Network Alliance member fiber lines","sourceUrl":"https://www.fibernetworkalliance.com/membership-map-line/","name":"Planters published routes","carrier":"Planters","category":"unknown","routeStatus":"Status not established","evidence":"publisher_route","dataDate":null,"metadataModified":null,"retrievedAt":"2026-09-18T19:56:04.130240+00:00","networkType":"Published fiber route; precision and network class unverified","serviceability":"Unconfirmed","routeDiversity":"Unconfirmed","states":["MS"],"publishedLineParts":1},"bbox":[-89.051935,31.813687,-88.474807,32.011449]}]}
