{"type":"FeatureCollection","features":[{"type":"Feature","geometry":{"type":"LineString","coordinates":[[-87.951337,32.19897],[-87.947589,32.20454],[-88.004546,32.182468],[-88.063806,32.172964],[-88.099093,32.155807],[-88.192194,32.121159],[-88.205338,32.103893],[-88.219109,32.097435],[-88.223698,32.087014],[-88.254014,32.088317],[-88.267745,32.100219],[-88.289058,32.105043],[-88.29204,32.099653],[-88.327708,32.084571],[-88.335728,32.068123],[-88.35524,32.067269],[-88.365351,32.072075],[-88.370088,32.060362],[-88.381721,32.051118],[-88.456874,32.022139],[-88.474807,32.010389]]},"properties":{"id":"fna-member-routes-20260918-4ac7686377fef4e31eff","sourceId":"fna-member-routes-20260918","category":"unknown","states":["AL","MS"],"routeStatus":"Status not established","carrier":"Planters","publishedLineParts":1},"bbox":[-88.476025,32.010335,-87.947416,32.20463]},{"type":"Feature","geometry":{"type":"LineString","coordinates":[[-90.201816,31.248867],[-90.29164100000001,31.20744699999999],[-90.298875,31.200377],[-90.32605400000001,31.191017],[-90.34713999999998,31.176733],[-90.470961,31.112253],[-90.483191,31.108381],[-90.618479,31.035394],[-90.70768900000002,30.993497],[-90.703445,30.99197]]},"properties":{"id":"fna-member-routes-20260918-c959200decd71bd03aa6","sourceId":"fna-member-routes-20260918","category":"unknown","states":["LA","MS"],"routeStatus":"Status not established","carrier":"Planters","publishedLineParts":1},"bbox":[-90.70768900000002,30.99197,-90.201352,31.248867]},{"type":"Feature","geometry":{"type":"LineString","coordinates":[[-89.516813,31.571404],[-89.623899,31.511505],[-89.71101,31.468494],[-89.928489,31.377801],[-90.047606,31.319241],[-90.175118,31.262091],[-90.197798,31.248068],[-90.201816,31.248867]]},"properties":{"id":"fna-member-routes-20260918-44ab2a97ae7f18a15108","sourceId":"fna-member-routes-20260918","category":"unknown","states":["MS"],"routeStatus":"Status not established","carrier":"Planters","publishedLineParts":1},"bbox":[-90.201897,31.248041,-89.516441,31.571404]},{"type":"Feature","geometry":{"type":"LineString","coordinates":[[-89.051935,31.814845],[-89.202512,31.745245],[-89.312935,31.684771],[-89.36926,31.650231],[-89.516813,31.571404]]},"properties":{"id":"fna-member-routes-20260918-922cfc88536152c0b674","sourceId":"fna-member-routes-20260918","category":"unknown","states":["MS"],"routeStatus":"Status not established","carrier":"Planters","publishedLineParts":1},"bbox":[-89.516813,31.57109,-89.051474,31.816507]},{"type":"Feature","geometry":{"type":"LineString","coordinates":[[-88.474807,32.010389],[-88.670299,31.956661],[-88.712093,31.940896],[-88.767821,31.925463],[-88.911562,31.872858],[-88.988298,31.838408],[-89.047734,31.816516],[-89.048078,31.813696],[-89.051935,31.814845]]},"properties":{"id":"fna-member-routes-20260918-f275adc8f90a061445af","sourceId":"fna-member-routes-20260918","category":"unknown","states":["MS"],"routeStatus":"Status not established","carrier":"Planters","publishedLineParts":1},"bbox":[-89.051935,31.813687,-88.474807,32.011449]}]}