{"type":"FeatureCollection","features":[{"type":"Feature","geometry":{"type":"LineString","coordinates":[[-103.618182769817,48.1466402592935],[-103.618182818745,48.1466403656932],[-103.618182838166,48.1466403981969],[-103.618182842301,48.1466404037501],[-103.618182845265,48.1466404064922],[-103.61818285085,48.1466404108564],[-103.618182852903,48.1466404120112],[-103.618182853087,48.1466404121332],[-103.618183109769,48.1466418126597],[-103.618183111754,48.1466418292497],[-103.618231041443,48.1469070955781]]},"properties":{"id":"arcgis-184-0-0115e525be80051e","sourceId":"arcgis-184-0","source":"City Owned Fiber Cable \u2014 City_Owned_Fiber_Cable","sourceUrl":"https://services2.arcgis.com/cEct75q6PZi92VC0/arcgis/rest/services/City_Owned_Fiber_Cable/FeatureServer/0","name":"City Owned Fiber Cable \u2014 City_Owned_Fiber_Cable","carrier":"Not published","routeStatus":"Unknown","category":"unknown","evidence":"agency_route","dataDate":null,"metadataModified":"2024-05-23T20:09:20+00:00","retrievedAt":"2026-09-18T02:37:01.742851+00:00","networkType":"Published fiber route; network class not specified","serviceability":"Unconfirmed","routeDiversity":"Unconfirmed","states":["ND"]},"bbox":[-103.618231041443,48.1466402592935,-103.618182769817,48.1469070955781]},{"type":"Feature","geometry":{"type":"LineString","coordinates":[[-103.609397147921,48.1491855527175],[-103.609397306576,48.1491681299711],[-103.60939961637,48.1489144772741],[-103.60939961637,48.1489144772158],[-103.609397424124,48.1481119404873],[-103.609397424123,48.1481119403981],[-103.609393047718,48.147921531635],[-103.609393047717,48.1479215316339],[-103.609394549896,48.1471224648018],[-103.609394625792,48.1471213259459],[-103.609394626207,48.1471213256404],[-103.60939632438,48.147121263217],[-103.611126844803,48.1471077651931],[-103.61112684516,48.1471077651917],[-103.612763782111,48.1471063333678],[-103.612763782587,48.1471063333673],[-103.614464672882,48.1471031470351],[-103.614464673181,48.1471031470333],[-103.615843900343,48.1470908104594],[-103.615844333915,48.1470907973261],[-103.615845085637,48.1470907491181],[-103.616905835238,48.1470094796924],[-103.616910322166,48.1470117830023],[-103.616920884172,48.1470629137913],[-103.616923114428,48.1470640878324],[-103.617332732932,48.1470330968026],[-103.617332866779,48.1470330866108],[-103.618493555787,48.1469434650753]]},"properties":{"id":"arcgis-184-0-19e45d667658083b","sourceId":"arcgis-184-0","source":"City Owned Fiber Cable \u2014 City_Owned_Fiber_Cable","sourceUrl":"https://services2.arcgis.com/cEct75q6PZi92VC0/arcgis/rest/services/City_Owned_Fiber_Cable/FeatureServer/0","name":"City Owned Fiber Cable \u2014 City_Owned_Fiber_Cable","carrier":"Not published","routeStatus":"Unknown","category":"unknown","evidence":"agency_route","dataDate":null,"metadataModified":"2024-05-23T20:09:20+00:00","retrievedAt":"2026-09-18T02:37:01.742851+00:00","networkType":"Published fiber route; network class not specified","serviceability":"Unconfirmed","routeDiversity":"Unconfirmed","states":["ND"]},"bbox":[-103.618493555787,48.1469434650753,-103.609393047717,48.1491855527175]},{"type":"Feature","geometry":{"type":"MultiLineString","coordinates":[[[-103.616944393583,48.1467012373009],[-103.616944393574,48.1467012373029],[-103.616944393572,48.1467012373035],[-103.616944393572,48.1467012373035],[-103.616944393572,48.1467012373036],[-103.616944393572,48.1467012373038],[-103.616944571618,48.1467023613337],[-103.61694459968,48.1467024879251],[-103.616979429151,48.1469130012428],[-103.616986692352,48.1469568997867],[-103.616994813487,48.1470024486454],[-103.6169951478,48.1470026239586],[-103.617323142173,48.1469773935607],[-103.618189352784,48.1469103367065],[-103.618270751413,48.1469040082706],[-103.61852706488,48.1468840799703],[-103.618527086324,48.1468840783054],[-103.620708582554,48.1467152311937],[-103.620744866596,48.1467124225978],[-103.620744971261,48.146712414311],[-103.62074497163,48.1467124139664],[-103.620744972514,48.1467124143906],[-103.6207453241,48.1467123856398],[-103.624764911858,48.1463802570724],[-103.624764912534,48.1463802565392],[-103.62476502845,48.1463802471174],[-103.624765099446,48.1463802412215],[-103.625821324954,48.1462958255294],[-103.625821741881,48.1462957959674],[-103.625821855802,48.1462957901835],[-103.625821855892,48.1462957902416],[-103.625821856543,48.1462957988787],[-103.625821867741,48.1462962119077],[-103.62584910861,48.1537092821085],[-103.625849119843,48.1537096963098],[-103.625849120554,48.1537097057457],[-103.625849120801,48.153709705899],[-103.62584936488,48.1537097159909],[-103.625849517667,48.153709719582],[-103.628077089049,48.1537472317243],[-103.628077240513,48.1537472352849],[-103.628077486655,48.1537472454573],[-103.628077486784,48.1537472455553],[-103.628077487292,48.1537474737917],[-103.628060655809,48.154127431226],[-103.628060655007,48.15412743175],[-103.609606654215,48.1541980297306],[-103.609605933514,48.1541980238062],[-103.60960593188,48.1541980226797],[-103.609605921414,48.154197591804],[-103.609605672772,48.1533156945623],[-103.609605673599,48.1533155712586],[-103.609605675324,48.1533154790988],[-103.60960871973,48.1531873268026],[-103.60960872173,48.1531872128411],[-103.609608721847,48.1531871655108],[-103.609603180649,48.1523225684759],[-103.609603186715,48.1523222360663],[-103.60960321067,48.1523218589651],[-103.609615115704,48.1521803814465],[-103.609615133807,48.152180122894],[-103.609615144551,48.1521798665263],[-103.609655639035,48.1507295716549],[-103.609655638872,48.1507294245261],[-103.609655626319,48.1507291471579],[-103.60964526726,48.1505575995291],[-103.609645259143,48.1505574429897],[-103.609645253639,48.1505572841794],[-103.609611100298,48.1492440675763],[-103.609611090879,48.149243854552],[-103.609611081065,48.1492437404432],[-103.609611080598,48.1492437401041],[-103.609610855846,48.1492437309321],[-103.6096105794,48.1492437246717],[-103.609436991723,48.1492407750809],[-103.609355157894,48.1492397321635],[-103.609186623059,48.1492370970362],[-103.609186562198,48.1492370956405],[-103.609186531089,48.1492324680617]],[[-103.628060655007,48.15412743175],[-103.628060655442,48.1541274320482],[-103.628060656403,48.1541274320474],[-103.636305182899,48.1541439681143],[-103.636305786175,48.154143975592],[-103.636305809836,48.1541439763927],[-103.636305809862,48.1541439764085],[-103.636305830695,48.1541441910463],[-103.636305831941,48.1541442115578],[-103.636313326855,48.1543019540262],[-103.636313326979,48.1543019541186],[-103.636313345327,48.1543023402776],[-103.636353000966,48.1551369484684],[-103.636353001789,48.1551369621876],[-103.636353022374,48.1551371734461],[-103.636353022731,48.1551371758773],[-103.636353043934,48.155137243129],[-103.636353154226,48.1551375473322],[-103.63660290856,48.1557868274205],[-103.636603049525,48.1557871638811],[-103.636603050668,48.1557871659783],[-103.636603228794,48.1557874623711],[-103.63678401352,48.1560698498392],[-103.636784182064,48.1560701036654],[-103.636784239329,48.1560701833611],[-103.636784425561,48.1560704007845],[-103.637157276626,48.1564780083926],[-103.637157351116,48.1564780880781],[-103.637157493565,48.1564782317339],[-103.63715762629,48.1564783459793],[-103.637157784178,48.1564784745549],[-103.637598757841,48.1568293637103],[-103.637599026333,48.1568295661013],[-103.637599028367,48.1568295673382],[-103.637599051413,48.1568295804583],[-103.637599525225,48.1568298332333],[-103.637874716853,48.1569719970584],[-103.637875200628,48.1569722378548],[-103.637875200965,48.1569722379226],[-103.637875201509,48.1569722379694],[-103.637875473524,48.1569722374236],[-103.637875589881,48.1569722351695],[-103.638697415473,48.1569510422174],[-103.638698118761,48.1569510362929],[-103.638698475998,48.1569510261149],[-103.638698478445,48.1569510259372],[-103.638698487387,48.1569510250902],[-103.63869849284,48.1569510236764],[-103.638698495297,48.1569510228463],[-103.638698499617,48.1569510211388],[-103.638698500276,48.1569510208164],[-103.638698507907,48.1569510168183],[-103.638698508816,48.1569510163092]],[[-103.636313326979,48.1543019541186],[-103.636317919801,48.1542992088365],[-103.636343329941,48.1543038637484],[-103.637561454979,48.1546389758569],[-103.637576009624,48.1546327350426],[-103.637576274423,48.1546175801335],[-103.637577801146,48.1546161054062],[-103.637560087114,48.1539413979977]],[[-103.62074497163,48.1467124139664],[-103.620717427568,48.1466240609577],[-103.620667539097,48.1464640313554],[-103.620667525444,48.146463990424]],[[-103.624764911858,48.1463802570724],[-103.624764912008,48.1463802571575],[-103.624772466041,48.1465047562337],[-103.624772476096,48.1465052335424],[-103.62477249193,48.1465054801472],[-103.624772492524,48.1465054837995],[-103.624772493136,48.1465054866837],[-103.624772493637,48.1465054882844],[-103.624772494185,48.146505489787],[-103.624772494689,48.1465054906565],[-103.624772497815,48.1465054951505],[-103.624772499223,48.1465054967442],[-103.624772501133,48.1465054984907],[-103.624772507244,48.146505503708],[-103.624772508345,48.1465055045879]]]},"properties":{"id":"arcgis-184-0-8f76ebcfd0a3e297","sourceId":"arcgis-184-0","source":"City Owned Fiber Cable \u2014 City_Owned_Fiber_Cable","sourceUrl":"https://services2.arcgis.com/cEct75q6PZi92VC0/arcgis/rest/services/City_Owned_Fiber_Cable/FeatureServer/0","name":"City Owned Fiber Cable \u2014 City_Owned_Fiber_Cable","carrier":"Not published","routeStatus":"Unknown","category":"unknown","evidence":"agency_route","dataDate":null,"metadataModified":"2024-05-23T20:09:20+00:00","retrievedAt":"2026-09-18T02:37:01.742851+00:00","networkType":"Published fiber route; network class not specified","serviceability":"Unconfirmed","routeDiversity":"Unconfirmed","states":["ND"]},"bbox":[-103.638698508816,48.1462957901835,-103.609186531089,48.1569722379694]},{"type":"Feature","geometry":{"type":"LineString","coordinates":[[-103.609397712511,48.1491873052119],[-103.609399486758,48.1492402971125]]},"properties":{"id":"arcgis-184-0-2b951d1469c52c90","sourceId":"arcgis-184-0","source":"City Owned Fiber Cable \u2014 City_Owned_Fiber_Cable","sourceUrl":"https://services2.arcgis.com/cEct75q6PZi92VC0/arcgis/rest/services/City_Owned_Fiber_Cable/FeatureServer/0","name":"City Owned Fiber Cable \u2014 City_Owned_Fiber_Cable","carrier":"Not published","routeStatus":"Unknown","category":"unknown","evidence":"agency_route","dataDate":null,"metadataModified":"2024-05-23T20:09:20+00:00","retrievedAt":"2026-09-18T02:37:01.742851+00:00","networkType":"Published fiber route; network class not specified","serviceability":"Unconfirmed","routeDiversity":"Unconfirmed","states":["ND"]},"bbox":[-103.609399486758,48.1491873052119,-103.609397712511,48.1492402971125]},{"type":"Feature","geometry":{"type":"LineString","coordinates":[[-103.61584103667,48.1489671986104],[-103.615054879084,48.1490320552122],[-103.609102910019,48.1491115226168]]},"properties":{"id":"arcgis-184-0-137f6a6e4a39bbd2","sourceId":"arcgis-184-0","source":"City Owned Fiber Cable \u2014 City_Owned_Fiber_Cable","sourceUrl":"https://services2.arcgis.com/cEct75q6PZi92VC0/arcgis/rest/services/City_Owned_Fiber_Cable/FeatureServer/0","name":"City Owned Fiber Cable \u2014 City_Owned_Fiber_Cable","carrier":"Not published","routeStatus":"Unknown","category":"unknown","evidence":"agency_route","dataDate":null,"metadataModified":"2024-05-23T20:09:20+00:00","retrievedAt":"2026-09-18T02:37:01.742851+00:00","networkType":"Published fiber route; network class not specified","serviceability":"Unconfirmed","routeDiversity":"Unconfirmed","states":["ND"]},"bbox":[-103.61584103667,48.1489671986104,-103.609102910019,48.1491115226168]},{"type":"Feature","geometry":{"type":"LineString","coordinates":[[-103.616274651965,48.1489388513648],[-103.616274626096,48.1489385528462],[-103.616274584675,48.1489382551135],[-103.616274527752,48.1489379585296],[-103.616274455396,48.1489376634558],[-103.616274367696,48.1489373702516],[-103.616274264758,48.1489370792743],[-103.616274146709,48.1489367908782],[-103.616274013691,48.1489365054148],[-103.616273865867,48.1489362232319],[-103.616273703416,48.1489359446734],[-103.616273526538,48.1489356700784],[-103.616273335447,48.1489353997817],[-103.616273130376,48.1489351341125],[-103.616272911574,48.1489348733946],[-103.61627267931,48.1489346179454],[-103.616272433865,48.1489343680764],[-103.616272175538,48.1489341240919],[-103.616271904645,48.1489338862891],[-103.616271621515,48.1489336549578],[-103.616271326493,48.1489334303799],[-103.616271019939,48.1489332128289],[-103.616270702227,48.1489330025698],[-103.616270373742,48.148932799859],[-103.616270034886,48.1489326049433],[-103.616269686072,48.1489324180601],[-103.616269327723,48.1489322394374],[-103.616268960278,48.1489320692925],[-103.616268584183,48.1489319078328],[-103.616268199897,48.1489317552551],[-103.616267807888,48.1489316117452],[-103.616267408633,48.1489314774779],[-103.61626700262,48.148931352617],[-103.616266590342,48.1489312373144],[-103.616266172302,48.1489311317106],[-103.61626574901,48.1489310359344],[-103.61626532098,48.1489309501023],[-103.616264888735,48.1489308743191],[-103.616264452801,48.1489308086769],[-103.61626401371,48.1489307532559],[-103.616263571995,48.1489307081234],[-103.616263128196,48.1489306733346],[-103.616262682853,48.1489306489317],[-103.616262236509,48.1489306349445],[-103.616261789707,48.1489306313901],[-103.616261342992,48.1489306382727],[-103.616260896908,48.1489306555841],[-103.616260451999,48.148930683303],[-103.616260008806,48.1489307213958],[-103.61625956787,48.148930769816],[-103.616259129727,48.1489308285047],[-103.616258694912,48.1489308973902],[-103.616258263955,48.1489309763888],[-103.61625783738,48.1489310654041],[-103.616257415706,48.1489311643277],[-103.616256999449,48.1489312730391],[-103.616256589115,48.1489313914058],[-103.616256185204,48.1489315192837],[-103.616255788208,48.1489316565168],[-103.61625539861,48.1489318029381],[-103.616255016886,48.1489319583691],[-103.6162546435,48.1489321226205],[-103.616254278908,48.1489322954921],[-103.616253923553,48.1489324767734],[-103.616253577869,48.1489326662434],[-103.616253242276,48.1489328636713],[-103.616252917184,48.1489330688167],[-103.616252602989,48.1489332814295],[-103.616252300073,48.1489335012507],[-103.616252008805,48.1489337280125],[-103.616251729541,48.1489339614386],[-103.61625146262,48.1489342012447],[-103.616251208368,48.1489344471385],[-103.616250967095,48.1489346988205],[-103.616250739094,48.148934955984],[-103.616250524643,48.1489352183158],[-103.616250324004,48.1489354854962],[-103.616250137421,48.1489357571997],[-103.616249965122,48.1489360330952],[-103.616249807315,48.1489363128468],[-103.616249664194,48.1489365961134],[-103.616249535933,48.14893688255],[-103.616249422688,48.1489371718076],[-103.616249324597,48.1489374635338],[-103.61624924178,48.1489377573731],[-103.616249174338,48.1489380529677],[-103.616249122352,48.1489383499572],[-103.616249085886,48.14893864798],[-103.616249064984,48.1489389466728],[-103.616249059673,48.1489392456719],[-103.616249069957,48.1489395446129],[-103.616249095826,48.1489398431315],[-103.616249137247,48.1489401408642],[-103.61624919417,48.1489404374481],[-103.616249266526,48.1489407325219],[-103.616249354226,48.1489410257261],[-103.616249457163,48.1489413167035],[-103.616249575213,48.1489416050996],[-103.61624970823,48.148941890563],[-103.616249856054,48.1489421727459],[-103.616250018505,48.1489424513045],[-103.616250195383,48.1489427258995],[-103.616250386474,48.1489429961962],[-103.616250591545,48.1489432618655],[-103.616250810346,48.1489435225835],[-103.616251042611,48.1489437780326],[-103.616251288056,48.1489440279017],[-103.616251546382,48.1489442718863],[-103.616251817275,48.1489445096891],[-103.616252100405,48.1489447410205],[-103.616252395427,48.1489449655985],[-103.616252701981,48.1489451831495],[-103.616253019694,48.1489453934086],[-103.616253348178,48.1489455961195],[-103.616253687034,48.1489457910352],[-103.616254035849,48.1489459779184],[-103.616254394197,48.1489461565412],[-103.616254761643,48.1489463266862],[-103.616255137738,48.1489464881459],[-103.616255522024,48.1489466407236],[-103.616255914033,48.1489467842336],[-103.616256313288,48.1489469185009],[-103.616256719301,48.1489470433619],[-103.616257131579,48.1489471586645],[-103.616257549619,48.1489472642683],[-103.616257972911,48.1489473600446],[-103.616258400941,48.1489474458766],[-103.616258833186,48.1489475216599],[-103.61625926912,48.1489475873021],[-103.616259708212,48.1489476427232],[-103.616260149926,48.1489476878556],[-103.616260593726,48.1489477226445],[-103.616261039069,48.1489477470474],[-103.616261485413,48.1489477610346],[-103.616261932215,48.148947764589],[-103.61626237893,48.1489477577063],[-103.616262825015,48.148947740395],[-103.616263269924,48.148947712676],[-103.616263713117,48.1489476745832],[-103.616264154054,48.148947626163],[-103.616264592196,48.1489475674744],[-103.616265027011,48.1489474985888],[-103.616265457969,48.1489474195902],[-103.616265884544,48.1489473305748],[-103.616266306217,48.1489472316512],[-103.616266722475,48.1489471229398],[-103.616267132809,48.148947004573],[-103.61626753672,48.1489468766951],[-103.616267933717,48.1489467394619],[-103.616268323314,48.1489465930406],[-103.616268705038,48.1489464376095],[-103.616269078424,48.1489462733581],[-103.616269443017,48.1489461004864],[-103.616269798371,48.1489459192051],[-103.616270144056,48.1489457297351],[-103.616270479648,48.1489455323071],[-103.61627080474,48.1489453271617],[-103.616271118936,48.1489451145489],[-103.616271421852,48.1489448947276],[-103.61627171312,48.1489446679658],[-103.616271992384,48.1489444345396],[-103.616272259304,48.1489441947335],[-103.616272513556,48.1489439488396],[-103.61627275483,48.1489436971576],[-103.61627298283,48.148943439994],[-103.616273197281,48.1489431776622],[-103.61627339792,48.1489429104817],[-103.616273584503,48.1489426387782],[-103.616273756802,48.1489423628826],[-103.616273914609,48.1489420831311],[-103.61627405773,48.1489417998644],[-103.61627418599,48.1489415134278],[-103.616274299235,48.1489412241702],[-103.616274397326,48.148940932444],[-103.616274480143,48.1489406386046],[-103.616274547586,48.1489403430101],[-103.616274599571,48.1489400460205],[-103.616274636037,48.1489397479977],[-103.616274656938,48.1489394493048],[-103.61627466225,48.1489391503058],[-103.616274651965,48.1489388513648]]},"properties":{"id":"arcgis-184-0-e3f4f2f46a155252","sourceId":"arcgis-184-0","source":"City Owned Fiber Cable \u2014 City_Owned_Fiber_Cable","sourceUrl":"https://services2.arcgis.com/cEct75q6PZi92VC0/arcgis/rest/services/City_Owned_Fiber_Cable/FeatureServer/0","name":"City Owned Fiber Cable \u2014 City_Owned_Fiber_Cable","carrier":"Not published","routeStatus":"Unknown","category":"unknown","evidence":"agency_route","dataDate":null,"metadataModified":"2024-05-23T20:09:20+00:00","retrievedAt":"2026-09-18T02:37:01.742851+00:00","networkType":"Published fiber route; network class not specified","serviceability":"Unconfirmed","routeDiversity":"Unconfirmed","states":["ND"]},"bbox":[-103.61627466225,48.1489306313901,-103.616249059673,48.148947764589]},{"type":"Feature","geometry":{"type":"LineString","coordinates":[[-103.615853827683,48.1489668520325],[-103.615853801817,48.1489665535137],[-103.615853760398,48.148966255781],[-103.615853703477,48.1489659591968],[-103.615853631124,48.1489656641228],[-103.615853543427,48.1489653709183],[-103.615853440491,48.1489650799405],[-103.615853322444,48.148964791544],[-103.615853189428,48.1489645060801],[-103.615853041606,48.1489642238967],[-103.615852879158,48.1489639453376],[-103.615852702282,48.148963670742],[-103.615852511193,48.1489634004446],[-103.615852306124,48.1489631347746],[-103.615852087325,48.1489628740559],[-103.615851855062,48.1489626186059],[-103.615851609619,48.148962368736],[-103.615851351294,48.1489621247505],[-103.615851080403,48.1489618869467],[-103.615850797274,48.1489616556144],[-103.615850502254,48.1489614310354],[-103.615850195702,48.1489612134833],[-103.615849877991,48.1489610032231],[-103.615849549508,48.148960800511],[-103.615849210653,48.1489606055941],[-103.61584886184,48.1489604187097],[-103.615848503493,48.1489602400856],[-103.615848136049,48.1489600699394],[-103.615847759955,48.1489599084783],[-103.61584737567,48.1489597558992],[-103.615846983662,48.1489596123879],[-103.615846584408,48.1489594781191],[-103.615846178396,48.1489593532567],[-103.615845766118,48.1489592379526],[-103.615845348079,48.1489591323473],[-103.615844924787,48.1489590365695],[-103.615844496758,48.1489589507359],[-103.615844064514,48.1489588749511],[-103.61584362858,48.1489588093073],[-103.615843189489,48.1489587538847],[-103.615842747774,48.1489587087506],[-103.615842303976,48.1489586739601],[-103.615841858633,48.1489586495556],[-103.615841412288,48.1489586355668],[-103.615840965486,48.1489586320108],[-103.615840518771,48.1489586388918],[-103.615840072686,48.1489586562015],[-103.615839627776,48.1489586839188],[-103.615839184583,48.14895872201],[-103.615838743646,48.1489587704286],[-103.615838305503,48.1489588291156],[-103.615837870687,48.1489588979996],[-103.615837439729,48.1489589769966],[-103.615837013153,48.1489590660103],[-103.615836591478,48.1489591649324],[-103.61583617522,48.1489592736423],[-103.615835764885,48.1489593920075],[-103.615835360972,48.1489595198838],[-103.615834963975,48.1489596571156],[-103.615834574376,48.1489598035354],[-103.61583419265,48.1489599589651],[-103.615833819263,48.1489601232151],[-103.615833454669,48.1489602960853],[-103.615833099312,48.1489604773653],[-103.615832753626,48.148960666834],[-103.615832418032,48.1489608642608],[-103.615832092938,48.1489610694049],[-103.615831778741,48.1489612820165],[-103.615831475823,48.1489615018366],[-103.615831184553,48.1489617285974],[-103.615830905287,48.1489619620224],[-103.615830638364,48.1489622018275],[-103.61583038411,48.1489624477204],[-103.615830142834,48.1489626994015],[-103.615829914831,48.1489629565642],[-103.615829700379,48.1489632188952],[-103.615829499737,48.1489634860749],[-103.615829313152,48.1489637577777],[-103.61582914085,48.1489640336726],[-103.615828983041,48.1489643134236],[-103.615828839918,48.1489645966897],[-103.615828711654,48.1489648831258],[-103.615828598407,48.148965172383],[-103.615828500314,48.1489654641088],[-103.615828417494,48.1489657579479],[-103.615828350049,48.1489660535421],[-103.61582829806,48.1489663505315],[-103.615828261592,48.1489666485541],[-103.615828240688,48.1489669472469],[-103.615828235374,48.148967246246],[-103.615828245656,48.1489675451869],[-103.615828271523,48.1489678437057],[-103.615828312941,48.1489681414385],[-103.615828369862,48.1489684380226],[-103.615828442215,48.1489687330967],[-103.615828529913,48.1489690263012],[-103.615828632848,48.148969317279],[-103.615828750895,48.1489696056755],[-103.615828883911,48.1489698911394],[-103.615829031732,48.1489701733229],[-103.61582919418,48.1489704518821],[-103.615829371057,48.1489707264777],[-103.615829562146,48.1489709967751],[-103.615829767215,48.1489712624451],[-103.615829986014,48.1489715231639],[-103.615830218276,48.1489717786139],[-103.615830463719,48.1489720284839],[-103.615830722044,48.1489722724694],[-103.615830992935,48.1489725102733],[-103.615831276064,48.1489727416056],[-103.615831571084,48.1489729661847],[-103.615831877636,48.1489731837369],[-103.615832195347,48.1489733939971],[-103.61583252383,48.1489735967092],[-103.615832862685,48.1489737916262],[-103.615833211498,48.1489739785106],[-103.615833569845,48.1489741571348],[-103.615833937289,48.148974327281],[-103.615834313383,48.1489744887421],[-103.615834697668,48.1489746413213],[-103.615835089677,48.1489747848327],[-103.61583548893,48.1489749191014],[-103.615835894943,48.1489750439639],[-103.61583630722,48.1489751592681],[-103.615836725259,48.1489752648734],[-103.615837148552,48.1489753606512],[-103.615837576581,48.1489754464848],[-103.615838008825,48.1489755222697],[-103.615838444759,48.1489755879134],[-103.615838883851,48.1489756433361],[-103.615839325565,48.1489756884702],[-103.615839769364,48.1489757232607],[-103.615840214707,48.1489757476652],[-103.615840661052,48.148975761654],[-103.615841107854,48.1489757652101],[-103.61584155457,48.1489757583291],[-103.615842000654,48.1489757410194],[-103.615842445564,48.148975713302],[-103.615842888758,48.1489756752108],[-103.615843329695,48.1489756267922],[-103.615843767838,48.1489755681052],[-103.615844202654,48.1489754992212],[-103.615844633613,48.1489754202242],[-103.615845060189,48.1489753312104],[-103.615845481863,48.1489752322883],[-103.615845898121,48.1489751235784],[-103.615846308457,48.1489750052131],[-103.61584671237,48.1489748773367],[-103.615847109367,48.148974740105],[-103.615847498966,48.1489745936851],[-103.615847880692,48.1489744382554],[-103.615848254079,48.1489742740054],[-103.615848618673,48.148974101135],[-103.61584897403,48.148973919855],[-103.615849319716,48.1489737303862],[-103.61584965531,48.1489735329595],[-103.615849980404,48.1489733278153],[-103.615850294601,48.1489731152036],[-103.615850597519,48.1489728953834],[-103.615850888789,48.1489726686227],[-103.615851168055,48.1489724351975],[-103.615851434978,48.1489721953924],[-103.615851689232,48.1489719494994],[-103.615851930508,48.1489716978183],[-103.615852158511,48.1489714406555],[-103.615852372963,48.1489711783245],[-103.615852573605,48.1489709111448],[-103.61585276019,48.1489706394419],[-103.615852932492,48.148970363547],[-103.6158530903,48.148970083796],[-103.615853233424,48.1489698005299],[-103.615853361687,48.1489695140938],[-103.615853474934,48.1489692248365],[-103.615853573027,48.1489689331107],[-103.615853655847,48.1489686392716],[-103.615853723292,48.1489683436773],[-103.61585377528,48.1489680466879],[-103.615853811748,48.1489677486653],[-103.615853832652,48.1489674499725],[-103.615853837966,48.1489671509735],[-103.615853827683,48.1489668520325]]},"properties":{"id":"arcgis-184-0-a9dd2f7078d78057","sourceId":"arcgis-184-0","source":"City Owned Fiber Cable \u2014 City_Owned_Fiber_Cable","sourceUrl":"https://services2.arcgis.com/cEct75q6PZi92VC0/arcgis/rest/services/City_Owned_Fiber_Cable/FeatureServer/0","name":"City Owned Fiber Cable \u2014 City_Owned_Fiber_Cable","carrier":"Not published","routeStatus":"Unknown","category":"unknown","evidence":"agency_route","dataDate":null,"metadataModified":"2024-05-23T20:09:20+00:00","retrievedAt":"2026-09-18T02:37:01.742851+00:00","networkType":"Published fiber route; network class not specified","serviceability":"Unconfirmed","routeDiversity":"Unconfirmed","states":["ND"]},"bbox":[-103.615853837966,48.1489586320108,-103.615828235374,48.1489757652101]},{"type":"Feature","geometry":{"type":"LineString","coordinates":[[-103.616261860961,48.1489391979895],[-103.61584103667,48.1489671986104],[-103.615901074406,48.1494321807342]]},"properties":{"id":"arcgis-184-0-bc2c0eccf40b7680","sourceId":"arcgis-184-0","source":"City Owned Fiber Cable \u2014 City_Owned_Fiber_Cable","sourceUrl":"https://services2.arcgis.com/cEct75q6PZi92VC0/arcgis/rest/services/City_Owned_Fiber_Cable/FeatureServer/0","name":"City Owned Fiber Cable \u2014 City_Owned_Fiber_Cable","carrier":"Not published","routeStatus":"Unknown","category":"unknown","evidence":"agency_route","dataDate":null,"metadataModified":"2024-05-23T20:09:20+00:00","retrievedAt":"2026-09-18T02:37:01.742851+00:00","networkType":"Published fiber route; network class not specified","serviceability":"Unconfirmed","routeDiversity":"Unconfirmed","states":["ND"]},"bbox":[-103.616261860961,48.1489391979895,-103.61584103667,48.1494321807342]},{"type":"Feature","geometry":{"type":"LineString","coordinates":[[-103.618485942673,48.1472585510011],[-103.61838291284,48.1473257893892],[-103.616090348931,48.147499858515],[-103.61608756664,48.1475001021034],[-103.616084798446,48.1475004093113],[-103.616082047596,48.1475007797784],[-103.616079317316,48.1475012130701],[-103.61607661081,48.1475017086781],[-103.616073931252,48.147502266021],[-103.616071281786,48.1475028844451],[-103.61606866552,48.1475035632249],[-103.616066085522,48.1475043015642],[-103.61606354482,48.1475050985968],[-103.616061046393,48.1475059533878],[-103.616058593172,48.1475068649345],[-103.616056188035,48.1475078321675],[-103.616053833804,48.1475088539524],[-103.616051533239,48.1475099290903],[-103.616049289041,48.1475110563203],[-103.616047103841,48.1475122343199],[-103.616044980202,48.1475134617074],[-103.616042920616,48.1475147370428],[-103.616040927499,48.1475160588303],[-103.616039003189,48.1475174255192],[-103.616037149943,48.1475188355064],[-103.616035369936,48.1475202871378],[-103.616033665254,48.1475217787107],[-103.616032037898,48.1475233084753],[-103.616030489777,48.1475248746371],[-103.616029022707,48.147526475359],[-103.616027638409,48.1475281087633],[-103.616026338507,48.1475297729337],[-103.616025124525,48.1475314659183],[-103.616023997888,48.1475331857309],[-103.616022959917,48.1475349303543],[-103.61602201183,48.1475366977418],[-103.616021154739,48.1475384858202],[-103.616020389649,48.147540292492],[-103.616019717459,48.1475421156379],[-103.616019138956,48.1475439531192],[-103.616018654819,48.1475458027805],[-103.616018265616,48.1475476624519],[-103.616017971804,48.1475495299521],[-103.616017773726,48.1475514030903],[-103.616017671617,48.1475532796692],[-103.616017665595,48.1475551574875],[-103.616017755668,48.1475570343424],[-103.616017941729,48.1475589080323],[-103.616018223561,48.1475607763592]]},"properties":{"id":"arcgis-184-0-e37f3c81e84cfe77","sourceId":"arcgis-184-0","source":"City Owned Fiber Cable \u2014 City_Owned_Fiber_Cable","sourceUrl":"https://services2.arcgis.com/cEct75q6PZi92VC0/arcgis/rest/services/City_Owned_Fiber_Cable/FeatureServer/0","name":"City Owned Fiber Cable \u2014 City_Owned_Fiber_Cable","carrier":"Not published","routeStatus":"Unknown","category":"unknown","evidence":"agency_route","dataDate":null,"metadataModified":"2024-05-23T20:09:20+00:00","retrievedAt":"2026-09-18T02:37:01.742851+00:00","networkType":"Published fiber route; network class not specified","serviceability":"Unconfirmed","routeDiversity":"Unconfirmed","states":["ND"]},"bbox":[-103.618485942673,48.1472585510011,-103.616017665595,48.1475607763592]},{"type":"Feature","geometry":{"type":"LineString","coordinates":[[-103.618498733244,48.147258204129],[-103.618498707363,48.1472579056108],[-103.61849866593,48.1472576078788],[-103.618498608996,48.147257311296],[-103.61849853663,48.1472570162234],[-103.618498448921,48.1472567230208],[-103.618498345974,48.1472564320454],[-103.618498227916,48.1472561436515],[-103.61849809489,48.1472558581906],[-103.618497947058,48.1472555760105],[-103.618497784601,48.1472552974549],[-103.618497607716,48.1472550228633],[-103.61849741662,48.1472547525702],[-103.618497211544,48.1472544869049],[-103.618496992739,48.1472542261911],[-103.618496760471,48.1472539707464],[-103.618496515023,48.147253720882],[-103.618496256694,48.1472534769024],[-103.618495985799,48.1472532391048],[-103.618495702669,48.1472530077789],[-103.618495407647,48.1472527832066],[-103.618495101094,48.1472525656614],[-103.618494783382,48.1472523554085],[-103.6184944549,48.1472521527039],[-103.618494116046,48.1472519577947],[-103.618493767235,48.1472517709183],[-103.618493408891,48.1472515923023],[-103.61849304145,48.1472514221645],[-103.61849266536,48.1472512607121],[-103.61849228108,48.1472511081417],[-103.618491889078,48.1472509646393],[-103.61849148983,48.1472508303798],[-103.618491083825,48.1472507055266],[-103.618490671556,48.1472505902319],[-103.618490253525,48.1472504846362],[-103.618489830242,48.1472503888681],[-103.618489402223,48.1472503030443],[-103.618488969989,48.1472502272694],[-103.618488534066,48.1472501616357],[-103.618488094986,48.1472501062231],[-103.618487653285,48.1472500610992],[-103.618487209498,48.1472500263189],[-103.618486764169,48.1472500019246],[-103.618486317839,48.147249987946],[-103.618485871051,48.1472499844002],[-103.618485424351,48.1472499912915],[-103.618484978282,48.1472500086115],[-103.618484533389,48.1472500363391],[-103.618484090212,48.1472500744404],[-103.618483649292,48.1472501228692],[-103.618483211166,48.1472501815663],[-103.618482776369,48.1472502504603],[-103.618482345429,48.1472503294672],[-103.618481918871,48.1472504184908],[-103.618481497216,48.1472505174226],[-103.618481080977,48.1472506261421],[-103.618480670661,48.1472507445168],[-103.618480266769,48.1472508724025],[-103.618479869792,48.1472510096434],[-103.618479480213,48.1472511560722],[-103.618479098508,48.1472513115107],[-103.618478725142,48.1472514757693],[-103.618478360569,48.147251648648],[-103.618478005233,48.1472518299362],[-103.618477659568,48.147252019413],[-103.618477323995,48.1472522168475],[-103.618476998923,48.1472524219992],[-103.618476684747,48.1472526346181],[-103.61847638185,48.1472528544452],[-103.618476090602,48.1472530812127],[-103.618475811357,48.1472533146443],[-103.618475544455,48.1472535544556],[-103.618475290222,48.1472538003544],[-103.618475048967,48.1472540520411],[-103.618474820985,48.1472543092092],[-103.618474606553,48.1472545715452],[-103.618474405932,48.1472548387296],[-103.618474219367,48.1472551104368],[-103.618474047084,48.1472553863358],[-103.618473889295,48.1472556660904],[-103.618473746191,48.1472559493599],[-103.618473617947,48.147256235799],[-103.618473504718,48.1472565250589],[-103.618473406643,48.1472568167871],[-103.618473323841,48.1472571106281],[-103.618473256413,48.1472574062241],[-103.618473204442,48.1472577032147],[-103.61847316799,48.1472580012383],[-103.618473147102,48.1472582999317],[-103.618473141804,48.1472585989309],[-103.618473152101,48.1472588978718],[-103.618473177982,48.14725919639],[-103.618473219414,48.147259494122],[-103.618473276348,48.1472597907049],[-103.618473348714,48.1472600857774],[-103.618473436424,48.14726037898],[-103.61847353937,48.1472606699556],[-103.618473657428,48.1472609583494],[-103.618473790454,48.1472612438104],[-103.618473938286,48.1472615259905],[-103.618474100743,48.1472618045461],[-103.618474277627,48.1472620791377],[-103.618474468724,48.1472623494308],[-103.618474673799,48.1472626150962],[-103.618474892605,48.1472628758101],[-103.618475124873,48.1472631312548],[-103.61847537032,48.1472633811193],[-103.618475628649,48.1472636250989],[-103.618475899544,48.1472638628966],[-103.618476182674,48.1472640942225],[-103.618476477696,48.1472643187949],[-103.618476784249,48.1472645363401],[-103.618477101961,48.1472647465931],[-103.618477430443,48.1472649492977],[-103.618477769297,48.147265144207],[-103.618478118108,48.1472653310834],[-103.618478476452,48.1472655096994],[-103.618478843893,48.1472656798373],[-103.618479219983,48.1472658412898],[-103.618479604263,48.1472659938602],[-103.618479996266,48.1472661373626],[-103.618480395513,48.1472662716222],[-103.618480801519,48.1472663964754],[-103.618481213788,48.1472665117701],[-103.618481631819,48.1472666173659],[-103.618482055102,48.147266713134],[-103.618482483121,48.1472667989578],[-103.618482915356,48.1472668747327],[-103.618483351278,48.1472669403665],[-103.618483790358,48.1472669957791],[-103.61848423206,48.147267040903],[-103.618484675846,48.1472670756833],[-103.618485121176,48.1472671000777],[-103.618485567506,48.1472671140562],[-103.618486014294,48.147267117602],[-103.618486460994,48.1472671107107],[-103.618486907063,48.1472670933907],[-103.618487351957,48.1472670656631],[-103.618487795134,48.1472670275618],[-103.618488236054,48.147266979133],[-103.61848867418,48.1472669204359],[-103.618489108978,48.1472668515418],[-103.618489539918,48.1472667725349],[-103.618489966475,48.1472666835113],[-103.61849038813,48.1472665845795],[-103.61849080437,48.1472664758599],[-103.618491214685,48.1472663574852],[-103.618491618578,48.1472662295995],[-103.618492015555,48.1472660923586],[-103.618492405134,48.1472659459297],[-103.618492786839,48.1472657904911],[-103.618493160206,48.1472656262325],[-103.618493524779,48.1472654533537],[-103.618493880114,48.1472652720655],[-103.618494225779,48.1472650825887],[-103.618494561352,48.1472648851541],[-103.618494886425,48.1472646800024],[-103.618495200601,48.1472644673834],[-103.618495503497,48.1472642475563],[-103.618495794746,48.1472640207887],[-103.618496073991,48.147263787357],[-103.618496340892,48.1472635475457],[-103.618496595125,48.1472633016468],[-103.61849683638,48.1472630499601],[-103.618497064362,48.147262792792],[-103.618497278794,48.1472625304559],[-103.618497479415,48.1472622632715],[-103.61849766598,48.1472619915643],[-103.618497838262,48.1472617156653],[-103.618497996051,48.1472614359106],[-103.618498139155,48.1472611526411],[-103.6184982674,48.1472608662019],[-103.618498380628,48.147260576942],[-103.618498478703,48.1472602852138],[-103.618498561505,48.1472599913727],[-103.618498628932,48.1472596957768],[-103.618498680904,48.1472593987861],[-103.618498717356,48.1472591007625],[-103.618498738243,48.1472588020692],[-103.618498743542,48.1472585030699],[-103.618498733244,48.147258204129]]},"properties":{"id":"arcgis-184-0-df244f052e40b34d","sourceId":"arcgis-184-0","source":"City Owned Fiber Cable \u2014 City_Owned_Fiber_Cable","sourceUrl":"https://services2.arcgis.com/cEct75q6PZi92VC0/arcgis/rest/services/City_Owned_Fiber_Cable/FeatureServer/0","name":"City Owned Fiber Cable \u2014 City_Owned_Fiber_Cable","carrier":"Not published","routeStatus":"Unknown","category":"unknown","evidence":"agency_route","dataDate":null,"metadataModified":"2024-05-23T20:09:20+00:00","retrievedAt":"2026-09-18T02:37:01.742851+00:00","networkType":"Published fiber route; network class not specified","serviceability":"Unconfirmed","routeDiversity":"Unconfirmed","states":["ND"]},"bbox":[-103.618498743542,48.1472499844002,-103.618473141804,48.147267117602]},{"type":"Feature","geometry":{"type":"LineString","coordinates":[[-103.616018223561,48.1475607763592],[-103.616261860961,48.1489391979895]]},"properties":{"id":"arcgis-184-0-477fb97744681f18","sourceId":"arcgis-184-0","source":"City Owned Fiber Cable \u2014 City_Owned_Fiber_Cable","sourceUrl":"https://services2.arcgis.com/cEct75q6PZi92VC0/arcgis/rest/services/City_Owned_Fiber_Cable/FeatureServer/0","name":"City Owned Fiber Cable \u2014 City_Owned_Fiber_Cable","carrier":"Not published","routeStatus":"Unknown","category":"unknown","evidence":"agency_route","dataDate":null,"metadataModified":"2024-05-23T20:09:20+00:00","retrievedAt":"2026-09-18T02:37:01.742851+00:00","networkType":"Published fiber route; network class not specified","serviceability":"Unconfirmed","routeDiversity":"Unconfirmed","states":["ND"]},"bbox":[-103.616261860961,48.1475607763592,-103.616018223561,48.1489391979895]},{"type":"Feature","geometry":{"type":"MultiLineString","coordinates":[[[-100.767921698,46.8265710800001],[-100.767715053,46.8265705640001],[-100.76769705,46.825832248],[-100.767333924,46.825828346],[-100.76732975,46.8257111730001]],[[-100.794145962,46.8096307230001],[-100.792250023,46.80960673]],[[-100.78957399,46.803754521],[-100.788442104,46.803720646],[-100.788446449,46.803570404],[-100.787844486,46.803568945]],[[-100.794699023,46.795064122],[-100.794648038,46.7982155020001],[-100.794314999,46.7982126330001]],[[-100.768702749,46.8287752410001],[-100.768196236,46.8282342480001],[-100.767940582,46.827691132],[-100.767921698,46.8265710800001]],[[-100.828560237,46.806744114],[-100.829051852,46.8067268560001],[-100.829052056,46.8070166520001]],[[-100.767921698,46.8265710800001],[-100.767931131,46.8262285480001]],[[-100.775634622,46.823493366],[-100.776465862,46.823504789]],[[-100.783863253,46.8094910670001],[-100.785296323,46.80952605]],[[-100.798734771,46.810726313],[-100.795740038,46.810712994],[-100.795761496,46.809675795],[-100.794146191,46.809630362]],[[-100.772670986,46.82818093],[-100.773231928,46.8281795900001],[-100.773237938,46.8280359620001]],[[-100.787838748,46.803573278],[-100.787813744,46.804585554],[-100.787607139,46.8045847980001],[-100.787604048,46.8046803060001]],[[-100.828437995,46.806739087],[-100.828435261,46.8067011210001]],[[-100.776465862,46.823504789],[-100.780338969,46.8235006830001],[-100.780789673,46.8237314420001],[-100.784258114,46.8237396480001],[-100.786265435,46.823740301],[-100.786265981,46.823508507],[-100.794310995,46.823527674]],[[-100.774614233,46.8094001630001],[-100.779321564,46.809438678]],[[-100.768702749,46.8287752410001],[-100.768825484,46.8288903160001]],[[-100.773237938,46.8280359620001],[-100.773361999,46.8261150330001],[-100.774393119,46.824468712],[-100.774759289,46.8234987760001],[-100.775634622,46.823493366]],[[-100.785516132,46.8063830130001],[-100.785515712,46.8065203080001],[-100.787428152,46.8065648730001],[-100.78755923,46.806645873]],[[-100.774561326,46.8175181920001],[-100.773853815,46.8175109680001],[-100.773860869,46.816565102],[-100.774455673,46.8165654210001],[-100.774463477,46.8162913090001]],[[-100.794146191,46.809630362],[-100.794077488,46.8142189230001],[-100.794412087,46.8142149940001]],[[-100.816327531,46.8087996150001],[-100.816351697,46.809166716],[-100.814987718,46.809312978],[-100.814338285,46.8091668640001],[-100.813127688,46.8091452830001]],[[-100.794386972,46.8155062280001],[-100.794412087,46.8142149940001]],[[-100.823045529,46.8075154250001],[-100.823240846,46.808039944],[-100.822522305,46.8080680250001],[-100.822231768,46.8078596760001],[-100.821781033,46.8078909750001],[-100.82170318,46.807605892]],[[-100.813127688,46.8091452830001],[-100.804479587,46.809122183],[-100.803836323,46.8089994860001],[-100.802979405,46.808668045],[-100.80202168,46.808796471],[-100.802019816,46.8091088730001]],[[-100.773984157,46.823503429],[-100.775613556,46.8220890600001],[-100.77541668,46.822031612]],[[-100.829052056,46.8070166520001],[-100.827914752,46.80705648],[-100.827926006,46.8072001150001],[-100.823045529,46.8075154250001]],[[-100.772244077,46.82542948],[-100.772255622,46.8239497170001]],[[-100.828435261,46.8067011210001],[-100.828429069,46.8066166050001],[-100.829052719,46.806594283],[-100.829053111,46.8008905410001],[-100.827584726,46.800892718],[-100.827584271,46.8006628310001],[-100.827006408,46.7998933040001],[-100.825663927,46.7992765340001],[-100.823562608,46.79857544],[-100.822849547,46.798074693],[-100.822614683,46.7986115],[-100.821399075,46.796894202],[-100.815602751,46.795472418],[-100.813668875,46.7951422240001],[-100.8119186,46.794972751],[-100.810552567,46.7948985510001],[-100.810545508,46.7949949170001],[-100.794699022,46.7950641240001]],[[-100.794314999,46.7982126330001],[-100.794269351,46.8037497830001],[-100.79135294,46.8037628170001]],[[-100.802019816,46.8091088730001],[-100.801985085,46.8107626010001],[-100.798734399,46.810726316]],[[-100.828560237,46.806744114],[-100.828438001,46.8067390890001]],[[-100.787488285,46.809547594],[-100.785296323,46.80952605]],[[-100.779321559,46.809438674],[-100.780135183,46.8094476430001],[-100.780159747,46.8085853010001],[-100.782898276,46.808627524],[-100.782881345,46.809481953],[-100.783863254,46.8094910670001]],[[-100.77541668,46.822031612],[-100.775451601,46.8175055130001],[-100.774561326,46.8175181920001]],[[-100.785150013,46.806639053],[-100.785153867,46.806378362],[-100.785516132,46.8063830130001]],[[-100.78531391,46.808750322],[-100.785340731,46.807243729],[-100.785169064,46.806733095]],[[-100.774463477,46.8162913090001],[-100.774768027,46.809544966],[-100.774614227,46.8094001600001]],[[-100.82170318,46.807605892],[-100.816958288,46.808750041],[-100.816327531,46.8087996150001]],[[-100.768825484,46.8288903160001],[-100.770241732,46.8283078170001],[-100.771170818,46.828177635],[-100.772670986,46.82818093]],[[-100.776186815,46.8240389970001],[-100.776267285,46.824148192],[-100.776487094,46.824140938],[-100.776465862,46.823504789]],[[-100.794310995,46.823527674],[-100.794386972,46.8155062280001]],[[-100.767931131,46.8262285480001],[-100.772234121,46.8262479320001],[-100.772244082,46.8254294810001]],[[-100.79135294,46.8037628170001],[-100.78957399,46.803754521]],[[-100.78755923,46.806645873],[-100.787488285,46.809547594]],[[-100.776007362,46.8240288590001],[-100.775996484,46.823879205],[-100.775514706,46.8238853660001],[-100.775520156,46.823509632],[-100.775634622,46.823493366]],[[-100.767931131,46.8262285480001],[-100.767944831,46.8256888000001],[-100.767328099,46.825681649]],[[-100.772255622,46.8239497170001],[-100.772259193,46.8234920240001],[-100.773984157,46.8235034310001]],[[-100.787603708,46.8046821450001],[-100.787559227,46.8066458710001]],[[-100.785296323,46.80952605],[-100.78531391,46.808750323]],[[-100.792250023,46.80960673],[-100.787487457,46.8095480420001]]]},"properties":{"id":"uniti-wholesale-dark-20260919-83f1114d152f7c2a8915","sourceId":"uniti-wholesale-dark-20260919","source":"Uniti Wholesale published dark-fiber network","sourceUrl":"https://www.unitiwholesale.com/network-map/","name":"Uniti Wholesale published dark-fiber network","carrier":"Uniti Wholesale","category":"unknown","routeStatus":"Publisher labels dark fiber; operating status and available strands unconfirmed","evidence":"publisher_route","geometryQuality":"publisher_geometry_unverified","dataDate":null,"metadataModified":"2025-06-12T22:27:17+00:00","retrievedAt":"2026-09-19T14:15:30.154436+00:00","networkType":"Carrier-published geometry; may overlap other network layers; physical diversity unconfirmed","serviceability":"Unconfirmed","routeDiversity":"Unconfirmed","states":["ND"],"publishedLineParts":50,"importBatch":"20260919-parcel","sourceRecordIds":["166459","166931","167091","167327","168219","168503","168552","169343","169347","174770","175991","177728","178097","179030","179031","181199","181246","182244","187457","190579","191749","192758","196266","196309","196592","196793","197194","197201","199255","201407","201438","201447","202991","203061","203586","209885","212068","212073","212500","217607","219513","220097","222151","227414","228911","233847","233872","234794","239477","240265"]},"bbox":[-100.829053111,46.7948985510001,-100.767328099,46.8288903160001]},{"type":"Feature","geometry":{"type":"MultiLineString","coordinates":[[[-96.784577524,46.877932727],[-96.7853058109999,46.877931937]],[[-96.818607774,46.795667197],[-96.818737506,46.795671422],[-96.818397084,46.8036192060001],[-96.818716201,46.803734439]],[[-96.784577524,46.877932727],[-96.784578513,46.880011745]],[[-96.798446611,46.871860032],[-96.798450168,46.872310154]],[[-96.791364808,46.8472665790001],[-96.7881054759999,46.8473157540001],[-96.7879486689999,46.854839159],[-96.788062703,46.855365206],[-96.788100566,46.8576492880001],[-96.787807866,46.859749998]],[[-96.8065316299999,46.8657584870001],[-96.8013714859999,46.865846564]],[[-96.827880147,46.878192283],[-96.827968047,46.877839286],[-96.827979361,46.8779124260001]],[[-96.784577524,46.877932727],[-96.785184495,46.8779131160001],[-96.785165563,46.877460586]],[[-96.787784694,46.8653255250001],[-96.78783662,46.8641999870001],[-96.787981894,46.8640496830001],[-96.788039634,46.863470632],[-96.787959247,46.861826062]],[[-96.819295446,46.8180783390001],[-96.819159516,46.813280197],[-96.819003953,46.8131722],[-96.818716201,46.803734439]],[[-96.8268741269999,46.868174681],[-96.826809502,46.8681274140001]],[[-96.7852891649999,46.8771608710001],[-96.785291537,46.8768507190001],[-96.784563312,46.876850534]],[[-96.798450168,46.872310154],[-96.798463273,46.8741647090001]],[[-96.7836701099999,46.880744011],[-96.783731979,46.8808241630001],[-96.7833212099999,46.8808230780001],[-96.78307373,46.8854991420001]],[[-96.7949724919999,46.8775254810001],[-96.7981298829999,46.8774392920001]],[[-96.7981298829999,46.8774392920001],[-96.807223601,46.8774730330001]],[[-96.7882886039999,46.897645353],[-96.787834087,46.89763994],[-96.787719726,46.888997772],[-96.786795265,46.888963108]],[[-96.826809502,46.8681274140001],[-96.825414238,46.8690497480001],[-96.8251655619999,46.8688962640001],[-96.8249322089999,46.869010873],[-96.825019239,46.869115778],[-96.824826257,46.869372118],[-96.824308596,46.8696765140001],[-96.8238338479999,46.869799373],[-96.823638043,46.869964404],[-96.823959911,46.8700799260001],[-96.8233646739999,46.8706834110001]],[[-96.821075872,46.8779789370001],[-96.82242502,46.8779097250001],[-96.8246284049999,46.877973738]],[[-96.811708611,46.8773807980001],[-96.816552367,46.87767899]],[[-96.783191084,46.876430269],[-96.783229342,46.8758043230001]],[[-96.8246284049999,46.877973738],[-96.827880147,46.878192283]],[[-96.783028733,46.8758554360001],[-96.7830534,46.8770165930001],[-96.785240188,46.8770405660001]],[[-96.790738561,46.9146244250001],[-96.790693878,46.915757397],[-96.790304528,46.915760149]],[[-96.783028738,46.8758554390001],[-96.783027009,46.875802058],[-96.783229342,46.8758043230001]],[[-96.7830637499999,46.8883482690001],[-96.7830809279999,46.8889074630001],[-96.783398255,46.8889126600001]],[[-96.786521161,46.9021461900001],[-96.7864162,46.9021439680001],[-96.785995451,46.9017292840001],[-96.786004738,46.9013513130001],[-96.7876804589999,46.9013762120001],[-96.7875657499999,46.902020045]],[[-96.7830637449999,46.888348266],[-96.78303758,46.8884348300001],[-96.7818091299999,46.888412832],[-96.7818077899999,46.887940814],[-96.782371052,46.8879453960001],[-96.78242872,46.8878500760001]],[[-96.793936356,46.889064239],[-96.7939671619999,46.888326541],[-96.7941542569999,46.88832469]],[[-96.7903045309999,46.9157601480001],[-96.7875131479999,46.9157831700001],[-96.787353401,46.9155519770001],[-96.7873862869999,46.9143309780001]],[[-96.790784689,46.8976750080001],[-96.7882886039999,46.897645353]],[[-96.791894874,46.876037576],[-96.791507678,46.8772745220001],[-96.793083113,46.8774484860001],[-96.7940231969999,46.877444622],[-96.794260906,46.8772900700001],[-96.794789618,46.8772948650001],[-96.7949724919999,46.8775254810001]],[[-96.819121347,46.877890936],[-96.819569144,46.8777474660001],[-96.819770376,46.8767332300001],[-96.819864185,46.875228717],[-96.819861508,46.874212932],[-96.81968342,46.8739413970001],[-96.81961401,46.8730593010001],[-96.81969614,46.867657767],[-96.824928022,46.8677087730001],[-96.824943038,46.8686046570001],[-96.8252193289999,46.8688928810001],[-96.826734373,46.867876917],[-96.8269206749999,46.868009837],[-96.82687075,46.868057719]],[[-96.7754403499999,46.916006612],[-96.7754632419999,46.9153269230001],[-96.776982267,46.91528422],[-96.781268828,46.915553775],[-96.781503285,46.915476798],[-96.7827776509999,46.913892214],[-96.787440277,46.913898873],[-96.7873862869999,46.9143309780001]],[[-96.787909234,46.865655781],[-96.787773504,46.865648696],[-96.787784694,46.8653255250001]],[[-96.8093236669999,46.818016406],[-96.819295446,46.8180783390001]],[[-96.8216086749999,46.816222134],[-96.8217430829999,46.816314891],[-96.820436419,46.8172537290001],[-96.820407152,46.818070301],[-96.819295446,46.8180783390001]],[[-96.804828109,46.8269642770001],[-96.804829454,46.8275006150001],[-96.802372105,46.83276239],[-96.8022443849999,46.8349378350001],[-96.795406734,46.8349050300001],[-96.795339653,46.8401440380001],[-96.793454571,46.8401230470001],[-96.793500669,46.8472368810001],[-96.791364808,46.8472665790001]],[[-96.784577524,46.877932727],[-96.785377006,46.877951717],[-96.785383641,46.8776872930001],[-96.785288282,46.877682345]],[[-96.798416533,46.866846523],[-96.798410943,46.865859414],[-96.791808442,46.865842839],[-96.787909234,46.865655781]],[[-96.810998608,46.79483407],[-96.8110336669999,46.7948970410001],[-96.8120936,46.7949174830001],[-96.812068014,46.795673219],[-96.8121899929999,46.7958741730001],[-96.813306424,46.7956026080001],[-96.8140072899999,46.7955334330001],[-96.818607774,46.795667197]],[[-96.788669699,46.90495249],[-96.794250883,46.9049071630001]],[[-96.7875657499999,46.902020045],[-96.787497254,46.9049194670001],[-96.788669699,46.90495249]],[[-96.798094814,46.9048862010001],[-96.7980916929999,46.9066989]],[[-96.7873862869999,46.9143309780001],[-96.787460191,46.9057299410001],[-96.787703374,46.90495607],[-96.788669699,46.90495249]],[[-96.7882886039999,46.897645353],[-96.787725349,46.8976648770001],[-96.7875657499999,46.902020045]],[[-96.784578513,46.880011745],[-96.788708003,46.880039326],[-96.790722058,46.8802148990001],[-96.790691645,46.8802961420001],[-96.7962886079999,46.8805647200001]],[[-96.7832293389999,46.87580432],[-96.782986175,46.8757775280001],[-96.783018726,46.8770366780001],[-96.785210434,46.8770322440001]],[[-96.8238844369999,46.883079035],[-96.828121805,46.8830628860001]],[[-96.783229342,46.8758043230001],[-96.78452889,46.875873282],[-96.784524999,46.8759762500001],[-96.791894869,46.8760375790001]],[[-96.803217382,46.8804937790001],[-96.803603385,46.88049117],[-96.8035888909999,46.883104018],[-96.804332121,46.8831008380001]],[[-96.827983949,46.8779559270001],[-96.828058809,46.877953876],[-96.828053591,46.8777581420001],[-96.828326128,46.8778121560001],[-96.828280788,46.8782174520001],[-96.8406368939999,46.8786737400001]],[[-96.784563312,46.876850534],[-96.784577524,46.877932727]],[[-96.798091698,46.9066988990001],[-96.798148612,46.906875219],[-96.799437654,46.9069020580001],[-96.799460228,46.906540012]],[[-96.788175724,46.8673005790001],[-96.7878769159999,46.8673020300001],[-96.787909235,46.865655781]],[[-96.82687075,46.868057719],[-96.826958615,46.8681205870001]],[[-96.784563312,46.876850534],[-96.784566608,46.876456127]],[[-96.787959247,46.861826062],[-96.787807866,46.859749998]],[[-96.8093236669999,46.818016406],[-96.80880396,46.818012244],[-96.8086375,46.817944138],[-96.8052531819999,46.8179229290001],[-96.80547646,46.8188650270001],[-96.805484773,46.8194605750001],[-96.804990341,46.8261082750001],[-96.804828109,46.8269642770001]],[[-96.7895622249999,46.8591563040001],[-96.789762336,46.8591602810001],[-96.789747796,46.859400306],[-96.78953427,46.8594858060001],[-96.7895187229999,46.8596421120001],[-96.788098728,46.8596399900001],[-96.787807865,46.859749994]],[[-96.791364808,46.8472665790001],[-96.791449157,46.84658038],[-96.792235475,46.8465962280001]],[[-96.8013714859999,46.865846564],[-96.801357007,46.866800948],[-96.798416533,46.866846523]],[[-96.798416533,46.866846523],[-96.798446611,46.871860032]],[[-96.837118881,46.8831660770001],[-96.838064241,46.8828575],[-96.839657431,46.8825604020001],[-96.8407556609999,46.8812690310001],[-96.84105726,46.8789053890001],[-96.8406368919999,46.878673742]],[[-96.8103254009999,46.8190543950001],[-96.8093626099999,46.819023309],[-96.8093236669999,46.818016406]],[[-96.8009884569999,46.8261604640001],[-96.801015547,46.826239522],[-96.800694012,46.8262299290001],[-96.800743295,46.827213128],[-96.802359606,46.8271967700001],[-96.804828109,46.8269642770001]],[[-96.798416533,46.866846523],[-96.799748178,46.866791612],[-96.79976127,46.8663110570001]],[[-96.807183779,46.8633887770001],[-96.806528015,46.8633954910001],[-96.8065316299999,46.8657584870001]],[[-96.798463273,46.8741647090001],[-96.7984012209999,46.8764953890001]],[[-96.783398255,46.8889126600001],[-96.786795265,46.888963108]],[[-96.785210434,46.8770322440001],[-96.7851655599999,46.87746059]],[[-96.784566608,46.876456127],[-96.783191084,46.876430269]],[[-96.786795265,46.888963108],[-96.793936356,46.889064239]],[[-96.783073729,46.885499139],[-96.7830637499999,46.8883482690001]],[[-96.816552367,46.87767899],[-96.8190760959999,46.8778353100001],[-96.819121351,46.877890935]],[[-96.819121351,46.877890935],[-96.819593284,46.87782172],[-96.821014852,46.877908808],[-96.821075872,46.8779789370001]],[[-96.7999167359999,46.8719274530001],[-96.801329712,46.8720279460001],[-96.804018997,46.871794105],[-96.806668658,46.8718497680001]],[[-96.8091807499999,46.8576801880001],[-96.810032302,46.8576784740001],[-96.810028621,46.8568086920001],[-96.8106164879999,46.8568199380001]],[[-96.7984012209999,46.8764953890001],[-96.798134934,46.8765700230001],[-96.7981298829999,46.8774392920001]],[[-96.797692921,46.8795641020001],[-96.79769136,46.8794774990001],[-96.7981073509999,46.8794789610001],[-96.7981298829999,46.8774392920001]],[[-96.791126886,46.896552968],[-96.791036643,46.896552478],[-96.790952405,46.897681404],[-96.790784688,46.8976750090001]],[[-96.785240188,46.8770405660001],[-96.785242239,46.877583927]],[[-96.8233646799999,46.870683414],[-96.821700116,46.8717991830001]],[[-96.7834995489999,46.880010263],[-96.7832571879999,46.880013198],[-96.7832695439999,46.8807235610001],[-96.783309821,46.8807772920001],[-96.7836701099999,46.880744011]],[[-96.8091807499999,46.8576801880001],[-96.809194355,46.8526393330001],[-96.806816222,46.852635347]],[[-96.784578513,46.880011745],[-96.7834995489999,46.880010263]],[[-96.8091807499999,46.8576801880001],[-96.809172328,46.8634062],[-96.807183779,46.8633887770001]],[[-96.8216990989999,46.8718000060001],[-96.8211623729999,46.8721748940001],[-96.821194604,46.8730884620001],[-96.8213755839999,46.873365069],[-96.8211409149999,46.873428166],[-96.821136305,46.87378922]],[[-96.807223601,46.8774730330001],[-96.81077522,46.8773228910001],[-96.811708611,46.8773807980001]],[[-96.821136305,46.87378922],[-96.821185172,46.877778634],[-96.821075872,46.8779789370001]],[[-96.798446611,46.871860032],[-96.7999167359999,46.8719274530001]],[[-96.79628861,46.880564717],[-96.803217382,46.8804937790001]],[[-96.828121805,46.8830628860001],[-96.832674525,46.883164461],[-96.833444505,46.883283502],[-96.837118881,46.8831660770001]],[[-96.806668658,46.8718497680001],[-96.8071090619999,46.8718405610001],[-96.807124417,46.8712692570001],[-96.808800146,46.871297967]],[[-96.788669698,46.9049524920001],[-96.788754576,46.9040245080001]],[[-96.804332121,46.8831008380001],[-96.8238844369999,46.883079035]],[[-96.826264785,46.8877536460001],[-96.8257927229999,46.8877623060001],[-96.825625648,46.883094424],[-96.828121805,46.8830628860001]],[[-96.794250883,46.9049071630001],[-96.798094814,46.9048862010001]]]},"properties":{"id":"uniti-wholesale-dark-20260919-a4619ce743ecafa904ba","sourceId":"uniti-wholesale-dark-20260919","source":"Uniti Wholesale published dark-fiber network","sourceUrl":"https://www.unitiwholesale.com/network-map/","name":"Uniti Wholesale published dark-fiber network","carrier":"Uniti Wholesale","category":"unknown","routeStatus":"Publisher labels dark fiber; operating status and available strands unconfirmed","evidence":"publisher_route","geometryQuality":"publisher_geometry_unverified","dataDate":null,"metadataModified":"2025-06-12T22:27:17+00:00","retrievedAt":"2026-09-19T14:15:30.154436+00:00","networkType":"Carrier-published geometry; may overlap other network layers; physical diversity unconfirmed","serviceability":"Unconfirmed","routeDiversity":"Unconfirmed","states":["ND"],"publishedLineParts":98,"importBatch":"20260919-parcel","sourceRecordIds":["165714","166621","166622","166623","168346","168489","172452","174453","175308","175366","175890","175992","177403","178095","179032","179033","179332","179871","179873","179876","182798","184432","185172","186514","190145","191239","193500","193516","193637","194821","195274","197055","197794","198586","198589","198592","198593","199129","199159","202625","203958","205727","205728","205729","205731","205733","206590","209334","209362","209363","209883","209884","209886","209887","209888","209889","209891","209893","209894","209897","210405","210409","210417","210420","210421","210422","210423","210424","210425","214035","215147","215284","215285","215286","217358","217398","217914","221132","221211","221227","223090","224488","224490","228253","228257","228415","231144","231778","234126","234784","234860","235153","235154","237209","238287","239553","242970","243549"]},"bbox":[-96.84105726,46.79483407,-96.7754403499999,46.916006612]}]}