{"type":"FeatureCollection","features":[{"type":"Feature","geometry":{"type":"LineString","coordinates":[[-103.618182769817,48.1466402592935],[-103.618231041443,48.1469070955781]]},"properties":{"id":"arcgis-184-0-0115e525be80051e","sourceId":"arcgis-184-0","category":"unknown","states":["ND"],"routeStatus":"Unknown","carrier":"Not published"},"bbox":[-103.618231041443,48.1466402592935,-103.618182769817,48.1469070955781]},{"type":"Feature","geometry":{"type":"LineString","coordinates":[[-103.609397147921,48.1491855527175],[-103.609394626207,48.1471213256404],[-103.618493555787,48.1469434650753]]},"properties":{"id":"arcgis-184-0-19e45d667658083b","sourceId":"arcgis-184-0","category":"unknown","states":["ND"],"routeStatus":"Unknown","carrier":"Not published"},"bbox":[-103.618493555787,48.1469434650753,-103.609393047717,48.1491855527175]},{"type":"Feature","geometry":{"type":"MultiLineString","coordinates":[[[-103.616944393583,48.1467012373009],[-103.6169951478,48.1470026239586],[-103.620744972514,48.1467124143906],[-103.624764912534,48.1463802565392],[-103.625821855892,48.1462957902416],[-103.625849120554,48.1537097057457],[-103.628060655809,48.154127431226],[-103.609605933514,48.1541980238062],[-103.609186531089,48.1492324680617]],[[-103.628060655007,48.15412743175],[-103.636305809836,48.1541439763927],[-103.636353022731,48.1551371758773],[-103.636784239329,48.1560701833611],[-103.638698508816,48.1569510163092]],[[-103.636313326979,48.1543019541186],[-103.637560087114,48.1539413979977]],[[-103.62074497163,48.1467124139664],[-103.620667525444,48.146463990424]],[[-103.624764911858,48.1463802570724],[-103.624772508345,48.1465055045879]]]},"properties":{"id":"arcgis-184-0-8f76ebcfd0a3e297","sourceId":"arcgis-184-0","category":"unknown","states":["ND"],"routeStatus":"Unknown","carrier":"Not published"},"bbox":[-103.638698508816,48.1462957901835,-103.609186531089,48.1569722379694]},{"type":"Feature","geometry":{"type":"LineString","coordinates":[[-103.609397712511,48.1491873052119],[-103.609399486758,48.1492402971125]]},"properties":{"id":"arcgis-184-0-2b951d1469c52c90","sourceId":"arcgis-184-0","category":"unknown","states":["ND"],"routeStatus":"Unknown","carrier":"Not published"},"bbox":[-103.609399486758,48.1491873052119,-103.609397712511,48.1492402971125]},{"type":"Feature","geometry":{"type":"LineString","coordinates":[[-103.61584103667,48.1489671986104],[-103.609102910019,48.1491115226168]]},"properties":{"id":"arcgis-184-0-137f6a6e4a39bbd2","sourceId":"arcgis-184-0","category":"unknown","states":["ND"],"routeStatus":"Unknown","carrier":"Not published"},"bbox":[-103.61584103667,48.1489671986104,-103.609102910019,48.1491115226168]},{"type":"Feature","geometry":{"type":"LineString","coordinates":[[-103.616274651965,48.1489388513648],[-103.616261342992,48.1489306382727],[-103.616249059673,48.1489392456719],[-103.616261932215,48.148947764589],[-103.616274651965,48.1489388513648]]},"properties":{"id":"arcgis-184-0-e3f4f2f46a155252","sourceId":"arcgis-184-0","category":"unknown","states":["ND"],"routeStatus":"Unknown","carrier":"Not published"},"bbox":[-103.61627466225,48.1489306313901,-103.616249059673,48.148947764589]},{"type":"Feature","geometry":{"type":"LineString","coordinates":[[-103.615853827683,48.1489668520325],[-103.615840518771,48.1489586388918],[-103.615828235374,48.148967246246],[-103.61584155457,48.1489757583291],[-103.615853827683,48.1489668520325]]},"properties":{"id":"arcgis-184-0-a9dd2f7078d78057","sourceId":"arcgis-184-0","category":"unknown","states":["ND"],"routeStatus":"Unknown","carrier":"Not published"},"bbox":[-103.615853837966,48.1489586320108,-103.615828235374,48.1489757652101]},{"type":"Feature","geometry":{"type":"LineString","coordinates":[[-103.616261860961,48.1489391979895],[-103.615901074406,48.1494321807342]]},"properties":{"id":"arcgis-184-0-bc2c0eccf40b7680","sourceId":"arcgis-184-0","category":"unknown","states":["ND"],"routeStatus":"Unknown","carrier":"Not published"},"bbox":[-103.616261860961,48.1489391979895,-103.61584103667,48.1494321807342]},{"type":"Feature","geometry":{"type":"LineString","coordinates":[[-103.618485942673,48.1472585510011],[-103.616018223561,48.1475607763592]]},"properties":{"id":"arcgis-184-0-e37f3c81e84cfe77","sourceId":"arcgis-184-0","category":"unknown","states":["ND"],"routeStatus":"Unknown","carrier":"Not published"},"bbox":[-103.618485942673,48.1472585510011,-103.616017665595,48.1475607763592]},{"type":"Feature","geometry":{"type":"LineString","coordinates":[[-103.618498733244,48.147258204129],[-103.618485871051,48.1472499844002],[-103.618473141804,48.1472585989309],[-103.618486014294,48.147267117602],[-103.618498733244,48.147258204129]]},"properties":{"id":"arcgis-184-0-df244f052e40b34d","sourceId":"arcgis-184-0","category":"unknown","states":["ND"],"routeStatus":"Unknown","carrier":"Not published"},"bbox":[-103.618498743542,48.1472499844002,-103.618473141804,48.147267117602]},{"type":"Feature","geometry":{"type":"LineString","coordinates":[[-103.616018223561,48.1475607763592],[-103.616261860961,48.1489391979895]]},"properties":{"id":"arcgis-184-0-477fb97744681f18","sourceId":"arcgis-184-0","category":"unknown","states":["ND"],"routeStatus":"Unknown","carrier":"Not published"},"bbox":[-103.616261860961,48.1475607763592,-103.616018223561,48.1489391979895]}]}