{"type":"FeatureCollection","features":[{"type":"Feature","geometry":{"type":"MultiLineString","coordinates":[[[-74.495587,40.561369],[-74.500046,40.566728],[-74.376929,40.645263],[-74.212118,40.667643],[-74.205644,40.666956],[-74.200383,40.665022],[-74.193008,40.661566],[-74.184658,40.65833]],[[-74.53313,40.559926],[-74.42204,40.561526],[-74.399783,40.54818],[-74.342894,40.553133],[-74.309232,40.561844],[-74.297373,40.55949],[-74.279738,40.572405],[-74.259127,40.569973],[-74.253487,40.584361],[-74.240695,40.582389],[-74.201398,40.647457],[-74.185334,40.657752],[-74.184716,40.65838],[-74.180977,40.661834],[-74.145357,40.71103]]]},"properties":{"id":"fna-member-routes-20260918-acabfd6d088d0cf69159","sourceId":"fna-member-routes-20260918","category":"unknown","states":["NJ"],"routeStatus":"Status not established","carrier":"Resurgence IG","publishedLineParts":2},"bbox":[-74.53313,40.54818,-74.145357,40.71103]},{"type":"Feature","geometry":{"type":"LineString","coordinates":[[-74.008028,40.730982],[-74.001609,40.741064],[-74.00358,40.74186]]},"properties":{"id":"fna-member-routes-20260918-1c1b98f79e4a40d84664","sourceId":"fna-member-routes-20260918","category":"unknown","states":["NJ","NY"],"routeStatus":"Status not established","carrier":"Resurgence IG","publishedLineParts":1},"bbox":[-74.008028,40.730982,-74.001609,40.74186]},{"type":"Feature","geometry":{"type":"LineString","coordinates":[[-74.008792,40.71772],[-74.006499,40.730941],[-74.034271,40.731412],[-74.035896,40.724452],[-74.050978,40.725985],[-74.051484,40.721909],[-74.056158,40.723624],[-74.057778,40.720248],[-74.055859,40.709519],[-74.076541,40.700594],[-74.094233,40.686811],[-74.150034,40.71253],[-74.167281,40.715158],[-74.189809,40.711637],[-74.282874,40.657277],[-74.375847,40.590044],[-74.379205,40.580584],[-74.38432,40.576239],[-74.395237,40.574878],[-74.431996,40.581821],[-74.458597,40.576828],[-74.477609,40.579989],[-74.50642,40.563184],[-74.531385,40.560518],[-74.687054,40.515445],[-74.723114,40.51069],[-74.762008,40.511802],[-74.774465,40.50555],[-74.788995,40.516774],[-74.837652,40.530032],[-74.856935,40.554365],[-74.85951,40.564612],[-74.869482,40.579079],[-74.883672,40.583706],[-74.894285,40.598712],[-74.945613,40.621856],[-74.963593,40.623196],[-74.972962,40.629537],[-74.992771,40.635427],[-75.01705,40.637259],[-75.033181,40.654349],[-75.03488,40.662257],[-75.056284,40.659635],[-75.109732,40.640313],[-75.114646,40.649291],[-75.136474,40.649043],[-75.154787,40.660138],[-75.16594,40.674264],[-75.177705,40.68286],[-75.208106,40.686435],[-75.227792,40.680548],[-75.237259,40.663435],[-75.250445,40.651411],[-75.272972,40.641964],[-75.296454,40.638323],[-75.309789,40.629893],[-75.328615,40.631459],[-75.336647,40.619012],[-75.404891,40.613899],[-75.417576,40.617619],[-75.442902,40.601217],[-75.459037,40.598497],[-75.461084,40.58868],[-75.473876,40.580784],[-75.48887,40.552446],[-75.48564,40.538132],[-75.514643,40.524131],[-75.536566,40.522253],[-75.574222,40.512693],[-75.619928,40.509408],[-75.641318,40.50183],[-75.667745,40.506937],[-75.716928,40.503069],[-75.737308,40.48972],[-75.793503,40.466415],[-75.816704,40.452636],[-75.881092,40.439917],[-75.915479,40.427524],[-75.930428,40.414294],[-75.932817,40.373855],[-75.94082,40.351205],[-75.947904,40.347127],[-75.9457,40.341001],[-75.980307,40.327999],[-76.043136,40.320779],[-76.097321,40.330279],[-76.153144,40.355901],[-76.197974,40.353233],[-76.243067,40.361052],[-76.265403,40.3597],[-76.284346,40.36518],[-76.32498,40.36457],[-76.361294,40.350821],[-76.400939,40.345151],[-76.455881,40.34306],[-76.557388,40.326236],[-76.637735,40.299753],[-76.651943,40.286308],[-76.698984,40.268116],[-76.731973,40.266622],[-76.743647,40.268875],[-76.807264,40.254991],[-76.874174,40.25859],[-76.884907,40.247071]]},"properties":{"id":"fna-member-routes-20260918-8f1ef002a11c5098b5f5","sourceId":"fna-member-routes-20260918","category":"unknown","states":["NJ","PA"],"routeStatus":"Status not established","carrier":"Resurgence IG","publishedLineParts":1},"bbox":[-76.884907,40.247071,-74.006499,40.731412]}]}