{"type":"FeatureCollection","features":[{"type":"Feature","geometry":{"type":"LineString","coordinates":[[-108.960108,32.236555],[-108.972589,32.230429],[-109.026147,32.223494],[-109.087874,32.240211],[-109.10822,32.241747],[-109.589528,32.352275],[-109.608021,32.3532]]},"properties":{"id":"fna-member-routes-20260918-77d2883b3566089ec419","sourceId":"fna-member-routes-20260918","category":"unknown","states":["AZ","NM"],"routeStatus":"Status not established","carrier":"Planters","publishedLineParts":1},"bbox":[-109.608021,32.223395,-108.959715,32.3532]},{"type":"Feature","geometry":{"type":"MultiLineString","coordinates":[[[-104.8271526176,31.0503428702716],[-104.826983302237,31.0500783338706],[-104.828169487145,31.0496112760097],[-104.827523981138,31.045519360618],[-104.822568185023,31.0448372212608],[-104.822211502652,31.0415380242426],[-104.767606460384,31.045734448986],[-104.742066739714,31.0432320778294],[-104.509063030164,31.0621429967077],[-104.413778814216,31.0740692850878],[-104.285207971877,31.0628021117302],[-104.218012623186,31.0673560772281],[-104.215213699136,31.0956992376605],[-104.210565252612,31.1018723666707],[-104.213024430228,31.1100747799858],[-104.205921911214,31.1225386158233],[-104.205710559187,31.1367365758944],[-104.214364731005,31.1557877513012],[-104.245182026122,31.1826981561385],[-104.244495810263,31.1908855886855],[-104.248744761607,31.1983197438308],[-104.245753234268,31.2091454861624],[-104.248193166378,31.2143211846323],[-104.231601433997,31.2292142309349],[-104.223330061271,31.2423078867609],[-104.219093753715,31.2620307160539],[-104.219558023715,31.2868006630287],[-104.207011299058,31.2961246892701],[-104.195577232203,31.295767185779],[-104.174445269747,31.2857965878485],[-104.164296393823,31.285139046028],[-104.149102609806,31.2784810000757],[-104.13788535404,31.2682467607497],[-104.116660383613,31.2677712097443],[-103.974126952253,31.3100607416692],[-103.797742186566,31.3145577129632],[-103.788768182168,31.3109744611563],[-103.742460458666,31.3389666358242],[-103.71020458169,31.3525918498686],[-103.558081210668,31.4053760428089],[-103.549974543151,31.4064749343079],[-103.526040820664,31.4006018160739],[-103.521706942593,31.3999832431062],[-103.521921252773,31.3978403589112],[-103.509100323663,31.3967605819287],[-103.507594352886,31.3989520868988]],[[-104.827163716285,31.0503472500632],[-104.835856318929,31.0489124469456],[-104.832615439929,31.0372638459406],[-104.88858538783,31.0373949228343],[-104.953435502114,31.0552041463609],[-104.963563011609,31.0610408986753],[-104.981780919233,31.062994670169],[-105.006526528293,31.0733595122707]],[[-105.006526528293,31.0733595122707],[-105.006501900082,31.0734068296487],[-105.006530276065,31.0734707847822],[-105.006557107844,31.0734068196464],[-105.006526528293,31.0733595122707]],[[-105.006526528293,31.0733595122707],[-105.048059379073,31.0887337992607],[-105.140920851277,31.111739245158],[-105.35985448389,31.1774171297711],[-105.430455718624,31.1924996038898],[-105.453604233602,31.1996376382164],[-105.469705049257,31.2114511861472],[-105.483510330695,31.2168295728129],[-105.53058003756,31.1917906890207]],[[-105.53058003756,31.1917906890207],[-105.530517099795,31.1917627541965],[-105.530580322326,31.1917076207025],[-105.530644355138,31.1917619703738],[-105.53058003756,31.1917906890207]],[[-105.53058003756,31.1917906890207],[-105.545367954647,31.1954705366646],[-105.590354733371,31.1975986848727],[-105.608259914987,31.1923680009822],[-105.621160925311,31.1833051378049],[-105.659549786682,31.171661780971],[-105.708854448075,31.1782360300338],[-105.782661302036,31.2338808569001],[-105.786586461924,31.2391778732124],[-105.795196664802,31.2726513696746],[-105.799694126086,31.278599373024],[-105.836795297413,31.3030576712672],[-105.836832944909,31.302885351094],[-105.8374349491,31.3021131566318],[-105.839132984176,31.3026568381563],[-105.840833486025,31.3020978177872],[-105.841081216228,31.3020468397516],[-105.841363848674,31.3021010399886],[-105.843234204876,31.2989861106662],[-105.8465608119,31.2958787751765]],[[-105.84964702167,31.292995989936],[-105.851708068647,31.2910707952753],[-105.851353841371,31.2907587220346],[-105.851350040599,31.290659348324],[-105.851421203339,31.290593639807],[-105.851748226933,31.2910692062477],[-105.84964702167,31.292995989936]],[[-105.84964702167,31.292995989936],[-105.847057927002,31.2954061238231],[-105.8465608119,31.2958787751765]],[[-105.8465608119,31.2958787751765],[-105.84964702167,31.292995989936]],[[-105.8465608119,31.2958787751765],[-105.841376199611,31.3021329887471],[-105.841083953395,31.3020811011762],[-105.83961868708,31.3025885221849],[-105.838944972177,31.3026843901912],[-105.8374860309,31.3021425732191],[-105.83828610912,31.3053996690994],[-105.879333193215,31.3304514000827],[-105.923666725149,31.3818867290004],[-106.020183327259,31.4361784338589],[-106.060816556604,31.4730590780675],[-106.121214614052,31.5077942478104],[-106.163369033432,31.5643828551271],[-106.194116102751,31.5993884937384],[-106.191817528636,31.6012949230834],[-106.238543678414,31.661813975768],[-106.281655817769,31.699846591821],[-106.278237955387,31.7030212306775],[-106.279881921764,31.705587042639],[-106.299114842115,31.6867257312078],[-106.333678341037,31.6740665721155],[-106.338383593426,31.6766089572699],[-106.348271143146,31.6979199740309],[-106.372055888128,31.7146898452689],[-106.378124136331,31.7313994757707],[-106.416936787819,31.7529314477289],[-106.434683308989,31.7559424028166],[-106.452855403432,31.7656942426993],[-106.468043429248,31.7605938088497],[-106.473627232188,31.7512832358318],[-106.487146811637,31.7487007563382],[-106.488456160063,31.7524938708987]],[[-103.507594352886,31.3989520868988],[-103.507516094353,31.3988905853215],[-103.507593642319,31.3989552260399]],[[-103.507594352886,31.3989520868988],[-103.507593642319,31.3989552260399]],[[-103.507593642319,31.3989552260399],[-103.506974032945,31.4015499256721]],[[-103.506974032945,31.4015499256721],[-103.507608029736,31.3989628346612],[-103.507594352886,31.3989520868988]],[[-103.506974032945,31.4015499256721],[-103.501923481635,31.4145618903307],[-103.505732300711,31.4187138809524],[-103.473992240863,31.4346703639675],[-103.120239301289,31.5327659316651],[-103.152455065792,31.6175391910248],[-103.137276317776,31.6483577791451],[-103.158891438209,31.70711281283],[-103.163783131444,31.744551974977],[-103.151979777057,31.7492734918078],[-103.152770299897,31.7542840731124],[-103.157799445251,31.7520070103157],[-103.158721257768,31.7541951358328],[-103.151493064446,31.7640789778957],[-103.12086760905,31.8366126329476],[-103.09432141863,31.845397765279],[-103.118199762675,31.9097201237223],[-103.110467908227,31.9369897688397],[-103.113376117721,31.9464939053796]],[[-106.488456160063,31.7524938708987],[-106.492257088337,31.7545720368831]],[[-106.488456160063,31.7524938708987],[-106.48917126125,31.7549797001935],[-106.492257088337,31.7545720368831]],[[-106.492257088337,31.7545720368831],[-106.493256005949,31.7553685490925]],[[-106.492257088337,31.7545720368831],[-106.492935087306,31.7564473172427]],[[-106.49324155565,31.7553736607104],[-106.492935087306,31.7564473172427]],[[-106.492935087306,31.7564473172427],[-106.493591841118,31.7578519738362],[-106.492886036596,31.7579421862353],[-106.491365630791,31.7589787422129]],[[-106.492935087306,31.7564473172427],[-106.491240771255,31.7590585916726]],[[-106.491365630791,31.7589787422129],[-106.491284788704,31.7590304422272]],[[-106.491365630791,31.7589787422129],[-106.503962804835,31.7612953010206],[-106.515599396871,31.7761851876579],[-106.523900025031,31.8079237682923],[-106.542690652666,31.8101605982559],[-106.567956338665,31.8346917548668],[-106.582235126581,31.8884980520924],[-106.583067809154,32.0122492920795],[-106.637939501941,32.1265870840781],[-106.668460562321,32.1743094758519],[-106.727680233136,32.2554331171747],[-106.735888162345,32.2798918037814],[-106.739271212315,32.2780905673361],[-106.7402826749,32.2819607253334],[-106.754994257646,32.2791693667808],[-106.756375076036,32.2841646426515],[-106.767998472718,32.2820724072951],[-106.782702604837,32.3001092477231]],[[-106.491284788704,31.7590304422272],[-106.491277821371,31.7590231997816],[-106.491365630791,31.7589787422129]],[[-106.491284788704,31.7590304422272],[-106.491240771255,31.7590585916726]],[[-106.491240771255,31.7590585916726],[-106.488831138422,31.7605995930841]],[[-106.491240771255,31.7590585916726],[-106.489208689556,31.7608509369288]],[[-106.488831138422,31.7605995930841],[-106.48852432243,31.7605297827815],[-106.488362729883,31.7606320269516]],[[-106.488831138422,31.7605995930841],[-106.488660124344,31.7607101113798]],[[-106.489208689556,31.7608509369288],[-106.491284788704,31.7590304422272]],[[-106.489208689556,31.7608509369288],[-106.489109609872,31.76091903609],[-106.489105312331,31.7609141057977]],[[-106.489105312331,31.7609141057977],[-106.489208689556,31.7608509369288]],[[-106.489105312331,31.7609141057977],[-106.488831138422,31.7605995930841]],[[-106.488885151425,31.7610486358526],[-106.489105312331,31.7609141057977]],[[-105.958326483943,31.8643662743318],[-105.958139917333,31.8643928169872]],[[-105.958326483943,31.8643662743318],[-105.958430772958,31.8643991493815],[-105.958450465826,31.8645304472845],[-105.958445146002,31.8643914337786],[-105.958326483943,31.8643662743318]],[[-105.958139917333,31.8643928169872],[-105.958218616041,31.8606319982671],[-105.963627342722,31.858991507641],[-105.971177632379,31.8407014001124],[-105.979788982406,31.8419458972297],[-105.989442487756,31.8386439999616],[-105.996512285636,31.8291824826917],[-106.046678113383,31.838914547686],[-106.058025606899,31.8338990481631],[-106.140762334622,31.823802482017],[-106.142579809698,31.8170210921411],[-106.149141298569,31.8129958878826],[-106.212797871641,31.8129985489702],[-106.281011207382,31.7494525987236],[-106.306346954787,31.7214021021757],[-106.325330594444,31.7395708230771],[-106.349910908103,31.7549599097749],[-106.367495143227,31.7535667030219],[-106.423728823918,31.7679279780654],[-106.4268751202,31.7638313952214],[-106.427611871684,31.7683555029965],[-106.443762869027,31.7671706073115],[-106.443619327227,31.7722010902313],[-106.456774970409,31.7722963771782],[-106.481352302559,31.7585572676667],[-106.480059803833,31.7544520998917],[-106.488456160063,31.7524938708987]],[[-105.958139917333,31.8643928169872],[-105.958179710904,31.8643990990275],[-105.958326483943,31.8643662743318]],[[-104.811733307938,31.8907079908821],[-104.773028023092,31.9139584016621],[-104.752767345614,31.917084204049],[-104.732331729319,31.9309244952779],[-104.711976416122,31.9394332106257],[-104.680798707032,31.9608189559403],[-104.60358980014,31.975989631038],[-104.571190691284,31.989588190218],[-104.535022883909,31.9996855121639],[-104.530872640347,31.9879729777524],[-104.518795464191,31.9772978953323],[-104.50951325231,31.95753683776],[-104.508597327351,31.9389716926319],[-104.501685164939,31.9325447878529],[-104.435152383957,31.9238215688432],[-104.383507708267,31.9123183177135],[-104.346454960625,31.8926481036437],[-104.303862036724,31.8794842532513],[-104.222533610449,31.8477695776837],[-104.220638781444,31.6718399201633],[-104.213175753235,31.6743793403573],[-104.199252316387,31.6681439398595],[-104.187949023576,31.6712904037165],[-104.178263409742,31.6697818010775],[-104.150895960625,31.6800350689252],[-104.144654963698,31.6700417538203],[-104.130380672748,31.672129824343],[-103.99298116983,31.5945749988761],[-103.910235973689,31.5687512502404],[-103.862646009324,31.562968387921],[-103.809790146815,31.5381632748787],[-103.629853971602,31.4652114333805],[-103.591981334295,31.4523621907572],[-103.582523881763,31.4554751786173],[-103.545777137138,31.4101987312139],[-103.536324421423,31.4134609292933],[-103.524355833618,31.4094413297459],[-103.523584320926,31.4003146613397],[-103.520508303442,31.4039236877728],[-103.506974032945,31.4015499256721]],[[-105.200770821417,31.9324666383364],[-105.201286269337,31.9323790642636],[-105.201406569923,31.8957215893472],[-105.201248374805,31.7478374072159],[-105.202414234432,31.7469150983756],[-105.285889133875,31.7469071307955],[-105.713981938292,31.8217845107928],[-105.781105389421,31.8469006330132],[-105.793059618555,31.8486428186429],[-105.830534379446,31.8455046933208],[-105.84446734203,31.8374044387046],[-105.878587039065,31.827206803802],[-105.887350321155,31.8274199043327],[-105.887720993889,31.824908030206],[-105.936426019949,31.8267608361339],[-105.946112362316,31.8287293890931],[-105.945492329836,31.8572026030257],[-105.953125294144,31.8571921056902],[-105.958139917333,31.8643928169872]],[[-105.200770821417,31.9324666383364],[-105.195200307255,31.9311883230501],[-105.195141727217,31.9236521057338],[-105.166316238732,31.9236396953634],[-105.16568591605,31.8616197372907],[-105.148372198692,31.861688252021],[-105.146469246222,31.8139218249384],[-105.077432928815,31.8124733216206],[-105.075516762126,31.745611499193],[-105.079983598944,31.7447551219013],[-104.907125969405,31.7652772552661],[-104.879674598776,31.7843722840242],[-104.849263111301,31.7986958420754],[-104.829582405933,31.8164839193328],[-104.82983539667,31.8361950068739],[-104.815014244613,31.850006002361],[-104.811994836263,31.8566138347922],[-104.815019372196,31.8674337360543],[-104.822766929195,31.8780711337402],[-104.822005036562,31.8899419890645],[-104.818537376072,31.8926696378583],[-104.811814285671,31.8906874393565]],[[-105.200770821417,31.9324666383364],[-105.200772725845,31.9324528858504],[-105.200753457881,31.9324151612285],[-105.200770821417,31.9324666383364]],[[-104.483865281953,32.0812750631917],[-104.482137509946,32.0792243289839],[-104.491499485936,32.0794164071622],[-104.508127020672,32.0713405260645],[-104.514326967286,32.0481330432777],[-104.504668154689,32.0310072447122],[-104.506529027376,32.0271490000003],[-104.528572979271,32.0169496119681],[-104.533055395571,32.0191015936993],[-104.532134651151,32.0003152669344],[-104.535018481266,31.9996927562832]],[[-104.359293875803,32.1803875426482],[-104.378790583743,32.1726300698286],[-104.42353423613,32.1093133346253],[-104.448244645605,32.1122415383556],[-104.459581539001,32.1069049001634],[-104.469361492109,32.0955969286635],[-104.48308485438,32.0904651000627],[-104.49076991289,32.0828126178451],[-104.485654498725,32.0811501351549]],[[-104.359293875803,32.1803875426482],[-104.359285066923,32.180379398185]],[[-104.321639655773,32.2086879709643],[-104.359293875803,32.1803875426482]],[[-104.321639655773,32.2086879709643],[-104.321637342611,32.208686231151]],[[-106.782947130749,32.2998297632438],[-106.782702604837,32.3001092477231]],[[-106.782702604837,32.3001092477231],[-106.782986842572,32.3000386371149],[-106.78294621806,32.299803283716]],[[-106.782702604837,32.3001092477231],[-106.843865000132,32.4180909998986],[-106.860633999763,32.4368369998094],[-106.883745000197,32.4550529999162],[-106.896797000252,32.4815739999723],[-106.924712000382,32.4998320001622],[-106.951029999855,32.5039639999034],[-106.960812000224,32.5191880001576],[-106.972962000106,32.5183420001869],[-106.981557999721,32.5242210002324],[-106.984476999778,32.537116999357],[-106.992614999634,32.5417729990649],[-106.99519800013,32.5478750007652],[-106.995737999906,32.6100020001368],[-106.999330000706,32.6174339996276],[-107.012741999713,32.6267430001326],[-107.026401000389,32.6447600002245],[-107.042001998809,32.6537950002125],[-107.053614999289,32.6563019998388],[-107.066391000956,32.6699220003718],[-107.051331999266,32.6797659996855],[-107.037279000202,32.696303000374],[-107.038274000261,32.7151120001743],[-107.029631999717,32.7584510000695],[-107.04087199903,32.7922869997051],[-107.002767999723,32.880277999744],[-107.001153000421,32.9045249996999],[-107.009585999829,32.9442210000495],[-107.007855000176,32.9956380002895],[-107.035386999991,33.1145810001071],[-107.030822999596,33.1414249998876],[-107.034318000312,33.2385319997486],[-107.03085199901,33.2483960001283],[-107.016783999877,33.2640070001448],[-107.015324000385,33.2695930002565],[-107.02645800029,33.2905210002272],[-107.04168999864,33.4305989996576],[-107.028465000128,33.461210000214],[-107.018338999803,33.4700390003261],[-107.014495998933,33.4906169997927],[-107.004690000071,33.5064059998794],[-107.003791000271,33.5136610001243],[-106.990122000447,33.5276679998085],[-106.98153200068,33.544036000243],[-106.98432699999,33.554722999955],[-106.98267300033,33.5765509998671],[-106.973692999677,33.590031999814],[-106.973672999585,33.62234699993],[-106.98770899983,33.6522750000135],[-106.997563000169,33.6599540000368],[-106.999841999993,33.6730540000255],[-106.974091999885,33.698984999957],[-106.946430000373,33.7170679999657],[-106.939371000243,33.7365740002713],[-106.911056000079,33.7609440003732],[-106.900347999248,33.797237999924],[-106.883745000197,33.8285240001493],[-106.87218299977,33.8758679997163],[-106.867353000135,33.9087139997247],[-106.863207000214,33.9172229997229],[-106.872033999808,33.934961999962],[-106.867838000557,33.947690999722],[-106.875926000183,33.9844920002737],[-106.883912050009,34.0609004398349],[-106.89172080294,34.060398571073],[-106.89317125873,34.0686137891628]],[[-104.28965413307,32.429136936855],[-104.289653591386,32.4291503529368]],[[-104.289653591386,32.4291503529368],[-104.27049911462,32.4150194183136],[-104.255117499165,32.4140054601522],[-104.255596408111,32.3850209839251],[-104.267422649775,32.3669353231177],[-104.318652876929,32.3382800403192],[-104.326991861355,32.3266962008638],[-104.333024883921,32.3100648542287],[-104.345494855622,32.2931415691582],[-104.346059577932,32.2909714387383],[-104.327312428757,32.2966444581256],[-104.281302303634,32.2862774869043],[-104.321639655773,32.2086879709643]],[[-104.289653591386,32.4291503529368],[-104.289433599363,32.4308775919638]],[[-104.28972861239,32.4291534563627],[-104.289653591386,32.4291503529368]],[[-104.289433599363,32.4308775919638],[-104.257817595958,32.4288408438625],[-104.258466122101,32.4508940397859],[-104.242197564033,32.4525357497876],[-104.216928294654,32.4497124986573],[-104.217157940872,32.442569637157],[-104.1978012722,32.4426071608015],[-104.188008222553,32.432736169375],[-104.167521508288,32.441524136898],[-104.075220494092,32.5093358087408],[-104.03660855229,32.5294226430997],[-104.025374275245,32.5307135212365],[-103.974325885071,32.5224062966361],[-103.959971305396,32.503331054067],[-103.944928475177,32.492275765747],[-103.941083754033,32.4820931982435],[-103.929194008666,32.4399691247213],[-103.938443805738,32.4228962490887],[-103.925018491901,32.4242894266672],[-103.913274154134,32.4210501847529],[-103.912560465098,32.4098382631316],[-103.880163409791,32.3910678356214],[-103.877011064254,32.3749717813687],[-103.869164671014,32.367669785901],[-103.86095202026,32.3685143962328],[-103.86047681417,32.3302486776449],[-103.828858151751,32.3257193580371],[-103.812109126161,32.3034666046383],[-103.80977727216,32.3043555356735],[-103.696434097393,32.2203015670118],[-103.642602271921,32.2107411538511],[-103.445984643291,32.2102991658373],[-103.415224293279,32.1877688137218],[-103.381775941391,32.1760770171095],[-103.370565892809,32.1660027986475],[-103.343575077646,32.1531257419994],[-103.290523720171,32.1383573921772],[-103.246510971235,32.1373847388502],[-103.222549789945,32.1237362498301],[-103.201756662133,32.120390305877],[-103.201536647652,32.1159589211721],[-103.197637838945,32.1139405597075]],[[-104.289433599363,32.4308775919638],[-104.318726727429,32.4546008929146],[-104.326938516698,32.4843019358609],[-104.36658305575,32.4961299253482],[-104.378643351664,32.51127384571],[-104.396230535958,32.5248670523582],[-104.399073755934,32.5469146451826],[-104.421961159405,32.5851352781679],[-104.421424916385,32.6048783808227],[-104.396231272576,32.6531599920179]],[[-104.396231272576,32.6531599920179],[-104.396249588326,32.6531813018522]],[[-104.396231272576,32.6531599920179],[-104.39595625425,32.6531315998228],[-104.39570301468,32.6559269719607],[-104.395727978862,32.7552112359632],[-104.412498975447,32.7552137479143],[-104.412732986579,32.8134681636276],[-104.429614159737,32.8134782448672],[-104.429868442252,32.8384142177778],[-104.447181022342,32.839038901081],[-104.446964891278,32.8568669547683],[-104.430110011808,32.8575203197663],[-104.42975422326,32.9299250891002],[-104.43910242089,32.9300185466677],[-104.441689382957,33.1146909219687],[-104.466408384817,33.2724471731403],[-104.466601840607,33.3015913768448],[-104.478476683822,33.3111893928581],[-104.47880097564,33.3356006332704],[-104.460635427221,33.3354500361655],[-104.460816716228,33.3832905240824],[-104.469887467386,33.3832326770412],[-104.47002312018,33.4160371791893],[-104.512832342232,33.4159558268809]],[[-104.396259028722,32.653162857028],[-104.396231272576,32.6531599920179]],[[-104.520909718382,33.4070468891148],[-104.5209168537,33.4070482081815]],[[-104.5209168537,33.4070482081815],[-104.520912934351,33.4070469881011]],[[-104.5209168537,33.4070482081815],[-104.521028081302,33.4070687710706]],[[-104.521028081302,33.4070687710706],[-104.520983304777,33.4070688940535],[-104.5209168537,33.4070482081815]],[[-104.521028081302,33.4070687710706],[-104.521090728013,33.4081388137316]],[[-104.521090728013,33.4081388137316],[-104.521101029893,33.4070685700986],[-104.521028081302,33.4070687710706]],[[-104.521090728013,33.4081388137316],[-104.521092089859,33.4087187026552],[-104.520946329221,33.4087185076861]],[[-104.520946329221,33.4087185076861],[-104.521090728013,33.4081388137316]],[[-104.520946329221,33.4087185076861],[-104.518906417806,33.4087157863666],[-104.518902749087,33.4129506178824]],[[-104.518902749087,33.4129506178824],[-104.520946329221,33.4087185076861]],[[-104.518902749087,33.4129506178824],[-104.51890017182,33.4159253362416],[-104.518224756406,33.4159207473484]],[[-104.518224756406,33.4159207473484],[-104.518902749087,33.4129506178824]],[[-104.518224756406,33.4159207473484],[-104.512831093573,33.4158841006792],[-104.512832342232,33.4159558268809]],[[-104.512832342232,33.4159558268809],[-104.518224756406,33.4159207473484]],[[-104.512832342232,33.4159558268809],[-104.512119167033,33.4232722382846],[-104.505914047919,33.423260048756],[-104.506048890433,33.4808776940416],[-104.519183953212,33.4817527658047],[-104.519039503216,33.585049373764],[-104.561188266802,33.6466022609637],[-104.573322632405,33.7432488548773],[-104.577079786673,33.8226331711195],[-104.603092269118,33.9182627519597],[-104.526571381901,34.0895474977277],[-104.462969714758,34.1828814426448],[-104.31968910427,34.2683667921477],[-104.276157422932,34.2894662709377],[-104.269637091274,34.296315011857],[-104.264482686632,34.3102661581695],[-104.263991427648,34.4038143501547],[-104.258729242241,34.4120375976617],[-104.257976552847,34.4614602732726],[-104.260724175908,34.4708069408474],[-104.253538339948,34.4760123848056]],[[-101.84880720713,33.5848869362989],[-101.836489772059,33.5846522093222],[-101.839440215846,33.5862115067642],[-101.847523943085,33.6124495950917],[-101.836564776893,33.6264830040956],[-101.836493975276,33.6707827020479],[-101.839516550187,33.7186511739245],[-101.842373410183,33.7265013293681],[-101.842388781256,33.7376872608791],[-101.837987280705,33.7483396660787],[-101.838370775093,33.8102600987501],[-101.841618752581,33.8382099203373],[-101.854230475739,33.8536306468351],[-101.853512076837,34.050539387779],[-101.844705293828,34.0575550007855],[-101.844064247059,34.0697447410986],[-101.83576491427,34.0763007228554],[-101.78462952226,34.1037340376924],[-101.71481669663,34.1559053809691],[-101.707052979837,34.1707166833397],[-101.707352832988,34.1981429693142],[-101.700638766164,34.1985632399485],[-101.700749002025,34.2025129556413],[-101.707528497643,34.2050908773683],[-101.710051235557,34.2599961496616],[-101.743359569736,34.3379178531415],[-101.777453571361,34.3847733027454],[-101.777555690046,34.4820271199038],[-101.795470954353,34.5173018390259],[-101.79650598963,34.529126307035],[-101.779868812377,34.5293771099803],[-101.776264015076,34.5359348467836],[-101.758709109047,34.5357164781595],[-101.757270976346,34.544299217793],[-101.795357673202,34.5441217243072],[-101.794236363725,34.5745110126752],[-101.830310784039,34.6558773647606],[-101.848470454781,34.7224947656745],[-101.849353932592,34.8023432172858],[-101.851768172884,34.8072968537568],[-101.849368320009,34.8115036166752],[-101.849742317408,34.9430629790725],[-101.919362349307,35.025292248307],[-101.920004790262,35.0727177377461],[-101.910535631784,35.1171647418697],[-101.866782876851,35.1700143531719],[-101.854137218036,35.1764738822236],[-101.841948904109,35.1783596508151],[-101.838552309341,35.1838174787312],[-101.836530960713,35.2045290090519],[-101.856416834105,35.2073499570175],[-102.072728625764,35.2065585951911],[-102.073121270391,35.1980622197852],[-102.080902416297,35.1982737722414],[-102.081191441155,35.1924502412499],[-102.097156805237,35.1928583401003],[-102.168218052855,35.2083094342522],[-102.237512603567,35.2098758242572],[-102.238395787629,35.2077408263438],[-102.39796380194,35.2382826112515],[-102.426920893614,35.2359634780377],[-102.455665513062,35.2491969021472],[-102.582147651991,35.2728808116699],[-102.645346098641,35.2713858502174],[-102.65572014807,35.2676192467419],[-102.722227337847,35.2690891526367],[-102.773891261739,35.2513438013171],[-102.817184794306,35.2438073418448],[-102.862041020869,35.2259931543667],[-102.90263631975,35.2170998272103],[-102.959132562728,35.1924218593552],[-102.983829081553,35.185222094665],[-103.058351965559,35.1756173971801],[-103.109566991422,35.1358376072643],[-103.14196919677,35.1232450622765],[-103.152452770596,35.1233081468755],[-103.170015723733,35.1138471427474],[-103.275096922153,35.1137644800359],[-103.322205111048,35.10599206902],[-103.322338678852,35.1037382429399],[-103.32921831237,35.1036815487788],[-103.329154143014,35.1068823711895]],[[-106.904130040443,34.0677880936562],[-106.90354737698,34.0680293367985],[-106.90354842711,34.0680833963316]],[[-106.90354842711,34.0680833963316],[-106.904049499291,34.0678228130954]],[[-106.90354842711,34.0680833963316],[-106.903549585039,34.0686148517876]],[[-106.89317125873,34.0686137891628],[-106.9003206707,34.0687340643662],[-106.903549585039,34.0686148517876]],[[-106.89317125873,34.0686137891628],[-106.891489638569,34.0734758591724],[-106.921399637045,34.1766626819923]],[[-106.903549585039,34.0686148517876],[-106.903537818905,34.0680889126389],[-106.90354842711,34.0680833963316]],[[-106.903549585039,34.0686148517876],[-106.900332016422,34.0686370731446],[-106.897161171878,34.0685064498494],[-106.89317125873,34.0686137891628]],[[-105.595601840556,34.2488974162437],[-105.597945966443,34.2401118530472],[-105.645402192323,34.2232905686951],[-105.651412714786,34.1800356238432],[-105.675371265809,34.1430413093072],[-105.730012603608,34.1425037472514],[-105.74127246018,34.1461684361355],[-105.767276236152,34.1327962883578],[-105.775594993213,34.124103013275],[-105.782652187729,34.1076961022816],[-105.79147765839,34.1089223811161],[-105.809613047671,34.0999388422788],[-105.816581031394,34.1021802622469],[-105.817017335941,34.0958658493243],[-105.828075415629,34.086421353686],[-105.855188812201,34.0820379058532],[-105.861123860909,34.0853122581065],[-105.880757873645,34.07854447335],[-105.890798604985,34.0818943201024],[-105.906676347395,34.0777620298166],[-105.923003110004,34.0829498017883],[-105.947771574901,34.0740161927387],[-105.955111530322,34.0757589521769],[-105.98080913709,34.0717624509612],[-105.993691115707,34.0846408870666],[-105.993671103039,34.1000034940841],[-106.046203219907,34.0999020412953],[-106.046433279349,34.0830143609207],[-106.049101178725,34.0778023531058],[-106.054445365046,34.0768035413509],[-106.057588563039,34.0631980461726],[-106.063712304669,34.0562508310918],[-106.065099610691,34.0338747210943],[-106.072873561092,34.0340752983045],[-106.079209419215,34.0269801381939],[-106.089181298282,34.0270436247054],[-106.09611936092,34.0193513119339],[-106.11590744371,34.01854818272],[-106.115864027234,34.0133379017263],[-106.127066102371,33.9995890647213],[-106.136074873367,34.002271013216],[-106.174989480047,33.9933813770569],[-106.192005916131,33.997737475364],[-106.212070267702,33.9893666211327],[-106.225765783098,33.9932145658693],[-106.230106515314,33.9999880549042],[-106.246331672177,34.0011703021304],[-106.258121330849,33.990239419266],[-106.262089679939,33.9112818780592],[-106.365259912916,33.9096968646635],[-106.36626829967,33.8972744677574],[-106.372303561736,33.8893819042401],[-106.364721100714,33.8905341838058]],[[-105.595601840556,34.2488974162437],[-105.595573435827,34.2492122210793],[-105.595968843672,34.2489475901926]],[[-105.595968843672,34.2489475901926],[-105.595601840556,34.2488974162437]],[[-105.595993161067,34.2491625470213],[-105.596089943759,34.2491760717457]],[[-105.596089943759,34.2491760717457],[-105.595968843672,34.2489475901926]],[[-105.596089943759,34.2491760717457],[-105.600466362449,34.2591364601998],[-105.626764217201,34.2895693662302],[-105.663259713821,34.3515570266711],[-105.897434032391,34.489454090192],[-105.962533033907,34.509119612205],[-106.018308787603,34.570927297107],[-106.030231795789,34.5958735877545],[-106.071814241657,34.6031407049054],[-106.173511898728,34.5424424410082],[-106.219596575935,34.5269978259219],[-106.229682305684,34.526178511182],[-106.23759519312,34.5203660466663],[-106.244213934319,34.5252345643505],[-106.247111307436,34.5167677251403],[-106.283080158636,34.5006084329153],[-106.296564528617,34.4791239012919],[-106.340320266856,34.4513224987335],[-106.381394939111,34.4383595952522],[-106.396979289054,34.438406238325],[-106.411492368377,34.4269390936344],[-106.446068660206,34.4362741379469],[-106.479927245735,34.407533660915],[-106.508754740158,34.4034630197956],[-106.513132311385,34.4061676648194],[-106.521626540862,34.4299811407249],[-106.534821647932,34.4356715672214],[-106.551496609224,34.4625259399676],[-106.576821622659,34.4839860670059],[-106.578634572023,34.4904477818209],[-106.736045708879,34.6529569388347],[-106.774959702009,34.6627119187374]],[[-103.194477535233,34.4721463397593],[-103.178788151572,34.4704665846415],[-103.178897875394,34.4628403700817],[-103.143417430129,34.4629440009822],[-103.143167572716,34.4484880381761],[-103.108345523384,34.4484083277402],[-103.108775485825,34.3025881322235],[-103.091563644607,34.302598341675],[-103.091135768054,34.2880507479867],[-103.060828341421,34.2880964141963],[-103.061033306426,34.2734194346975],[-103.043872877589,34.2736649493447],[-103.043258930296,34.1128532621482],[-103.02500480799,34.1117296496982],[-103.024615107142,34.0953790359538],[-103.021720239426,34.0927549368378],[-102.910449409747,34.091689044044],[-102.903713151841,34.0841843598136],[-102.905599492665,33.9303143393446],[-102.877011814287,33.931867580239],[-102.878025958344,33.8719093189479],[-102.859460335331,33.8742184030264],[-102.595332782371,33.8731804198018],[-102.595223467283,33.8647357017067],[-102.558091428045,33.8644337807156],[-102.558974934602,33.7871219972769],[-102.400994291009,33.7857098508459],[-102.402111876969,33.6783828557552],[-102.105350162874,33.6748439051663],[-102.105428954107,33.6503708881935],[-101.870643639211,33.6508665546709],[-101.870614710764,33.6358829596592],[-101.855668866257,33.6359211189913],[-101.85802448968,33.6067898903141],[-101.853126857683,33.6067148543721],[-101.853187883834,33.6025116667143],[-101.845116951299,33.5970987587633],[-101.848813575287,33.5848898376788]],[[-103.194477535233,34.4721463397593],[-103.194416045551,34.4723845052869],[-103.196323085356,34.472388536211],[-103.196309940309,34.4774419132454],[-103.214096786852,34.477515770256],[-103.213851541389,34.806943463943],[-103.24969450538,34.8069682351198],[-103.24950223357,34.8217391726598],[-103.320016584149,34.8215788517143],[-103.318374518606,34.9542511901501],[-103.314941682207,34.9601340377443],[-103.3256161112,34.9632879153139],[-103.322538389611,34.9754035556933],[-103.317079008728,34.9786614549695],[-103.318764308388,34.9869766328537],[-103.322945989392,34.9903453508545],[-103.317816655832,34.9950578602976],[-103.321678392864,35.0051385697799],[-103.330755082784,35.0113127861038],[-103.329287146677,35.106766822935]],[[-103.194477535233,34.4721463397593],[-103.196300707424,34.4428592112686],[-103.193938720335,34.4419190321089],[-103.197173578826,34.4390872877892],[-103.197179856253,34.4199663746827],[-103.203380308619,34.4143141817661],[-103.205964004411,34.3986175936803],[-103.240419476429,34.4007741402369],[-103.249339100413,34.4046404270674],[-103.248928272087,34.4776473873211],[-103.266767356563,34.4781625798445],[-103.266478534724,34.4921203867067],[-103.406571168897,34.4927479158534],[-103.407052575159,34.5516119232361],[-103.546089873926,34.5518321027803],[-103.546188213399,34.5956618416907],[-103.563611078758,34.5959559191269],[-103.566414974085,34.6197061846792],[-103.599948829418,34.6196546493357],[-103.598163099007,34.6297708971882],[-103.601494016148,34.6300609458371],[-103.601476301371,34.6341836126885],[-103.759490167358,34.6339986470384],[-103.777101123769,34.6482701446982],[-103.797841473761,34.6458047050493],[-103.811709667812,34.6514821068942],[-103.812501998062,34.6480548608943],[-104.022417987917,34.648188018185],[-104.026143522386,34.6638685970842],[-104.042280224838,34.6697599933281],[-104.049592430402,34.6657859212088]],[[-104.244716787738,34.4722598827638],[-104.24478727764,34.4723239547558],[-104.244765145846,34.4736014030171]],[[-104.244716787738,34.4722598827638],[-104.244770368651,34.4723374138892],[-104.244765145846,34.4736014030171]],[[-104.244765145846,34.4736014030171],[-104.244716787738,34.4722598827638]],[[-104.244765145846,34.4736014030171],[-104.250428488317,34.4736248187648],[-104.253538339948,34.4760123848056]],[[-104.244765145846,34.4736014030171],[-104.253538339948,34.4760123848056]],[[-104.253538339948,34.4760123848056],[-104.268654947902,34.4679485912347],[-104.317839058977,34.4755332382424],[-104.493619738179,34.4699949432349],[-104.577422596362,34.4412184266303],[-104.594543405004,34.4380416960537],[-104.634749231208,34.4422204262465],[-104.68238094837,34.457533526188],[-104.683122207599,34.4388536717745],[-104.701845557708,34.4273642067544],[-104.710591070224,34.4095427557781],[-104.716193173643,34.4043698377123],[-104.717025195056,34.3526125960395],[-104.724913969912,34.3434483153512],[-104.728760643994,34.3158717663097],[-104.716504157818,34.2958775871041],[-104.716116112565,34.2784228442836],[-104.70957725495,34.2722612240543],[-104.741745007196,34.2456914846686],[-104.741939657745,34.2114185868024],[-104.761179699042,34.2061223743479],[-104.77313341434,34.2076489580646],[-104.778984510993,34.1864750169418],[-104.814028200756,34.162818602968],[-104.814205671025,34.1551353052324],[-104.828384591435,34.135410501769],[-104.830410665202,34.1262921168204],[-104.87021506395,34.1715465012392],[-104.899143370907,34.2293322449967],[-104.902959228283,34.2324915777447],[-104.925710630413,34.2323566786546],[-104.929328758714,34.2191724698825],[-104.942739378807,34.2049697277354],[-104.956763735089,34.2035613097058],[-104.972424279236,34.2103256138108],[-104.974281875767,34.2053700396525],[-104.987366490956,34.1948412556293],[-104.990416169836,34.1845525038942],[-104.996063392937,34.1793346228705],[-105.004213881172,34.1528150669677],[-105.0709925562,34.158351892087],[-105.10283993508,34.1512983207663],[-105.198821645235,34.1423791709694],[-105.222633388184,34.1230161270566],[-105.309199976222,34.1158519596813],[-105.340879088072,34.1217953348233],[-105.346147285005,34.1182981253662],[-105.369826485128,34.1278384653482],[-105.411273462356,34.1226738448977],[-105.448238575749,34.1326255561382],[-105.476957809705,34.1576921632844],[-105.513921648389,34.1765227929591],[-105.563609127738,34.2184767718512],[-105.580719833927,34.2272095883352],[-105.592403512955,34.2442471852881],[-105.595947157443,34.2447053629172],[-105.595601840556,34.2488974162437]],[[-106.240549443967,34.5246528910512],[-106.241102312109,34.5938701560132],[-106.274656520571,34.5943011773152],[-106.283954606581,34.5999838651159],[-106.290171076806,34.6088887873696],[-106.333499232241,34.6115847469309],[-106.339344848272,34.6095565111509],[-106.357394878736,34.6133741393231],[-106.34314029323,34.6420020411941],[-106.344943513839,34.647545521051]],[[-105.229117629128,34.5952534377383],[-105.25847936782,34.5830083087436],[-105.419048771009,34.4460062020706],[-105.454121892276,34.419531572653],[-105.480664116634,34.3876780601163],[-105.49465665908,34.376836701134],[-105.562759575703,34.2778468563056],[-105.57088530008,34.274142225659],[-105.576352098353,34.2642082569907],[-105.591245601622,34.2539403210121],[-105.595068108327,34.254494081221],[-105.596089943759,34.2491760717457]],[[-105.229117629128,34.5952534377383],[-105.199241468392,34.5949565019401],[-105.199552662773,34.5998492972449]],[[-106.781514906267,34.5968331279247],[-106.768707152748,34.6574931436926],[-106.768656857871,34.6585996273288],[-106.774783337566,34.6595247312635],[-106.774606603916,34.6604227147215]],[[-105.199552662773,34.5998492972449],[-105.199741903667,34.5999923523633]],[[-105.199552662773,34.5998492972449],[-105.200531026932,34.5976891479469],[-105.214221340183,34.5983750857185],[-105.214227852969,34.6015914628115],[-105.229117629128,34.5952534377383]],[[-106.774606603916,34.6604227147215],[-106.773888613747,34.6596261932897]],[[-106.774606603916,34.6604227147215],[-106.774349071297,34.6617312411054]],[[-106.774349071297,34.6617312411054],[-106.774696035694,34.6604359779329],[-106.774606603916,34.6604227147215]],[[-106.774349071297,34.6617312411054],[-106.774972237999,34.6618601219276]],[[-106.774972237999,34.6618601219276],[-106.774333259151,34.6617786347151],[-106.774349071297,34.6617312411054]],[[-106.774972237999,34.6618601219276],[-106.775174914995,34.661888863803]],[[-106.775174914995,34.661888863803],[-106.775175648021,34.6618860619526],[-106.774972237999,34.6618601219276]],[[-106.775174914995,34.661888863803],[-106.775018407812,34.6626794886711]],[[-106.774959702009,34.6627119187374],[-106.775174914995,34.661888863803]],[[-106.774959702009,34.6627119187374],[-106.796658142981,34.6620142110395],[-106.785152973573,34.7571661060157],[-106.747435975678,34.8467338970992],[-106.729662566134,34.8790192687083],[-106.715054093814,34.9309421337596],[-106.698064545204,34.9471710110251],[-106.660273592605,34.9547483050017],[-106.639807492879,35.0149469792175]],[[-104.049592430402,34.6657859212088],[-104.059195101887,34.6636683062803],[-104.061404801179,34.6485068568407],[-104.085055854389,34.6441822449583],[-104.100445277102,34.6348720812709],[-104.111352587145,34.6190976956579],[-104.123951989011,34.6190360918672],[-104.163797427293,34.6055624408441],[-104.167316695098,34.5825251697659],[-104.181996473889,34.569459152861],[-104.215892972814,34.5126868790339],[-104.219246861674,34.4959016757966],[-104.228528769026,34.4959261447421],[-104.228498375426,34.4909261149054],[-104.236771456748,34.4878949779919],[-104.236718354636,34.4778666131195],[-104.240511249277,34.4778744663512],[-104.240400384594,34.4734528940443],[-104.244765145846,34.4736014030171]],[[-104.049592430402,34.6657859212088],[-104.119000104161,34.7027683313263],[-104.131692752052,34.7031966436659],[-104.180597564328,34.7348155866625],[-104.18053915497,34.7474966508092],[-104.190891533442,34.7635629763688],[-104.233706438236,34.76447169973],[-104.235026573632,34.7685271053418],[-104.250409878817,34.7697197319882],[-104.260088819965,34.7797020919692],[-104.25837310335,34.7860836798021],[-104.282409060404,34.7866681463433],[-104.322043977601,34.8080705928949],[-104.322547562369,34.8164295889711],[-104.32636058017,34.8194167823313],[-104.34435761632,34.8194931097011],[-104.392069306,34.8455122112643],[-104.387687762422,34.8582847648645],[-104.399779166994,34.8664486417213],[-104.411703960133,34.867355431324],[-104.428003634045,34.880764335918],[-104.427937697703,34.9552417760374],[-104.607193741346,34.9541303176831],[-104.614174210754,34.9472722337275],[-104.620772973422,34.9525667831367],[-104.643454651913,34.9453675679052],[-104.659422906774,34.9425110808332],[-104.665065578112,34.9425267692674],[-104.668973935911,34.942780140194],[-104.669146041441,34.9394535380649],[-104.681399633245,34.9394684487085],[-104.682198392738,34.938807837143],[-104.683004060275,34.9382721908532],[-104.683259084798,34.9382210463233],[-104.683601902571,34.9384576787042]],[[-104.683601902571,34.9384576787042],[-104.681404257772,34.9394986860537],[-104.669165620223,34.9394813931597],[-104.669036372416,34.9428384151018],[-104.643458228106,34.9454062239449],[-104.621252443815,34.9525490372393],[-104.622229461399,34.9557208223447],[-104.52164473432,35.0011005962182],[-104.518005988786,35.0050918487374],[-104.494176620891,35.0111241780215],[-104.465981908738,35.0108917057813],[-104.443527147382,35.0158534231353],[-104.375579827051,35.0472190466832],[-104.336624276059,35.0517101566564],[-104.291282796647,35.0626412487817],[-104.226186903301,35.0694134137987],[-104.176767202754,35.0651836547234],[-104.061747153626,35.0929532658986],[-104.047232351335,35.09954814108],[-103.951771478093,35.1245427719797],[-103.912477767092,35.1205202038768],[-103.894371163426,35.1147028121051],[-103.893562807232,35.1178521576405],[-103.870016256836,35.1155396001927],[-103.815366519789,35.1421186423554],[-103.775741873929,35.1483579318756],[-103.758825029569,35.1540948963129],[-103.737476401552,35.1514251781683],[-103.737500549165,35.1608917207068],[-103.725039509413,35.1608882381486],[-103.725148756229,35.1508472979918],[-103.713519218663,35.151554970967],[-103.666895265724,35.170211029308],[-103.488941484595,35.1713105910701],[-103.462658718844,35.1537151451563],[-103.362617964789,35.1123906370379],[-103.342842408107,35.1057816963305],[-103.329287146677,35.106766822935]],[[-104.986759234315,34.9754794916651],[-104.868045094448,34.9681251249208],[-104.786874625237,34.9679784452858],[-104.74651811383,34.9639136017644],[-104.735514751425,34.9606976342573],[-104.693516275985,34.9366996228126],[-104.683601902571,34.9384576787042]],[[-104.986759234315,34.9754794916651],[-104.992188080564,34.9728126749926],[-104.996105671247,34.9759394186702],[-105.444656306398,34.9977056041189],[-105.519976764121,35.0053981751164],[-105.54148023115,35.0050317579736],[-105.55510802615,35.0012875982499],[-105.620068072665,35.0050965123074],[-105.621232222798,35.0026111582324],[-105.662483140919,35.0036823302727]],[[-105.662483235243,35.0036691318022],[-105.661448564681,35.0036245202645],[-105.600641797135,34.8939771401191],[-105.599778652691,34.8649754463352],[-105.483434091575,34.669851547892],[-105.479463995262,34.6668324643136],[-105.449363901594,34.6664073846576],[-105.314561771319,34.6098455791009],[-105.258066818322,34.595085136758],[-105.229117629128,34.5952534377383]],[[-106.639807492879,35.0149469792175],[-106.637443339952,35.056871384254],[-106.639733659447,35.0746301889114],[-106.636122758992,35.082898809966],[-106.652664437245,35.0847926017958],[-106.652373760385,35.0885148640552]],[[-106.639807492879,35.0149469792175],[-106.637802362435,35.0075489702886],[-106.586689732837,35.0275473799778],[-106.58057902127,35.0117157809618],[-106.564189795205,35.0111603227996],[-106.551126573395,35.0281081092458],[-106.533070638305,35.0278304271137],[-106.53168944981,35.0500481358805],[-106.517521874224,35.0508803256637],[-106.511966248739,35.0547691117184],[-106.490855102046,35.058935639978],[-106.423912388358,35.0642140938208],[-106.405854752758,35.0788857553506],[-106.396412838386,35.0794912610909],[-106.395301746347,35.0769913419228],[-106.387246325022,35.0792134411864],[-106.366513014228,35.0965479698927],[-106.346587323909,35.1019286028626],[-106.325148409816,35.1146080432912],[-106.282285329272,35.0996196747511],[-106.051179283811,35.0041566548259],[-106.049755244778,35.0099044328592],[-106.043670446014,35.0111002776958],[-106.012237674672,35.0059114733435],[-105.935426564245,35.0057678171228],[-105.914160227298,35.008357810943],[-105.726738513892,35.0052583007911],[-105.710819295367,35.0107736988072],[-105.710787959435,35.0028671196595],[-105.661625943322,35.002620556295],[-105.679018120435,35.0041141980344],[-105.678850133681,35.0107174521507],[-105.666250740798,35.0108614712377],[-105.667545163715,35.0157849428284],[-105.712338045577,35.0961835071439],[-105.798720683796,35.2159201491011],[-105.7769330491,35.2205239707545],[-105.769914348292,35.2264032582176],[-105.769615435678,35.2590936601213],[-105.751564603917,35.2601491501035],[-105.753757072624,35.3362359907106],[-105.757658143289,35.3356085921274],[-105.753715733951,35.3366130596506],[-105.753653398955,35.3490510129221],[-105.761211179663,35.3612932842703],[-105.757867100407,35.3712015507379],[-105.767401324759,35.4023028317529],[-105.76489486342,35.412107382035],[-105.771539595575,35.4194678050472],[-105.773101836821,35.4348666791739],[-105.77895378328,35.4444017806396],[-105.776419547829,35.4656665456973],[-105.787573975424,35.4813174941708],[-105.797067024597,35.4816200181524],[-105.805204537566,35.4857160942119],[-105.806217250607,35.4923218062936],[-105.816555971093,35.5045297276938],[-105.823871161759,35.5118243212362],[-105.833658145083,35.5146683322061],[-105.833055988178,35.5205736183015],[-105.837943057784,35.5234608961975],[-105.83695326436,35.5262495751969],[-105.84317139018,35.5248308109524],[-105.848741621373,35.5394346017521]],[[-106.490739427783,35.0590044951789],[-106.516413373825,35.0543487346955],[-106.51828123271,35.0511161140832],[-106.531702345126,35.050152119344]],[[-106.652373760385,35.0885148640552],[-106.653913923737,35.0803250290304],[-106.643914255286,35.0783800228462],[-106.643357863054,35.0583794570389],[-106.639191736379,35.0586584508629],[-106.642802638631,35.0258816801773],[-106.639191447122,35.0258817206366],[-106.639807492879,35.0149469792175]],[[-106.652373760385,35.0885148640552],[-106.652941464204,35.0888298439744]],[[-106.652941464204,35.0888298439744],[-106.652329133879,35.0887451653544],[-106.652373760385,35.0885148640552]],[[-106.646878113616,35.0908506092064],[-106.65262296113,35.0888307311883]],[[-106.646878113616,35.0908506092064],[-106.652877373002,35.09159022181],[-106.652941464204,35.0888298439744]],[[-106.647907919799,35.1044124758682],[-106.647980544997,35.1039825448405],[-106.647683581727,35.1039405536776]],[[-106.647907919799,35.1044124758682],[-106.646804273896,35.1039105306848],[-106.648629530179,35.09375218086],[-106.646878113616,35.0908506092064]],[[-106.647851281021,35.104836803858],[-106.647907919799,35.1044124758682]],[[-106.647851281021,35.104836803858],[-106.647836646566,35.1048344028978],[-106.647907919799,35.1044124758682]],[[-106.648791193692,35.1050818741221],[-106.647851281021,35.104836803858]],[[-106.648791193692,35.1050818741221],[-106.647834762799,35.1049605542586],[-106.647851281021,35.104836803858]],[[-106.648727007269,35.105694896741],[-106.648791193692,35.1050818741221]],[[-106.648727007269,35.105694896741],[-106.648710436945,35.1056937907089],[-106.648791193692,35.1050818741221]],[[-103.329287146677,35.106766822935],[-103.329286946352,35.1067794587252],[-103.329257160014,35.1068025403127]],[[-103.329257160014,35.1068025403127],[-103.329287146677,35.106766822935]],[[-103.329257160014,35.1068025403127],[-103.329154143014,35.1068823711895]],[[-103.329154143014,35.1068823711895],[-103.32917493003,35.1069004863331]],[[-103.32917493003,35.1069004863331],[-103.329257160014,35.1068025403127]],[[-103.32917493003,35.1069004863331],[-103.332237841094,35.1354704713075],[-103.331981258892,35.3036679117238],[-103.361418324914,35.3295717049415],[-103.390073545822,35.3442235159189],[-103.410140041672,35.3456004131294],[-103.421860116842,35.3415713027649],[-103.419743606981,35.3547370648416],[-103.413975623356,35.360601923644],[-103.412361296892,35.3703098762341],[-103.400896995439,35.3750521367465],[-103.388585432655,35.3890614329089],[-103.206944166099,35.5327087362085],[-103.114258132176,35.5991205499109],[-103.098712681081,35.606092081674],[-103.105686782332,35.6129562351572],[-103.110217095006,35.6438272860604],[-103.126480441947,35.6596864588004],[-103.124778082381,35.7943242539828],[-103.129268455059,35.7982237642214],[-103.160370829633,35.8001401743411],[-103.160288235831,35.9159386650025],[-103.159306594617,35.9176826796499],[-103.15021152876,35.9175802548795],[-103.149298747905,35.9184466118549],[-103.159334549291,35.9180105649013],[-103.160327054729,35.9248438558696],[-103.196126322868,35.9251168681602],[-103.193856174144,35.9851869958514],[-103.203205209902,35.9973151062976],[-103.203315609257,36.1059409021307],[-103.186008751435,36.1183581701054],[-103.18502032884,36.1251126112637],[-103.185377637337,36.337559712676],[-103.182103246685,36.3521525656424],[-103.182910339849,36.4312605299785],[-103.179549127025,36.4419349523089],[-103.184899077836,36.4505388112087],[-103.182537434802,36.451434088019],[-103.182959288151,36.4521329751118],[-103.180301387024,36.4531816447436],[-103.180248632561,36.4534446818745]],[[-103.329164242773,35.1069132161691],[-103.32917493003,35.1069004863331]],[[-106.722278353414,35.1141989161333],[-106.72128371268,35.113307970814],[-106.698875928722,35.1136459559113],[-106.687972296381,35.1147231770099],[-106.689120972135,35.1056704111709],[-106.672854643686,35.1043425801238],[-106.648727007269,35.105694896741]],[[-106.722304995648,35.1142325462814],[-106.725063913227,35.1144782489007],[-106.725107354856,35.1251775967696],[-106.710032419747,35.1366940190056],[-106.709322853081,35.1413640297351],[-106.662353277827,35.1881675881863]],[[-106.721813112335,35.1152373351616],[-106.687940078303,35.1148334600018],[-106.688916882089,35.105727455233],[-106.648727007269,35.105694896741]],[[-106.551891401723,35.130562075256],[-106.550949675353,35.0945155703147],[-106.532950079903,35.0940761532418],[-106.532763227629,35.0650927010214]],[[-106.551891401723,35.130562075256],[-106.605322069233,35.1307515888779],[-106.604735737949,35.1361800881187]],[[-106.549376174623,35.1312112762661],[-106.551891401723,35.130562075256]],[[-106.54933520965,35.1312365990369],[-106.549319060636,35.1305534537767],[-106.551891401723,35.130562075256]],[[-106.604735737949,35.1361800881187],[-106.621852464647,35.1248195961718],[-106.635469976631,35.091097764917],[-106.639154590144,35.0899125758715],[-106.646878113616,35.0908506092064]],[[-106.604735737949,35.1361800881187],[-106.603734706601,35.1396968413438]],[[-106.603200099412,35.1393558488943],[-106.603403424992,35.1403294771817],[-106.60340717995,35.1676402829035],[-106.602034213734,35.1715129226726]],[[-106.602052272566,35.1714517097406],[-106.603089753956,35.1393745533135]],[[-106.602041079558,35.1715358581427],[-106.653400800657,35.1834553352557],[-106.662401331407,35.1882192789545]],[[-105.410277818204,35.3157158030672],[-105.414452437552,35.3161671131516],[-105.41620509918,35.3183317032145],[-105.418866427379,35.3172228979492],[-105.427997266847,35.3173918298901]],[[-105.410277818204,35.3157158030672],[-105.416189985924,35.3184025833482],[-105.427997266847,35.3173918298901]],[[-105.410277818204,35.3157158030672],[-105.408606579873,35.3153822389942],[-105.408547664764,35.3151080292112],[-105.408377536425,35.3150932971354],[-105.408605228807,35.3154127299839],[-105.410063960776,35.3158270271917],[-105.410277818204,35.3157158030672]],[[-105.428751437562,35.3173750766399],[-105.433877527305,35.305895614941],[-105.443537662223,35.2976086431968],[-105.442860050428,35.2845491039555],[-105.447066576137,35.2660730340444],[-105.461917854096,35.2452727649511],[-105.448189808907,35.2448867071622],[-105.445994188911,35.2392619017532],[-105.438854729375,35.236271234038],[-105.436790691907,35.2303767562125],[-105.40823834337,35.2309795938733],[-105.406744362408,35.2283252929997],[-105.386687960927,35.2306972827708],[-105.394481517058,35.2164418479703],[-105.356844920177,35.2167476040124],[-105.353861501931,35.2117515148929],[-105.338255242078,35.203137203125],[-105.332922369139,35.2041325941859],[-105.330641488242,35.2083208292699],[-105.317562338404,35.2014272957159],[-105.307136042059,35.200967431033],[-105.300400767808,35.1897309367308],[-105.293404391033,35.1845695030694],[-105.278870640577,35.1800150672375],[-105.224437691264,35.1807341188198],[-105.211929006665,35.1707495843261],[-105.186017839811,35.1803412347622],[-105.170234929851,35.1813512239531],[-105.147985508098,35.1912360876611],[-105.137884462073,35.1918512513019],[-105.140154874902,35.1869413448678],[-105.135768713983,35.1838393681663],[-105.137663059695,35.1790758167826],[-105.134886838767,35.1734728672079],[-105.094728321439,35.1679660227551],[-105.087577941983,35.1540859659113],[-105.080028815644,35.1484472678428],[-105.07516323913,35.1486824841094],[-105.071465804861,35.1556759732547],[-105.048383210953,35.1697324043277],[-105.025539003871,35.1256803616902],[-105.015076973442,35.0690235509334],[-104.990727205215,34.9945984549959],[-104.990684976312,34.9797785469062],[-104.986759234315,34.9754794916651]],[[-105.428751437562,35.3173750766399],[-105.430802591393,35.333415164696],[-105.438100332285,35.3395587852344],[-105.443232538657,35.3569147582069],[-105.450680819224,35.3625706572566],[-105.450302111958,35.3750067346879],[-105.445879694136,35.3753125361217],[-105.443200989824,35.3965836868492]],[[-105.427997266847,35.3173918298901],[-105.428751437562,35.3173750766399]],[[-105.427997266847,35.3173918298901],[-105.428783693369,35.3172464966489],[-105.428751437562,35.3173750766399]],[[-105.443200989824,35.3965836868492],[-105.445735448956,35.4009228728827],[-105.428040976173,35.3982406369087],[-105.399883168608,35.3989563292629],[-105.395072738771,35.3986933737538],[-105.391476167343,35.3978785229289]],[[-105.443200989824,35.3965836868492],[-105.462610023989,35.3973609979855],[-105.516244249742,35.415283553823],[-105.538909342639,35.4156801681405],[-105.552507565998,35.4213351733588],[-105.599415595874,35.4312148471175],[-105.669150104581,35.4823983220374],[-105.67239579406,35.4953372731713],[-105.693655914665,35.5359306563346],[-105.711570770238,35.5511135343028],[-105.733722784072,35.5557323636603],[-105.752667390133,35.5643276167239],[-105.775152934058,35.5908294241602],[-105.78300243457,35.5904146360388],[-105.805611302811,35.5627839471158],[-105.817441746794,35.5578946801907],[-105.825810537321,35.5491509846812],[-105.848741621373,35.5394346017521]],[[-105.391476167343,35.3978785229289],[-105.420459481738,35.3958839957037],[-105.443200989824,35.3965836868492]],[[-105.391476167343,35.3978785229289],[-105.383130112277,35.3916249558202],[-105.358055691077,35.3887306169156],[-105.315402888174,35.3939166810999],[-105.315136326588,35.403620726968]],[[-105.315136326588,35.403620726968],[-105.324958905655,35.394990525993],[-105.344297572089,35.392310234682],[-105.391476167343,35.3978785229289]],[[-105.315136326588,35.403620726968],[-105.304648529782,35.4193906658673],[-105.280778027132,35.4491454472339],[-105.274536836169,35.4812709486552],[-105.272148384711,35.4881241473249]],[[-105.272148384711,35.4881241473249],[-105.280387166559,35.4488760722621],[-105.315136326588,35.403620726968]],[[-105.272148384711,35.4881241473249],[-105.269418238375,35.4929404517819]],[[-105.269418238375,35.4929404517819],[-105.271633754258,35.4897405802438],[-105.272148384711,35.4881241473249]],[[-105.269418238375,35.4929404517819],[-105.251368951716,35.5210994400151],[-105.243261090338,35.5250451030318]],[[-105.243261090338,35.5250451030318],[-105.269418238375,35.4929404517819]],[[-105.243261090338,35.5250451030318],[-105.236426651063,35.5258631110133],[-105.230286539433,35.5308910093121],[-105.222595260091,35.564443930255],[-105.21860197287,35.5672703188663],[-105.220867789918,35.5703901992291],[-105.21904241865,35.5760070110014]],[[-105.848741621373,35.5394346017521],[-105.903439639273,35.6382640761039],[-105.928207146565,35.6383115241633]],[[-105.21904241865,35.5760070110014],[-105.237331098247,35.5320560930056],[-105.243261090338,35.5250451030318]],[[-105.21904241865,35.5760070110014],[-105.217124818251,35.5854726648949]],[[-105.217124818251,35.5854726648949],[-105.216548953238,35.5819992479091],[-105.21904241865,35.5760070110014]],[[-105.217124818251,35.5854726648949],[-105.214973839134,35.5922794932012],[-105.219469466058,35.5996147616698]],[[-105.219469466058,35.5996147616698],[-105.217124818251,35.5854726648949]],[[-105.219469466058,35.5996147616698],[-105.225176106427,35.6184410159798],[-105.222720143881,35.6192217141578]],[[-105.222720143881,35.6192217141578],[-105.219469466058,35.5996147616698]],[[-105.928207146565,35.6383115241633],[-105.895467020159,35.5791266753391],[-105.871983986942,35.5514809672205],[-105.855289377698,35.538650042182],[-105.848741621373,35.5394346017521]],[[-105.928207146565,35.6383115241633],[-105.928321667391,35.6384390112524]],[[-105.928321667391,35.6384390112524],[-105.92831482672,35.6384319967409],[-105.928207146565,35.6383115241633]],[[-105.928321667391,35.6384390112524],[-105.928596559952,35.638745029665],[-105.929084533798,35.6390986638727],[-105.929807886909,35.6391932129224],[-105.930531466396,35.6391500318768],[-105.932456215588,35.6387391599256],[-105.932842369888,35.6387207257291],[-105.93312404473,35.6387314642879]],[[-105.9396920392,35.6384759513181],[-105.947621164583,35.6385776579672]],[[-105.9396920392,35.6384759513181],[-105.937411566139,35.6389719268826],[-105.937084910854,35.6390164002387],[-105.936809282572,35.639034708066],[-105.936330350269,35.6390458948421]],[[-105.947621164583,35.6385776579672],[-105.94067728176,35.6384468762944],[-105.9396920392,35.6384759513181]],[[-105.947621164583,35.6385776579672],[-105.956702976697,35.6386910397279],[-105.962457879952,35.6326226850173],[-106.027355549251,35.6113943123019],[-106.166143632002,35.5223730550433],[-106.21497216204,35.520398859821],[-106.245859787158,35.5088382049108],[-106.267393565142,35.4860720691288],[-106.363189954651,35.4461467971396],[-106.391974073921,35.4252972297309],[-106.448181919963,35.3955209689683],[-106.46958901483,35.3796104547003],[-106.517829501395,35.3399089109459],[-106.534730238962,35.3167612020589],[-106.535992763602,35.306177357695],[-106.564831277658,35.2590540728088],[-106.59061412736,35.1465663329774],[-106.604735737949,35.1361800881187]],[[-105.93312404473,35.6387314642879],[-105.933154354786,35.6387326192541],[-105.933260936301,35.6387406507227]],[[-105.93312404473,35.6387314642879],[-105.928321667391,35.6384390112524]],[[-105.933260936301,35.6387406507227],[-105.93312404473,35.6387314642879]],[[-105.933260936301,35.6387406507227],[-105.933274296944,35.6387416582152]],[[-105.933274296944,35.6387416582152],[-105.933271132179,35.6387413347955],[-105.933260936301,35.6387406507227]],[[-105.933274296944,35.6387416582152],[-105.934325031179,35.6388208390619],[-105.936121659951,35.6390416531683]],[[-105.936121659951,35.6390416531683],[-105.933274296944,35.6387416582152]],[[-105.936121659951,35.6390416531683],[-105.936182501048,35.639049743741],[-105.936330350269,35.6390458948421]],[[-105.936330350269,35.6390458948421],[-105.9396920392,35.6384759513181]],[[-105.936330350269,35.6390458948421],[-105.936121659951,35.6390416531683]],[[-105.959469415869,35.6727801958692],[-105.95504977474,35.6709168399651],[-105.955981840628,35.6386992413064],[-105.947621164583,35.6385776579672]],[[-103.180248632561,36.4534446818745],[-103.180244655719,36.4534580331677]],[[-103.180245954683,36.4534580331677],[-103.180248632561,36.4534446818745]],[[-104.542879441587,36.5417649920515],[-104.542882704268,36.5417992560434]],[[-104.542882704268,36.5417992560434],[-104.540536257135,36.5367753612212],[-104.595250727679,36.4650950856786],[-104.594973281207,36.3870891569173],[-104.603571646984,36.3613079632132],[-104.596875249124,36.3611579260327],[-104.596961211608,36.3604059250792],[-104.605431915106,36.3614125260145],[-104.611823146281,36.3485391260851],[-104.632456836605,36.3380041527079],[-104.655278934351,36.2299540012729],[-104.687296394857,36.1281046981933],[-104.689491951972,36.0791899208017],[-104.696401054722,36.0259562039772],[-104.706949710592,36.0118067182181],[-104.705774042261,36.0116555348045],[-104.703610245083,36.0107280441537],[-104.708089210953,36.011632298877],[-104.86674117005,35.8710951698246],[-104.922834456639,35.8528813532654],[-104.95121907444,35.8404815129837],[-104.967225628075,35.8279704009617],[-104.992809915065,35.7780543059348],[-105.029879667815,35.7444497203565],[-105.096858638406,35.701393405749],[-105.176332921274,35.6747044290473],[-105.18475640393,35.6658161210411],[-105.201630056393,35.6320173969024],[-105.222720143881,35.6192217141578]],[[-104.542882704268,36.5417992560434],[-104.542793047012,36.6105300269871],[-104.540168177837,36.6302851397768],[-104.543094235059,36.7125793059164],[-104.509207350803,36.7491067417576],[-104.457115813564,36.7930481912206],[-104.448890013271,36.8055505559464],[-104.446122783581,36.8159859897367],[-104.440837993867,36.8171020862613],[-104.443484700188,36.8279165659468],[-104.439356176093,36.8595550848586]],[[-104.542889024814,36.5418179769151],[-104.542882704268,36.5417992560434]],[[-103.560025809035,36.5626007958974],[-103.549626036347,36.5594703897266],[-103.509115445004,36.5326093720683],[-103.46837166898,36.5102987228887],[-103.255119950607,36.4759199498732],[-103.192395843174,36.4582191573597],[-103.186284612381,36.4510298381948],[-103.180248632561,36.4534446818745]],[[-103.559982795902,36.5626331263261],[-103.572203351263,36.5680089477166],[-103.591894218374,36.5703387111828],[-103.60708572067,36.5875062791419],[-103.626272029238,36.6020131902308],[-103.648371840174,36.6104375240151],[-103.687105467765,36.6154448107836],[-103.685002924909,36.6181112527014],[-103.68500487605,36.6775096401361],[-103.6823668762,36.6796932049308],[-103.685547632755,36.6837028317341],[-103.685301573419,36.6984250791138],[-103.7930215119,36.6980410877172],[-103.804714401355,36.727832882929],[-103.81913898135,36.7512218460749],[-103.827166645631,36.7589929900113],[-103.833697083336,36.7605648241286]],[[-103.833767945141,36.7605655380506],[-103.838726659882,36.7627607138251],[-103.859325987849,36.7608450063327],[-103.90416470535,36.7503207751675],[-103.988823366047,36.7424572182369],[-104.023750811118,36.7429691200817],[-104.157267522289,36.7742878087353],[-104.184729191205,36.7689416747994],[-104.209256129664,36.7773996610633],[-104.278766474572,36.7883761558728],[-104.394664601738,36.8782978628643],[-104.416355372894,36.8845058407924],[-104.440195779287,36.8848935769697],[-104.439359975068,36.8595527402977]]]},"properties":{"id":"arcgis-31-0-ba9423c140bff1e4","sourceId":"arcgis-31-0","category":"existing","states":["NM","TX"],"routeStatus":"Existing In-Kind","carrier":"ENMR Telephone Cooperative"},"bbox":[-107.066398000629,31.0363177401239,-101.700638766164,36.8848935769697]},{"type":"Feature","geometry":{"type":"LineString","coordinates":[[-108.421067,32.202581],[-108.636426,32.330994],[-108.718284,32.353021],[-108.753597,32.356901],[-108.76628,32.354736],[-108.833503,32.316361],[-108.858921,32.293975],[-108.960108,32.236555]]},"properties":{"id":"fna-member-routes-20260918-e5fc3df21bb030d7319b","sourceId":"fna-member-routes-20260918","category":"unknown","states":["NM"],"routeStatus":"Status not established","carrier":"Planters","publishedLineParts":1},"bbox":[-108.960108,32.202384,-108.421067,32.356964]},{"type":"Feature","geometry":{"type":"LineString","coordinates":[[-107.580625,32.289951],[-107.594762,32.291289],[-107.689803,32.282225],[-107.719711,32.276117],[-108.152641,32.222245],[-108.380104,32.180016],[-108.421067,32.202581]]},"properties":{"id":"fna-member-routes-20260918-175bd386246a7086e917","sourceId":"fna-member-routes-20260918","category":"unknown","states":["NM"],"routeStatus":"Status not established","carrier":"Planters","publishedLineParts":1},"bbox":[-108.421638,32.180016,-107.580625,32.291424]},{"type":"Feature","geometry":{"type":"LineString","coordinates":[[-106.956009,32.079109],[-107.017047,32.107163],[-107.114729,32.143356],[-107.125792,32.150516],[-107.132534,32.161762],[-107.156326,32.183825],[-107.580625,32.289951]]},"properties":{"id":"fna-member-routes-20260918-874a66b1eac2706a9dfa","sourceId":"fna-member-routes-20260918","category":"unknown","states":["NM"],"routeStatus":"Status not established","carrier":"Planters","publishedLineParts":1},"bbox":[-107.580627,32.078588,-106.956009,32.290166]},{"type":"Feature","geometry":{"type":"LineString","coordinates":[[-106.493764,31.755629],[-106.504276,31.760722],[-106.520421,31.784168],[-106.533921,31.791768],[-106.542103,31.801847],[-106.569099,31.785165],[-106.593464,31.796933],[-106.600474,31.808413],[-106.619863,31.815106],[-106.632738,31.824421],[-106.641007,31.82496],[-106.645335,31.829928],[-106.657943,31.832237],[-106.671545,31.842675],[-106.67443,31.849367],[-106.694358,31.859329],[-106.908259,32.052771],[-106.956009,32.079109]]},"properties":{"id":"fna-member-routes-20260918-dc5bae85c21686f9c190","sourceId":"fna-member-routes-20260918","category":"unknown","states":["NM","TX"],"routeStatus":"Status not established","carrier":"Planters","publishedLineParts":1},"bbox":[-106.956009,31.755629,-106.493764,32.079109]}]}