{"type":"FeatureCollection","features":[{"type":"Feature","geometry":{"type":"MultiLineString","coordinates":[[[-118.349672310898,37.4627880193934],[-118.393767394024,37.6140570217791],[-118.402928610022,37.6688994683039],[-118.453009943132,37.7508457481808],[-118.476670840978,37.8182879578244]],[[-118.566181360915,37.5854910282318],[-118.578249309577,37.5863017287598],[-118.58212447283,37.5911338616675],[-118.613657048796,37.5995432320721],[-118.625348036518,37.6070795742126],[-118.624730916375,37.5999645773315],[-118.633765851703,37.5979294615658],[-118.633810510549,37.5936596669833],[-118.658550471901,37.5972389305099],[-118.663698282908,37.5925011463559],[-118.672662851403,37.5903624620049],[-118.683767226667,37.5932047656594],[-118.706508417648,37.5886524866312],[-118.708516420006,37.5847434021343],[-118.694513564002,37.5843287057464],[-118.677156636781,37.5790497361187],[-118.673607605096,37.5698421947309],[-118.682539866579,37.5643937831414],[-118.676017559526,37.5633775072468],[-118.677591928926,37.5608791926858],[-118.720459060872,37.5563147705205],[-118.725201385835,37.5631808016642],[-118.741688743861,37.5669588576922],[-118.741108572325,37.5616346955884],[-118.791036580083,37.5900129456939],[-118.814100798054,37.6155742814127],[-118.917882136952,37.6407556775887],[-118.936358992939,37.6394292961385],[-118.946048020371,37.6430616389413],[-118.950333832286,37.638979152708],[-118.964026576379,37.6400020447433],[-118.962797250778,37.6489009560767],[-118.948163224082,37.660981121726],[-118.954017574433,37.6706910720205],[-118.95214891964,37.6827964457472],[-118.958283497647,37.6923968416213],[-118.950857488113,37.7010373024641],[-118.954161797155,37.7123283795],[-118.976235372793,37.7355148346055],[-118.989388533929,37.7573075659339],[-119.010788286866,37.7680110779178],[-119.014476944594,37.7740923722701],[-119.017780440661,37.7710903946455],[-119.028362622556,37.7741603311045],[-119.034926751575,37.7853358461475],[-119.034213556614,37.7913357405058],[-119.040370128074,37.7925540243772],[-119.041855110612,37.8004914768044],[-119.068274686187,37.8315672425081],[-119.071072737973,37.8413464768654],[-119.085708263957,37.8614968652846],[-119.101769195311,37.9423047571189],[-119.108446976486,37.9495764252109],[-119.117468662561,37.9518762005174],[-119.121855887085,37.9648140120353],[-119.129547426939,37.9680614337553],[-119.14591634479,37.997596524822],[-119.15373551728,38.0045046274793],[-119.157775232129,38.0201116711892],[-119.155947417444,38.0276677793835],[-119.163094801019,38.0484360055366],[-119.170936093624,38.0457605532089],[-119.17504086267,38.0406346825651],[-119.178167078012,38.0600408144404],[-119.187494773392,38.0608041465112],[-119.184852624224,38.0632912716866],[-119.194676955006,38.0695974452463],[-119.196901473805,38.0754373999782],[-119.18509015765,38.0865594945372],[-119.189360842834,38.0880321655307],[-119.192910381169,38.0851684776465],[-119.197409513319,38.0893183371758],[-119.205203585083,38.0765024938202],[-119.241804539426,38.0617808808438],[-119.234695779816,38.069683976555],[-119.235916744797,38.0938173344462],[-119.233129071248,38.092695404393],[-119.23139888996,38.0955045241794],[-119.238200447303,38.1065028985552],[-119.238228725369,38.1135973568931],[-119.223940508736,38.1241285668891],[-119.227139260342,38.1266354304397],[-119.224370582568,38.1323929588075],[-119.209520681726,38.1463888570609],[-119.218752776597,38.1608966381806],[-119.223040534263,38.161461317681],[-119.222574759585,38.1669268728866],[-119.216735240419,38.168901753853],[-119.220573784748,38.1872047167566],[-119.218889032161,38.1969042852792],[-119.231399531357,38.2125359174371],[-119.220853451855,38.2453895923354],[-119.221946360196,38.2576004889874],[-119.231462467326,38.2575036052339],[-119.231450411036,38.2529939908174],[-119.231471618463,38.2558373323067],[-119.23656195436,38.2573866459404],[-119.272001434651,38.2581554681379],[-119.308959894223,38.2925239070838],[-119.315344433848,38.3249520063984],[-119.326240461052,38.3459098437972],[-119.386298441486,38.3495092812027],[-119.420676765288,38.3553829644717],[-119.42473082264,38.3534742410103],[-119.417007486017,38.356489488103],[-119.430664004648,38.3803881814621],[-119.420766809717,38.3981795862759],[-119.418557217325,38.4100505280764],[-119.431736063092,38.4356271827461],[-119.435313265046,38.4353755680369],[-119.443692269417,38.443654570079],[-119.444058979683,38.4481710373631],[-119.439136964714,38.4504948923896],[-119.449501403967,38.4550643704914],[-119.455225577653,38.465769483526],[-119.444716468317,38.5103963010981],[-119.440716681785,38.5134501043732],[-119.456342477301,38.5285638575933],[-119.456734274817,38.5342870170759],[-119.46385458227,38.5351264891946],[-119.461455592676,38.5459821137125],[-119.500008486419,38.5457539582724],[-119.514924864388,38.5878518540865]],[[-118.566181005182,37.5854913855878],[-118.566045832088,37.572209352584],[-118.557068401515,37.5390286167378],[-118.511142214074,37.5094464923538],[-118.501191295398,37.495902773438],[-118.480130149831,37.4780488228726],[-118.463611151344,37.4704879323851],[-118.455783611946,37.4628501868765]],[[-119.514924864388,38.5878518540865],[-119.515143076848,38.587767370275]],[[-119.514924864388,38.5878518540865],[-119.523586719496,38.6344045786395],[-119.529304242056,38.6468759031808],[-119.548899549082,38.6710869529859],[-119.548610315815,38.6877642969787]]]},"properties":{"id":"arcgis-32-1-59182a65927b80a9","sourceId":"arcgis-32-1","category":"existing","states":["CA","NV"],"routeStatus":"Ready-to-Connect","carrier":"Not published"},"bbox":[-119.548899549082,37.4627880193934,-118.349672310898,38.6877642969787]}]}