{"type":"FeatureCollection","features":[{"type":"Feature","geometry":{"type":"MultiLineString","coordinates":[[[-74.008028,40.730982],[-74.007512,40.732915],[-74.006373,40.733088],[-74.006024,40.735823],[-74.005842,40.73652],[-74.005508,40.736948],[-74.002781,40.739387],[-74.001609,40.741064],[-74.00358,40.74186]]]},"properties":{"id":"fna-member-routes-20260918-1c1b98f79e4a40d84664","sourceId":"fna-member-routes-20260918","source":"Fiber Network Alliance member fiber lines","sourceUrl":"https://www.fibernetworkalliance.com/membership-map-line/","name":"Resurgence IG published routes","carrier":"Resurgence IG","category":"unknown","routeStatus":"Status not established","evidence":"publisher_route","dataDate":null,"metadataModified":null,"retrievedAt":"2026-09-18T19:56:04.130240+00:00","networkType":"Published fiber route; precision and network class unverified","serviceability":"Unconfirmed","routeDiversity":"Unconfirmed","states":["NJ","NY"],"publishedLineParts":1},"bbox":[-74.008028,40.730982,-74.001609,40.74186]}]}
