{"type":"FeatureCollection","features":[{"type":"Feature","geometry":{"type":"LineString","coordinates":[[-74.008028,40.730982],[-74.001609,40.741064],[-74.00358,40.74186]]},"properties":{"id":"fna-member-routes-20260918-1c1b98f79e4a40d84664","sourceId":"fna-member-routes-20260918","category":"unknown","states":["NJ","NY"],"routeStatus":"Status not established","carrier":"Resurgence IG","publishedLineParts":1},"bbox":[-74.008028,40.730982,-74.001609,40.74186]},{"type":"Feature","bbox":[-76.2884218988284,42.0434325396904,-76.2868084491197,42.0463985031534],"geometry":{"type":"MultiLineString","coordinates":[[[-76.2868084491197,42.0463985031534],[-76.2884218988284,42.0459882499759],[-76.2881945478064,42.045526610085],[-76.2880631862641,42.0434325396904]]]},"properties":{"id":"ny-stn-nichols-public-1","sourceId":"ny-stn-nichols-public","sourceUrl":"https://services2.arcgis.com/qO6xd1V1VbSyViir/arcgis/rest/services/Fiber_Route/FeatureServer/0","source":"Southern Tier Central Regional Planning","name":"STN Nichols FTTH route","carrier":"STN (as published)","category":"unknown","routeStatus":"Published FTTH route; operational status not established","states":["NY"],"evidence":"publisher_route","retrievedAt":"2026-09-20T23:14:40.303Z","dataDate":null,"metadataModified":"2022-08-31T15:56:40.000Z","publishedLineParts":1,"networkType":"Local FTTH, not a national backbone","serviceability":"Unconfirmed","routeDiversity":"Unconfirmed"}},{"type":"Feature","bbox":[-76.3066299752897,42.0064770339026,-76.3009285514377,42.006762158996],"geometry":{"type":"MultiLineString","coordinates":[[[-76.3066299752897,42.0064770339026],[-76.3057176894063,42.0065362540627],[-76.304924068277,42.0066918270391],[-76.3042077229234,42.0067059541799],[-76.302260940752,42.0067367383064],[-76.3009285514377,42.006762158996]]]},"properties":{"id":"ny-stn-nichols-public-2","sourceId":"ny-stn-nichols-public","sourceUrl":"https://services2.arcgis.com/qO6xd1V1VbSyViir/arcgis/rest/services/Fiber_Route/FeatureServer/0","source":"Southern Tier Central Regional Planning","name":"STN Nichols FTTH route","carrier":"STN (as published)","category":"unknown","routeStatus":"Published FTTH route; operational status not established","states":["NY"],"evidence":"publisher_route","retrievedAt":"2026-09-20T23:14:40.303Z","dataDate":null,"metadataModified":"2022-08-31T15:56:40.000Z","publishedLineParts":1,"networkType":"Local FTTH, not a national backbone","serviceability":"Unconfirmed","routeDiversity":"Unconfirmed"}},{"type":"Feature","bbox":[-76.3243381671432,42.0544997818765,-76.3203762580754,42.0560004782862],"geometry":{"type":"MultiLineString","coordinates":[[[-76.3243381671432,42.0559948048645],[-76.3233710840275,42.0560004782862],[-76.3224107903787,42.0553409639587],[-76.3215640940874,42.0546873971303],[-76.3209766515871,42.0544997818765],[-76.3203762580754,42.0545811092351]]]},"properties":{"id":"ny-stn-nichols-public-3","sourceId":"ny-stn-nichols-public","sourceUrl":"https://services2.arcgis.com/qO6xd1V1VbSyViir/arcgis/rest/services/Fiber_Route/FeatureServer/0","source":"Southern Tier Central Regional Planning","name":"STN Nichols FTTH route","carrier":"STN (as published)","category":"unknown","routeStatus":"Published FTTH route; operational status not established","states":["NY"],"evidence":"publisher_route","retrievedAt":"2026-09-20T23:14:40.303Z","dataDate":null,"metadataModified":"2022-08-31T15:56:40.000Z","publishedLineParts":1,"networkType":"Local FTTH, not a national backbone","serviceability":"Unconfirmed","routeDiversity":"Unconfirmed"}},{"type":"Feature","bbox":[-76.3218147968152,42.0545789921598,-76.315793142429,42.065014491039],"geometry":{"type":"MultiLineString","coordinates":[[[-76.3181878353808,42.065014491039],[-76.3179744253137,42.064996550204],[-76.3176044640454,42.0646255621853],[-76.3171437953913,42.0641935442658],[-76.3167100618227,42.0637411293256],[-76.3162203245843,42.0632104007393],[-76.315793142429,42.0626673116815],[-76.3159472070935,42.0620601143319],[-76.3163779636453,42.0615289201808],[-76.3166847050772,42.0609404129074],[-76.3169177235703,42.0603338859969],[-76.317368606876,42.0598808039501],[-76.3179881300117,42.0595498812811],[-76.3183170616277,42.0589738671565],[-76.3184273262356,42.0583442271043],[-76.3187856588125,42.0577226658498],[-76.3194569276035,42.0573873652427],[-76.3202422590794,42.0572455439831],[-76.3218147968152,42.0566146728835],[-76.3215837285646,42.0563332263197],[-76.3210074350553,42.055676312055],[-76.3206179713622,42.0551482087368],[-76.3203924079876,42.0545789921598]]]},"properties":{"id":"ny-stn-nichols-public-4","sourceId":"ny-stn-nichols-public","sourceUrl":"https://services2.arcgis.com/qO6xd1V1VbSyViir/arcgis/rest/services/Fiber_Route/FeatureServer/0","source":"Southern Tier Central Regional Planning","name":"STN Nichols FTTH route","carrier":"STN (as published)","category":"unknown","routeStatus":"Published FTTH route; operational status not established","states":["NY"],"evidence":"publisher_route","retrievedAt":"2026-09-20T23:14:40.303Z","dataDate":null,"metadataModified":"2022-08-31T15:56:40.000Z","publishedLineParts":1,"networkType":"Local FTTH, not a national backbone","serviceability":"Unconfirmed","routeDiversity":"Unconfirmed"}},{"type":"Feature","bbox":[-76.3208783516405,42.0424918833137,-76.31315684309,42.0545797352039],"geometry":{"type":"MultiLineString","coordinates":[[[-76.3203835056831,42.0545797352039],[-76.3208783516405,42.0535585623185],[-76.3201642996858,42.0531832038571],[-76.3200315987554,42.0522377218103],[-76.3199280760037,42.0513259432174],[-76.3198340816823,42.0504906760415],[-76.3198352108646,42.0503864529791],[-76.3204725439991,42.0503150072689],[-76.319295283853,42.0496264769449],[-76.3187528550333,42.0488399812976],[-76.3181946877298,42.0481288932521],[-76.3177496246088,42.0471174788223],[-76.3173701214356,42.0469460860795],[-76.3169540936612,42.046343412723],[-76.3163447915568,42.0454827582169],[-76.3157043286919,42.0449348351286],[-76.3147346548348,42.043935704179],[-76.31315684309,42.0424918833137]]]},"properties":{"id":"ny-stn-nichols-public-5","sourceId":"ny-stn-nichols-public","sourceUrl":"https://services2.arcgis.com/qO6xd1V1VbSyViir/arcgis/rest/services/Fiber_Route/FeatureServer/0","source":"Southern Tier Central Regional Planning","name":"STN Nichols FTTH route","carrier":"STN (as published)","category":"unknown","routeStatus":"Published FTTH route; operational status not established","states":["NY"],"evidence":"publisher_route","retrievedAt":"2026-09-20T23:14:40.303Z","dataDate":null,"metadataModified":"2022-08-31T15:56:40.000Z","publishedLineParts":1,"networkType":"Local FTTH, not a national backbone","serviceability":"Unconfirmed","routeDiversity":"Unconfirmed"}},{"type":"Feature","bbox":[-76.4452210691769,42.0068869467137,-76.4262173656482,42.0107010736956],"geometry":{"type":"MultiLineString","coordinates":[[[-76.4452210691769,42.0068869467137],[-76.4445339451211,42.0073610898817],[-76.4437204721223,42.0077098122058],[-76.4414810889,42.008586293752],[-76.4403094980216,42.009058029992],[-76.4393640589143,42.0094416027971],[-76.4377768849276,42.0100936966885],[-76.4368229351813,42.0104893617803],[-76.435942877257,42.0106280889079],[-76.4349955894169,42.0106735013334],[-76.433862945896,42.0106802060327],[-76.4332298150804,42.0106667031881],[-76.4327398568564,42.0107010736956],[-76.4306810889051,42.0103957639666],[-76.4295970083084,42.0102231141254],[-76.4262173656482,42.009718168904]]]},"properties":{"id":"ny-stn-nichols-public-6","sourceId":"ny-stn-nichols-public","sourceUrl":"https://services2.arcgis.com/qO6xd1V1VbSyViir/arcgis/rest/services/Fiber_Route/FeatureServer/0","source":"Southern Tier Central Regional Planning","name":"STN Nichols FTTH route","carrier":"STN (as published)","category":"unknown","routeStatus":"Published FTTH route; operational status not established","states":["NY"],"evidence":"publisher_route","retrievedAt":"2026-09-20T23:14:40.303Z","dataDate":null,"metadataModified":"2022-08-31T15:56:40.000Z","publishedLineParts":1,"networkType":"Local FTTH, not a national backbone","serviceability":"Unconfirmed","routeDiversity":"Unconfirmed"}},{"type":"Feature","bbox":[-76.4347078078274,42.0107032629843,-76.4327398748227,42.0129758848991],"geometry":{"type":"MultiLineString","coordinates":[[[-76.4343111540188,42.0129758848991],[-76.4347078078274,42.0127501522067],[-76.4343003158449,42.0123319327298],[-76.4333504713994,42.0113985332107],[-76.4327398748227,42.0107032629843]]]},"properties":{"id":"ny-stn-nichols-public-7","sourceId":"ny-stn-nichols-public","sourceUrl":"https://services2.arcgis.com/qO6xd1V1VbSyViir/arcgis/rest/services/Fiber_Route/FeatureServer/0","source":"Southern Tier Central Regional Planning","name":"STN Nichols FTTH route","carrier":"STN (as published)","category":"unknown","routeStatus":"Published FTTH route; operational status not established","states":["NY"],"evidence":"publisher_route","retrievedAt":"2026-09-20T23:14:40.303Z","dataDate":null,"metadataModified":"2022-08-31T15:56:40.000Z","publishedLineParts":1,"networkType":"Local FTTH, not a national backbone","serviceability":"Unconfirmed","routeDiversity":"Unconfirmed"}},{"type":"Feature","bbox":[-76.344256178663,42.0151706846768,-76.3280051251673,42.0261578517916],"geometry":{"type":"MultiLineString","coordinates":[[[-76.3280051251673,42.0261578517916],[-76.3320922665723,42.0250130977231],[-76.3357193618556,42.0240532860457],[-76.3355324898186,42.0223256497744],[-76.3368458591034,42.0217349907907],[-76.3374624357649,42.0207213490347],[-76.3382497893485,42.0196228280955],[-76.3391196010887,42.0189718790166],[-76.3409006917008,42.0186173788328],[-76.3420081590376,42.0186254628426],[-76.3427188108689,42.0182433749623],[-76.3434283487894,42.0178045752181],[-76.3440779268595,42.0174466487937],[-76.3434366249681,42.0170407870697],[-76.3440232383233,42.0161778689687],[-76.344256178663,42.0151706846768]]]},"properties":{"id":"ny-stn-nichols-public-8","sourceId":"ny-stn-nichols-public","sourceUrl":"https://services2.arcgis.com/qO6xd1V1VbSyViir/arcgis/rest/services/Fiber_Route/FeatureServer/0","source":"Southern Tier Central Regional Planning","name":"STN Nichols FTTH route","carrier":"STN (as published)","category":"unknown","routeStatus":"Published FTTH route; operational status not established","states":["NY"],"evidence":"publisher_route","retrievedAt":"2026-09-20T23:14:40.303Z","dataDate":null,"metadataModified":"2022-08-31T15:56:40.000Z","publishedLineParts":1,"networkType":"Local FTTH, not a national backbone","serviceability":"Unconfirmed","routeDiversity":"Unconfirmed"}},{"type":"Feature","bbox":[-76.3604784366624,42.0126640978518,-76.3489858266002,42.021809114011],"geometry":{"type":"MultiLineString","coordinates":[[[-76.3489858266002,42.0126640978518],[-76.3491486507371,42.0133600461204],[-76.3494183537315,42.0141494937707],[-76.3497216941416,42.0147796018666],[-76.3502797770035,42.014936161155],[-76.3510352898018,42.0151580070483],[-76.3518613122651,42.0155145361044],[-76.3523030480263,42.0156691967933],[-76.3528871586752,42.0159531540962],[-76.3537600157042,42.0162854718302],[-76.3549036402311,42.0166208972629],[-76.3557351765537,42.0168698331125],[-76.356448287074,42.0174195919154],[-76.3575590377531,42.0182854496901],[-76.3577168115614,42.0189656189986],[-76.3577989553076,42.0194274591815],[-76.358255576153,42.0198019372621],[-76.3587008027674,42.020164471945],[-76.3591692607134,42.0206040802651],[-76.3595848950256,42.0210426037593],[-76.3600088369577,42.0214475950736],[-76.3604784366624,42.021809114011]]]},"properties":{"id":"ny-stn-nichols-public-9","sourceId":"ny-stn-nichols-public","sourceUrl":"https://services2.arcgis.com/qO6xd1V1VbSyViir/arcgis/rest/services/Fiber_Route/FeatureServer/0","source":"Southern Tier Central Regional Planning","name":"STN Nichols FTTH route","carrier":"STN (as published)","category":"unknown","routeStatus":"Published FTTH route; operational status not established","states":["NY"],"evidence":"publisher_route","retrievedAt":"2026-09-20T23:14:40.303Z","dataDate":null,"metadataModified":"2022-08-31T15:56:40.000Z","publishedLineParts":1,"networkType":"Local FTTH, not a national backbone","serviceability":"Unconfirmed","routeDiversity":"Unconfirmed"}},{"type":"Feature","bbox":[-76.2828577267721,42.0215554159183,-76.2780442462559,42.0334841490915],"geometry":{"type":"MultiLineString","coordinates":[[[-76.2780442462559,42.0334841490915],[-76.2790021548777,42.0326399112222],[-76.2795153120938,42.031969449783],[-76.2799171949957,42.0314367428707],[-76.280469583437,42.0308890956777],[-76.2811937090993,42.0302461302818],[-76.2819054308242,42.0295344851556],[-76.2820359713064,42.028881514946],[-76.2813807913421,42.0282152571115],[-76.2819056742677,42.0276610120457],[-76.2817975512434,42.0264945797696],[-76.2817576301122,42.0258755802962],[-76.2819813097196,42.0253706899429],[-76.2817280045724,42.0249548043178],[-76.2828577267721,42.0218199110578],[-76.2828049920716,42.0215978308061],[-76.2816801836566,42.0215554159183],[-76.2809066614334,42.021567420248],[-76.2796732035814,42.0216750900683],[-76.2785478103632,42.0216431559843]]]},"properties":{"id":"ny-stn-nichols-public-10","sourceId":"ny-stn-nichols-public","sourceUrl":"https://services2.arcgis.com/qO6xd1V1VbSyViir/arcgis/rest/services/Fiber_Route/FeatureServer/0","source":"Southern Tier Central Regional Planning","name":"STN Nichols FTTH route","carrier":"STN (as published)","category":"unknown","routeStatus":"Published FTTH route; operational status not established","states":["NY"],"evidence":"publisher_route","retrievedAt":"2026-09-20T23:14:40.303Z","dataDate":null,"metadataModified":"2022-08-31T15:56:40.000Z","publishedLineParts":1,"networkType":"Local FTTH, not a national backbone","serviceability":"Unconfirmed","routeDiversity":"Unconfirmed"}},{"type":"Feature","bbox":[-76.2909791401342,42.0015708368757,-76.2876621702364,42.0134764712596],"geometry":{"type":"MultiLineString","coordinates":[[[-76.2909017412894,42.0015708368757],[-76.290828677714,42.0022572696927],[-76.2908160420113,42.0030961006825],[-76.2907696332471,42.0040811931713],[-76.2907108816308,42.0048354738185],[-76.2906955689485,42.0055733812756],[-76.2906682754352,42.0063011072883],[-76.2907465537308,42.0070156791397],[-76.2907375454251,42.0073840158712],[-76.2908887633285,42.0086491958129],[-76.2909761721005,42.0094992509552],[-76.2909791401342,42.0100550159807],[-76.2901380116011,42.010942615194],[-76.2891850616797,42.0119200039205],[-76.2883691802976,42.0127002760563],[-76.2876621702364,42.0134764712596]]]},"properties":{"id":"ny-stn-nichols-public-11","sourceId":"ny-stn-nichols-public","sourceUrl":"https://services2.arcgis.com/qO6xd1V1VbSyViir/arcgis/rest/services/Fiber_Route/FeatureServer/0","source":"Southern Tier Central Regional Planning","name":"STN Nichols FTTH route","carrier":"STN (as published)","category":"unknown","routeStatus":"Published FTTH route; operational status not established","states":["NY"],"evidence":"publisher_route","retrievedAt":"2026-09-20T23:14:40.303Z","dataDate":null,"metadataModified":"2022-08-31T15:56:40.000Z","publishedLineParts":1,"networkType":"Local FTTH, not a national backbone","serviceability":"Unconfirmed","routeDiversity":"Unconfirmed"}},{"type":"Feature","bbox":[-76.2907294039937,42.0065164917651,-76.2774108710986,42.0071879712271],"geometry":{"type":"MultiLineString","coordinates":[[[-76.2774108710986,42.0065164917651],[-76.2787527933346,42.0069514271027],[-76.2794236695618,42.0068733222452],[-76.281224730621,42.0071879712271],[-76.2823472689933,42.0071328221102],[-76.2838896080642,42.007027907158],[-76.2849172196638,42.0070246290427],[-76.2886684405598,42.0070043228804],[-76.2907294039937,42.0069635062796]]]},"properties":{"id":"ny-stn-nichols-public-12","sourceId":"ny-stn-nichols-public","sourceUrl":"https://services2.arcgis.com/qO6xd1V1VbSyViir/arcgis/rest/services/Fiber_Route/FeatureServer/0","source":"Southern Tier Central Regional Planning","name":"STN Nichols FTTH route","carrier":"STN (as published)","category":"unknown","routeStatus":"Published FTTH route; operational status not established","states":["NY"],"evidence":"publisher_route","retrievedAt":"2026-09-20T23:14:40.303Z","dataDate":null,"metadataModified":"2022-08-31T15:56:40.000Z","publishedLineParts":1,"networkType":"Local FTTH, not a national backbone","serviceability":"Unconfirmed","routeDiversity":"Unconfirmed"}},{"type":"Feature","bbox":[-76.2838896772345,42.0017010700535,-76.2821388050502,42.0070386272813],"geometry":{"type":"MultiLineString","coordinates":[[[-76.2821388050502,42.0017010700535],[-76.2822794946984,42.0023433948681],[-76.2826125486832,42.0034347297815],[-76.2827727191967,42.0050051617842],[-76.2830798397176,42.0059614100669],[-76.2832571078659,42.0068957738137],[-76.2838896772345,42.0070386272813]]]},"properties":{"id":"ny-stn-nichols-public-13","sourceId":"ny-stn-nichols-public","sourceUrl":"https://services2.arcgis.com/qO6xd1V1VbSyViir/arcgis/rest/services/Fiber_Route/FeatureServer/0","source":"Southern Tier Central Regional Planning","name":"STN Nichols FTTH route","carrier":"STN (as published)","category":"unknown","routeStatus":"Published FTTH route; operational status not established","states":["NY"],"evidence":"publisher_route","retrievedAt":"2026-09-20T23:14:40.303Z","dataDate":null,"metadataModified":"2022-08-31T15:56:40.000Z","publishedLineParts":1,"networkType":"Local FTTH, not a national backbone","serviceability":"Unconfirmed","routeDiversity":"Unconfirmed"}},{"type":"Feature","bbox":[-76.3285001157535,41.9999656387329,-76.3119758010365,42.0034376723081],"geometry":{"type":"MultiLineString","coordinates":[[[-76.3285001157535,42.0021875589226],[-76.3272785560874,42.0020810023045],[-76.3260938120766,42.0016797468322],[-76.3248628443546,42.0018031620029],[-76.3235772967925,42.0017456730933],[-76.3221708386882,42.0016007856971],[-76.320765746023,42.0015060866787],[-76.3199690966729,42.0012400838067],[-76.3187964682403,42.0009905607427],[-76.317628011584,42.0007464099757],[-76.3164630853067,42.0004622966668],[-76.3154374886283,42.0002069078991],[-76.3144351439427,42.000079016863],[-76.3134413512186,42.0000259190596],[-76.312430512962,41.9999656387329],[-76.3122700451061,42.0008301760024],[-76.3121802117811,42.0017202036699],[-76.3120561930679,42.0026076287905],[-76.3119758010365,42.0034376723081]]]},"properties":{"id":"ny-stn-nichols-public-14","sourceId":"ny-stn-nichols-public","sourceUrl":"https://services2.arcgis.com/qO6xd1V1VbSyViir/arcgis/rest/services/Fiber_Route/FeatureServer/0","source":"Southern Tier Central Regional Planning","name":"STN Nichols FTTH route","carrier":"STN (as published)","category":"unknown","routeStatus":"Published FTTH route; operational status not established","states":["NY"],"evidence":"publisher_route","retrievedAt":"2026-09-20T23:14:40.303Z","dataDate":null,"metadataModified":"2022-08-31T15:56:40.000Z","publishedLineParts":1,"networkType":"Local FTTH, not a national backbone","serviceability":"Unconfirmed","routeDiversity":"Unconfirmed"}},{"type":"Feature","bbox":[-76.3356329331455,42.0029412732421,-76.3279943795199,42.026153030521],"geometry":{"type":"MultiLineString","coordinates":[[[-76.3356329331455,42.0029412732421],[-76.3292482677564,42.0087762532873],[-76.330262955294,42.0135007112303],[-76.3305913919383,42.0161273441149],[-76.3294058151892,42.023009653763],[-76.3290481500606,42.0248569029073],[-76.3279943795199,42.026153030521]]]},"properties":{"id":"ny-stn-nichols-public-15","sourceId":"ny-stn-nichols-public","sourceUrl":"https://services2.arcgis.com/qO6xd1V1VbSyViir/arcgis/rest/services/Fiber_Route/FeatureServer/0","source":"Southern Tier Central Regional Planning","name":"STN Nichols FTTH route","carrier":"STN (as published)","category":"unknown","routeStatus":"Published FTTH route; operational status not established","states":["NY"],"evidence":"publisher_route","retrievedAt":"2026-09-20T23:14:40.303Z","dataDate":null,"metadataModified":"2022-08-31T15:56:40.000Z","publishedLineParts":1,"networkType":"Local FTTH, not a national backbone","serviceability":"Unconfirmed","routeDiversity":"Unconfirmed"}},{"type":"Feature","bbox":[-76.3260504944153,42.008810616139,-76.3059658220541,42.0175567121929],"geometry":{"type":"MultiLineString","coordinates":[[[-76.3059658220541,42.0173810351266],[-76.3067974958189,42.0173369482677],[-76.307579198101,42.0173230130284],[-76.3082465457458,42.0175567121929],[-76.3094738672061,42.0173593807929],[-76.3107561808331,42.017271086883],[-76.3117031156354,42.0172330318871],[-76.3127491606646,42.0171633442007],[-76.3136682890156,42.017096338047],[-76.3145243556335,42.0170132561649],[-76.3148632908886,42.0165072689681],[-76.3153378250391,42.0164076980485],[-76.3160973209674,42.0161854300404],[-76.3170483359177,42.0159443442708],[-76.3184219641917,42.0158888109748],[-76.3196696450695,42.0158823677825],[-76.320245300775,42.0158809108227],[-76.3209785110998,42.0158321290138],[-76.3221756788109,42.0158197258236],[-76.322951562705,42.01538371184],[-76.3237798812621,42.0146810380551],[-76.3245737638012,42.0139103632022],[-76.3253374629467,42.0132732610774],[-76.3260504944153,42.0125221327073],[-76.325151791059,42.0122376808567],[-76.3250559075805,42.0113231657253],[-76.3249574001231,42.0103809701758],[-76.3248806552517,42.0097911580731],[-76.324810200384,42.0091617768396],[-76.3237202681616,42.0091455957333],[-76.3225254989522,42.0091102431857],[-76.321689253661,42.008810616139]]]},"properties":{"id":"ny-stn-nichols-public-16","sourceId":"ny-stn-nichols-public","sourceUrl":"https://services2.arcgis.com/qO6xd1V1VbSyViir/arcgis/rest/services/Fiber_Route/FeatureServer/0","source":"Southern Tier Central Regional Planning","name":"STN Nichols FTTH route","carrier":"STN (as published)","category":"unknown","routeStatus":"Published FTTH route; operational status not established","states":["NY"],"evidence":"publisher_route","retrievedAt":"2026-09-20T23:14:40.303Z","dataDate":null,"metadataModified":"2022-08-31T15:56:40.000Z","publishedLineParts":1,"networkType":"Local FTTH, not a national backbone","serviceability":"Unconfirmed","routeDiversity":"Unconfirmed"}},{"type":"Feature","bbox":[-76.3064054530626,42.0133530947514,-76.2876698032214,42.02362122172],"geometry":{"type":"MultiLineString","coordinates":[[[-76.2876698032214,42.0134797356937],[-76.2888054767598,42.0133530947514],[-76.2890822593769,42.0136476192179],[-76.2902149019995,42.0137949700421],[-76.2910186803798,42.0138988333064],[-76.2909998543864,42.014312875059],[-76.291337745799,42.0147652669478],[-76.2919613742356,42.0161158947101],[-76.2923438265779,42.0169009566992],[-76.2928700363151,42.0180761048866],[-76.2926506686211,42.0193064360392],[-76.2923677028998,42.020699450917],[-76.2922543786301,42.0218551477634],[-76.2921380881233,42.0231693813183],[-76.2923109078143,42.0232069362646],[-76.2934480653695,42.0232634721795],[-76.294776229907,42.0233192913278],[-76.295906465943,42.0233778551678],[-76.2975789933564,42.0234763367653],[-76.2991903005832,42.0235382731536],[-76.3009886289673,42.02362122172],[-76.3017438408301,42.0235811818781],[-76.30267753716,42.0235127030127],[-76.3043050625709,42.0234026072129],[-76.3054055203535,42.0233273346998],[-76.3064054530626,42.0232485979648]]]},"properties":{"id":"ny-stn-nichols-public-17","sourceId":"ny-stn-nichols-public","sourceUrl":"https://services2.arcgis.com/qO6xd1V1VbSyViir/arcgis/rest/services/Fiber_Route/FeatureServer/0","source":"Southern Tier Central Regional Planning","name":"STN Nichols FTTH route","carrier":"STN (as published)","category":"unknown","routeStatus":"Published FTTH route; operational status not established","states":["NY"],"evidence":"publisher_route","retrievedAt":"2026-09-20T23:14:40.303Z","dataDate":null,"metadataModified":"2022-08-31T15:56:40.000Z","publishedLineParts":1,"networkType":"Local FTTH, not a national backbone","serviceability":"Unconfirmed","routeDiversity":"Unconfirmed"}},{"type":"Feature","bbox":[-76.3140326510847,42.0232631271677,-76.3047652039139,42.0414666840282],"geometry":{"type":"MultiLineString","coordinates":[[[-76.3140326510847,42.0414666840282],[-76.3139517092843,42.0413876461954],[-76.3137818172028,42.040755438732],[-76.3136126329938,42.0401134698044],[-76.3132249084391,42.0393720128068],[-76.3128872047743,42.0387032429459],[-76.3126545779467,42.0382341191051],[-76.3120582762611,42.0373097531991],[-76.3114643137885,42.0364205971427],[-76.3106952849384,42.0356778287023],[-76.3104462351107,42.0348443420803],[-76.3095185161707,42.0342035851569],[-76.3085956957439,42.0335471479625],[-76.307770999194,42.0327112967409],[-76.3071979521961,42.0320890482824],[-76.3067399335721,42.0316281448026],[-76.3058625346611,42.0306459557891],[-76.3049452900773,42.0296922652485],[-76.3047652039139,42.0288072298154],[-76.3049961464004,42.0277683472455],[-76.3051185670108,42.0272917857955],[-76.305975001938,42.0253442216692],[-76.3061632690586,42.0243835020935],[-76.3064004898706,42.0232631271677]]]},"properties":{"id":"ny-stn-nichols-public-18","sourceId":"ny-stn-nichols-public","sourceUrl":"https://services2.arcgis.com/qO6xd1V1VbSyViir/arcgis/rest/services/Fiber_Route/FeatureServer/0","source":"Southern Tier Central Regional Planning","name":"STN Nichols FTTH route","carrier":"STN (as published)","category":"unknown","routeStatus":"Published FTTH route; operational status not established","states":["NY"],"evidence":"publisher_route","retrievedAt":"2026-09-20T23:14:40.303Z","dataDate":null,"metadataModified":"2022-08-31T15:56:40.000Z","publishedLineParts":1,"networkType":"Local FTTH, not a national backbone","serviceability":"Unconfirmed","routeDiversity":"Unconfirmed"}},{"type":"Feature","bbox":[-76.3883476882902,42.0130326661848,-76.386757022552,42.0257649040262],"geometry":{"type":"MultiLineString","coordinates":[[[-76.3883476882902,42.0257649040262],[-76.3882729170175,42.0253457938572],[-76.388048097448,42.0240302913238],[-76.3879828060965,42.02360724982],[-76.388073597924,42.0232680601023],[-76.3878080146035,42.0226969883026],[-76.3875368096259,42.0175987887097],[-76.3874903999634,42.0165059281511],[-76.3871261744382,42.015535657134],[-76.387106158177,42.0147972999273],[-76.3869232000998,42.0142008758402],[-76.386757022552,42.0136275641231],[-76.3877750464326,42.0130326661848]]]},"properties":{"id":"ny-stn-nichols-public-19","sourceId":"ny-stn-nichols-public","sourceUrl":"https://services2.arcgis.com/qO6xd1V1VbSyViir/arcgis/rest/services/Fiber_Route/FeatureServer/0","source":"Southern Tier Central Regional Planning","name":"STN Nichols FTTH route","carrier":"STN (as published)","category":"unknown","routeStatus":"Published FTTH route; operational status not established","states":["NY"],"evidence":"publisher_route","retrievedAt":"2026-09-20T23:14:40.303Z","dataDate":null,"metadataModified":"2022-08-31T15:56:40.000Z","publishedLineParts":1,"networkType":"Local FTTH, not a national backbone","serviceability":"Unconfirmed","routeDiversity":"Unconfirmed"}},{"type":"Feature","bbox":[-76.4209542639593,42.005959916834,-76.3924379630189,42.0216651932534],"geometry":{"type":"MultiLineString","coordinates":[[[-76.3924379630189,42.0096117830903],[-76.3927600818117,42.0091626972976],[-76.3931874076975,42.0085062097941],[-76.3928309409214,42.0075240901099],[-76.3925463797922,42.0068809298134],[-76.3926840169651,42.0063128501626],[-76.3934759402785,42.0060048453058],[-76.3974755453506,42.005959916834],[-76.3983034003771,42.0060669589143],[-76.4005787476518,42.0061348397832],[-76.4021435356216,42.0062032419076],[-76.4035990498254,42.006249363053],[-76.4048592127941,42.0063072917889],[-76.4054826382114,42.0067265067479],[-76.405524814114,42.0071744789887],[-76.4057009108592,42.0081520017073],[-76.4059013663215,42.0092957710863],[-76.4061029842039,42.0102934181494],[-76.4063390336128,42.011427585014],[-76.4053278063857,42.012047504057],[-76.4051024630983,42.0125576602321],[-76.4048464126996,42.0132110150102],[-76.4044747464289,42.0140325219025],[-76.4042942533288,42.0145151808945],[-76.4041485429965,42.0154043537078],[-76.4039693228091,42.0163946202228],[-76.4037985836163,42.0172675042951],[-76.4045711742865,42.0187364592035],[-76.404593630372,42.0194257093255],[-76.4046147479677,42.0199560382797],[-76.4046106624297,42.0208325159181],[-76.4046536063919,42.0210653219411],[-76.4057396857401,42.0211444110745],[-76.406817119702,42.0212061121556],[-76.4078515854472,42.0211701937196],[-76.4087370673991,42.021273804024],[-76.4114346372304,42.021534597864],[-76.4125339784072,42.0214751547569],[-76.4138570342256,42.021395504123],[-76.4150078533597,42.0216651932534],[-76.4161078278487,42.0216479262109],[-76.4172001334201,42.0216286070581],[-76.4183674671823,42.0215923671973],[-76.419659737736,42.0215399326788],[-76.4209542639593,42.0214967342802]]]},"properties":{"id":"ny-stn-nichols-public-20","sourceId":"ny-stn-nichols-public","sourceUrl":"https://services2.arcgis.com/qO6xd1V1VbSyViir/arcgis/rest/services/Fiber_Route/FeatureServer/0","source":"Southern Tier Central Regional Planning","name":"STN Nichols FTTH route","carrier":"STN (as published)","category":"unknown","routeStatus":"Published FTTH route; operational status not established","states":["NY"],"evidence":"publisher_route","retrievedAt":"2026-09-20T23:14:40.303Z","dataDate":null,"metadataModified":"2022-08-31T15:56:40.000Z","publishedLineParts":1,"networkType":"Local FTTH, not a national backbone","serviceability":"Unconfirmed","routeDiversity":"Unconfirmed"}},{"type":"Feature","bbox":[-76.4275687965515,41.998637647254,-76.4054825753294,42.0146699487992],"geometry":{"type":"MultiLineString","coordinates":[[[-76.4054825753294,42.0067125031006],[-76.4060303113958,42.0065896241172],[-76.4061590875867,42.0056904227689],[-76.4068078508849,42.004836527177],[-76.4074772332138,42.0039469402849],[-76.4077220672478,42.0031039356679],[-76.4077653058574,42.0023292320457],[-76.4078540261698,42.0015854831816],[-76.4087635290725,42.0009306551683],[-76.4094786536156,42.0001464321438],[-76.4105124519126,41.999821047027],[-76.4115504139009,41.9996697451281],[-76.4125819277821,41.9995801048485],[-76.4134899592443,41.9995430740221],[-76.4144215939406,41.9995061800286],[-76.415492054281,41.9996554361778],[-76.4165349758679,41.9997885211747],[-76.4195834914296,41.998637647254],[-76.4274352637812,42.0005342356822],[-76.4267849032784,42.0018273990788],[-76.4264214467111,42.0032765260602],[-76.4265226589958,42.0038416849748],[-76.4265725837661,42.0045369540973],[-76.4264254190613,42.005425431997],[-76.4262812807807,42.0061534080172],[-76.4261737488479,42.0069497590066],[-76.4261610439748,42.0078679988959],[-76.4252294452111,42.0082587537454],[-76.4251641026557,42.0086947097742],[-76.4256381768688,42.0092239581189],[-76.4262143437156,42.0097359130939],[-76.4259963630203,42.0099695199924],[-76.4262518618534,42.0109886788389],[-76.4262488605821,42.0120529010732],[-76.4262610489238,42.0129648907902],[-76.4270436180802,42.0138229929036],[-76.4275687965515,42.0146699487992]]]},"properties":{"id":"ny-stn-nichols-public-21","sourceId":"ny-stn-nichols-public","sourceUrl":"https://services2.arcgis.com/qO6xd1V1VbSyViir/arcgis/rest/services/Fiber_Route/FeatureServer/0","source":"Southern Tier Central Regional Planning","name":"STN Nichols FTTH route","carrier":"STN (as published)","category":"unknown","routeStatus":"Published FTTH route; operational status not established","states":["NY"],"evidence":"publisher_route","retrievedAt":"2026-09-20T23:14:40.303Z","dataDate":null,"metadataModified":"2022-08-31T15:56:40.000Z","publishedLineParts":1,"networkType":"Local FTTH, not a national backbone","serviceability":"Unconfirmed","routeDiversity":"Unconfirmed"}},{"type":"Feature","bbox":[-76.4401114958583,42.0005464162134,-76.4268040957844,42.001922058233],"geometry":{"type":"MultiLineString","coordinates":[[[-76.4401114958583,42.0005464162134],[-76.4391595870843,42.0007163312434],[-76.43818015393,42.0010284512215],[-76.4370743233237,42.0013123176739],[-76.4359747234322,42.0016289421023],[-76.4347589938323,42.0018740928239],[-76.433496931825,42.0017570423073],[-76.4326087594188,42.001922058233],[-76.4315149689322,42.0018303203177],[-76.4302312620182,42.0017968188528],[-76.4289721581631,42.0017701919013],[-76.4277386437172,42.0017867367008],[-76.4268040957844,42.0017535609822]]]},"properties":{"id":"ny-stn-nichols-public-22","sourceId":"ny-stn-nichols-public","sourceUrl":"https://services2.arcgis.com/qO6xd1V1VbSyViir/arcgis/rest/services/Fiber_Route/FeatureServer/0","source":"Southern Tier Central Regional Planning","name":"STN Nichols FTTH route","carrier":"STN (as published)","category":"unknown","routeStatus":"Published FTTH route; operational status not established","states":["NY"],"evidence":"publisher_route","retrievedAt":"2026-09-20T23:14:40.303Z","dataDate":null,"metadataModified":"2022-08-31T15:56:40.000Z","publishedLineParts":1,"networkType":"Local FTTH, not a national backbone","serviceability":"Unconfirmed","routeDiversity":"Unconfirmed"}},{"type":"Feature","bbox":[-76.4046525347018,42.0210770781064,-76.3968217892161,42.0216765442259],"geometry":{"type":"MultiLineString","coordinates":[[[-76.4046525347018,42.0210770781064],[-76.4031014092091,42.0211613532513],[-76.4016362794386,42.021224112742],[-76.4003997403652,42.021260157945],[-76.400118928804,42.0212875021539],[-76.3990099487043,42.0213981007967],[-76.3979615941064,42.0215863416777],[-76.3968217892161,42.0216765442259]]]},"properties":{"id":"ny-stn-nichols-public-23","sourceId":"ny-stn-nichols-public","sourceUrl":"https://services2.arcgis.com/qO6xd1V1VbSyViir/arcgis/rest/services/Fiber_Route/FeatureServer/0","source":"Southern Tier Central Regional Planning","name":"STN Nichols FTTH route","carrier":"STN (as published)","category":"unknown","routeStatus":"Published FTTH route; operational status not established","states":["NY"],"evidence":"publisher_route","retrievedAt":"2026-09-20T23:14:40.303Z","dataDate":null,"metadataModified":"2022-08-31T15:56:40.000Z","publishedLineParts":1,"networkType":"Local FTTH, not a national backbone","serviceability":"Unconfirmed","routeDiversity":"Unconfirmed"}},{"type":"Feature","bbox":[-76.3140347836852,42.0406231519664,-76.280324934015,42.0448635847534],"geometry":{"type":"MultiLineString","coordinates":[[[-76.3140347836852,42.0414669268682],[-76.3136853605992,42.0418234578419],[-76.3134457412854,42.0420329539475],[-76.3131607570497,42.0424889412598],[-76.311958188667,42.0427530410905],[-76.3104668020391,42.043077420045],[-76.309000092132,42.0434056779968],[-76.3074188587043,42.0437328548536],[-76.3061466978366,42.0440126040697],[-76.3051591088778,42.0442224858876],[-76.3029901302176,42.0446305163163],[-76.3018556226924,42.0448635847534],[-76.3005102078066,42.0444765178041],[-76.2992568226266,42.04412232528],[-76.2982426641967,42.0438228371832],[-76.2969288268897,42.0435462359442],[-76.2957534020017,42.0432718356781],[-76.2947549524112,42.0429258160929],[-76.2933914679134,42.0432766463105],[-76.2919923652146,42.0435825500157],[-76.291072571212,42.0437798340486],[-76.290021153359,42.0436865927776],[-76.2880426319121,42.04340561929],[-76.2866452000797,42.0427169186784],[-76.2857410277799,42.0421054016713],[-76.2846105743517,42.0413351532837],[-76.2835018960859,42.0410152119754],[-76.2824860892474,42.0407562866804],[-76.2814384775564,42.0406944331157],[-76.280324934015,42.0406231519664]]]},"properties":{"id":"ny-stn-nichols-public-24","sourceId":"ny-stn-nichols-public","sourceUrl":"https://services2.arcgis.com/qO6xd1V1VbSyViir/arcgis/rest/services/Fiber_Route/FeatureServer/0","source":"Southern Tier Central Regional Planning","name":"STN Nichols FTTH route","carrier":"STN (as published)","category":"unknown","routeStatus":"Published FTTH route; operational status not established","states":["NY"],"evidence":"publisher_route","retrievedAt":"2026-09-20T23:14:40.303Z","dataDate":null,"metadataModified":"2022-08-31T15:56:40.000Z","publishedLineParts":1,"networkType":"Local FTTH, not a national backbone","serviceability":"Unconfirmed","routeDiversity":"Unconfirmed"}},{"type":"Feature","bbox":[-76.3119683360365,42.003435707731,-76.3066282271682,42.0064726737245],"geometry":{"type":"MultiLineString","coordinates":[[[-76.3119683360365,42.003435707731],[-76.3115156956261,42.0037027601418],[-76.3098895760786,42.005738034854],[-76.3093324669905,42.0062075059822],[-76.3069513439894,42.0063160488807],[-76.3066282271682,42.0064726737245]]]},"properties":{"id":"ny-stn-nichols-public-25","sourceId":"ny-stn-nichols-public","sourceUrl":"https://services2.arcgis.com/qO6xd1V1VbSyViir/arcgis/rest/services/Fiber_Route/FeatureServer/0","source":"Southern Tier Central Regional Planning","name":"STN Nichols FTTH route","carrier":"STN (as published)","category":"unknown","routeStatus":"Published FTTH route; operational status not established","states":["NY"],"evidence":"publisher_route","retrievedAt":"2026-09-20T23:14:40.303Z","dataDate":null,"metadataModified":"2022-08-31T15:56:40.000Z","publishedLineParts":1,"networkType":"Local FTTH, not a national backbone","serviceability":"Unconfirmed","routeDiversity":"Unconfirmed"}},{"type":"Feature","bbox":[-76.3770305811868,42.0061148010101,-76.367846168891,42.0221788412468],"geometry":{"type":"MultiLineString","coordinates":[[[-76.3700549743594,42.0221788412468],[-76.3699004883851,42.0193362610555],[-76.3681319113048,42.0194181493065],[-76.3680400684485,42.017703249085],[-76.367846168891,42.0175050171569],[-76.3687772089027,42.0157100952392],[-76.3728929903955,42.0107801309986],[-76.3738734566124,42.0092241917374],[-76.3754474047031,42.0076512552962],[-76.3770305811868,42.0061148010101]]]},"properties":{"id":"ny-stn-nichols-public-26","sourceId":"ny-stn-nichols-public","sourceUrl":"https://services2.arcgis.com/qO6xd1V1VbSyViir/arcgis/rest/services/Fiber_Route/FeatureServer/0","source":"Southern Tier Central Regional Planning","name":"STN Nichols FTTH route","carrier":"STN (as published)","category":"unknown","routeStatus":"Published FTTH route; operational status not established","states":["NY"],"evidence":"publisher_route","retrievedAt":"2026-09-20T23:14:40.303Z","dataDate":null,"metadataModified":"2022-08-31T15:56:40.000Z","publishedLineParts":1,"networkType":"Local FTTH, not a national backbone","serviceability":"Unconfirmed","routeDiversity":"Unconfirmed"}},{"type":"Feature","bbox":[-76.3654971121523,42.0174707771311,-76.3628831260666,42.0217120412777],"geometry":{"type":"MultiLineString","coordinates":[[[-76.3654971121523,42.0217120412777],[-76.3652666107386,42.0174707771311],[-76.3628831260666,42.0175690242787]]]},"properties":{"id":"ny-stn-nichols-public-27","sourceId":"ny-stn-nichols-public","sourceUrl":"https://services2.arcgis.com/qO6xd1V1VbSyViir/arcgis/rest/services/Fiber_Route/FeatureServer/0","source":"Southern Tier Central Regional Planning","name":"STN Nichols FTTH route","carrier":"STN (as published)","category":"unknown","routeStatus":"Published FTTH route; operational status not established","states":["NY"],"evidence":"publisher_route","retrievedAt":"2026-09-20T23:14:40.303Z","dataDate":null,"metadataModified":"2022-08-31T15:56:40.000Z","publishedLineParts":1,"networkType":"Local FTTH, not a national backbone","serviceability":"Unconfirmed","routeDiversity":"Unconfirmed"}},{"type":"Feature","bbox":[-76.3670972712865,42.0102428799439,-76.3612381688476,42.0218548681441],"geometry":{"type":"MultiLineString","coordinates":[[[-76.3670972712865,42.0218548681441],[-76.3669130429914,42.0176997312585],[-76.3666210986088,42.0166818031841],[-76.3652283299311,42.0153050446915],[-76.3636019031597,42.0139464859683],[-76.3622448470061,42.0122492911476],[-76.3616781115715,42.0115226316945],[-76.3612381688476,42.0102428799439]]]},"properties":{"id":"ny-stn-nichols-public-28","sourceId":"ny-stn-nichols-public","sourceUrl":"https://services2.arcgis.com/qO6xd1V1VbSyViir/arcgis/rest/services/Fiber_Route/FeatureServer/0","source":"Southern Tier Central Regional Planning","name":"STN Nichols FTTH route","carrier":"STN (as published)","category":"unknown","routeStatus":"Published FTTH route; operational status not established","states":["NY"],"evidence":"publisher_route","retrievedAt":"2026-09-20T23:14:40.303Z","dataDate":null,"metadataModified":"2022-08-31T15:56:40.000Z","publishedLineParts":1,"networkType":"Local FTTH, not a national backbone","serviceability":"Unconfirmed","routeDiversity":"Unconfirmed"}},{"type":"Feature","bbox":[-76.3404286647482,42.0500430763178,-76.3375914491111,42.0508132738356],"geometry":{"type":"MultiLineString","coordinates":[[[-76.3404286647482,42.0508132738356],[-76.3375914491111,42.0500430763178]]]},"properties":{"id":"ny-stn-nichols-public-29","sourceId":"ny-stn-nichols-public","sourceUrl":"https://services2.arcgis.com/qO6xd1V1VbSyViir/arcgis/rest/services/Fiber_Route/FeatureServer/0","source":"Southern Tier Central Regional Planning","name":"STN Nichols FTTH route","carrier":"STN (as published)","category":"unknown","routeStatus":"Published FTTH route; operational status not established","states":["NY"],"evidence":"publisher_route","retrievedAt":"2026-09-20T23:14:40.303Z","dataDate":null,"metadataModified":"2022-08-31T15:56:40.000Z","publishedLineParts":1,"networkType":"Local FTTH, not a national backbone","serviceability":"Unconfirmed","routeDiversity":"Unconfirmed"}},{"type":"Feature","bbox":[-76.3397822999519,42.0483294318161,-76.3387743533721,42.0503621230112],"geometry":{"type":"MultiLineString","coordinates":[[[-76.3387743533721,42.0503621230112],[-76.3397822999519,42.0483294318161]]]},"properties":{"id":"ny-stn-nichols-public-30","sourceId":"ny-stn-nichols-public","sourceUrl":"https://services2.arcgis.com/qO6xd1V1VbSyViir/arcgis/rest/services/Fiber_Route/FeatureServer/0","source":"Southern Tier Central Regional Planning","name":"STN Nichols FTTH route","carrier":"STN (as published)","category":"unknown","routeStatus":"Published FTTH route; operational status not established","states":["NY"],"evidence":"publisher_route","retrievedAt":"2026-09-20T23:14:40.303Z","dataDate":null,"metadataModified":"2022-08-31T15:56:40.000Z","publishedLineParts":1,"networkType":"Local FTTH, not a national backbone","serviceability":"Unconfirmed","routeDiversity":"Unconfirmed"}},{"type":"Feature","bbox":[-76.3699597080235,42.0206511980178,-76.3670678397828,42.02071437578],"geometry":{"type":"MultiLineString","coordinates":[[[-76.3699597080235,42.0206511980178],[-76.3670678397828,42.02071437578]]]},"properties":{"id":"ny-stn-nichols-public-31","sourceId":"ny-stn-nichols-public","sourceUrl":"https://services2.arcgis.com/qO6xd1V1VbSyViir/arcgis/rest/services/Fiber_Route/FeatureServer/0","source":"Southern Tier Central Regional Planning","name":"STN Nichols FTTH route","carrier":"STN (as published)","category":"unknown","routeStatus":"Published FTTH route; operational status not established","states":["NY"],"evidence":"publisher_route","retrievedAt":"2026-09-20T23:14:40.303Z","dataDate":null,"metadataModified":"2022-08-31T15:56:40.000Z","publishedLineParts":1,"networkType":"Local FTTH, not a national backbone","serviceability":"Unconfirmed","routeDiversity":"Unconfirmed"}},{"type":"Feature","bbox":[-76.367832831604,42.0175086010662,-76.3669139520864,42.0176889201643],"geometry":{"type":"MultiLineString","coordinates":[[[-76.367832831604,42.0175086010662],[-76.3669139520864,42.0176889201643]]]},"properties":{"id":"ny-stn-nichols-public-32","sourceId":"ny-stn-nichols-public","sourceUrl":"https://services2.arcgis.com/qO6xd1V1VbSyViir/arcgis/rest/services/Fiber_Route/FeatureServer/0","source":"Southern Tier Central Regional Planning","name":"STN Nichols FTTH route","carrier":"STN (as published)","category":"unknown","routeStatus":"Published FTTH route; operational status not established","states":["NY"],"evidence":"publisher_route","retrievedAt":"2026-09-20T23:14:40.303Z","dataDate":null,"metadataModified":"2022-08-31T15:56:40.000Z","publishedLineParts":1,"networkType":"Local FTTH, not a national backbone","serviceability":"Unconfirmed","routeDiversity":"Unconfirmed"}},{"type":"Feature","bbox":[-76.3668181440664,42.017355232258,-76.3652669601833,42.0174477920418],"geometry":{"type":"MultiLineString","coordinates":[[[-76.3668181440664,42.017355232258],[-76.3652669601833,42.0174477920418]]]},"properties":{"id":"ny-stn-nichols-public-33","sourceId":"ny-stn-nichols-public","sourceUrl":"https://services2.arcgis.com/qO6xd1V1VbSyViir/arcgis/rest/services/Fiber_Route/FeatureServer/0","source":"Southern Tier Central Regional Planning","name":"STN Nichols FTTH route","carrier":"STN (as published)","category":"unknown","routeStatus":"Published FTTH route; operational status not established","states":["NY"],"evidence":"publisher_route","retrievedAt":"2026-09-20T23:14:40.303Z","dataDate":null,"metadataModified":"2022-08-31T15:56:40.000Z","publishedLineParts":1,"networkType":"Local FTTH, not a national backbone","serviceability":"Unconfirmed","routeDiversity":"Unconfirmed"}},{"type":"Feature","bbox":[-76.3681345945726,42.0194142758642,-76.3669974954078,42.0194845677268],"geometry":{"type":"MultiLineString","coordinates":[[[-76.3681345945726,42.0194142758642],[-76.3669974954078,42.0194845677268]]]},"properties":{"id":"ny-stn-nichols-public-34","sourceId":"ny-stn-nichols-public","sourceUrl":"https://services2.arcgis.com/qO6xd1V1VbSyViir/arcgis/rest/services/Fiber_Route/FeatureServer/0","source":"Southern Tier Central Regional Planning","name":"STN Nichols FTTH route","carrier":"STN (as published)","category":"unknown","routeStatus":"Published FTTH route; operational status not established","states":["NY"],"evidence":"publisher_route","retrievedAt":"2026-09-20T23:14:40.303Z","dataDate":null,"metadataModified":"2022-08-31T15:56:40.000Z","publishedLineParts":1,"networkType":"Local FTTH, not a national backbone","serviceability":"Unconfirmed","routeDiversity":"Unconfirmed"}},{"type":"Feature","bbox":[-76.3700190534261,42.0216413387868,-76.3688790562963,42.0216826911947],"geometry":{"type":"MultiLineString","coordinates":[[[-76.3688790562963,42.0216413387868],[-76.3700190534261,42.0216826911947]]]},"properties":{"id":"ny-stn-nichols-public-35","sourceId":"ny-stn-nichols-public","sourceUrl":"https://services2.arcgis.com/qO6xd1V1VbSyViir/arcgis/rest/services/Fiber_Route/FeatureServer/0","source":"Southern Tier Central Regional Planning","name":"STN Nichols FTTH route","carrier":"STN (as published)","category":"unknown","routeStatus":"Published FTTH route; operational status not established","states":["NY"],"evidence":"publisher_route","retrievedAt":"2026-09-20T23:14:40.303Z","dataDate":null,"metadataModified":"2022-08-31T15:56:40.000Z","publishedLineParts":1,"networkType":"Local FTTH, not a national backbone","serviceability":"Unconfirmed","routeDiversity":"Unconfirmed"}},{"type":"Feature","bbox":[-76.3968739328251,42.0216899272794,-76.3881029548674,42.0232584491545],"geometry":{"type":"MultiLineString","coordinates":[[[-76.3881029548674,42.0232571071452],[-76.3893918881798,42.023213291294],[-76.3910267303688,42.0230919009815],[-76.3918104754199,42.0232584491545],[-76.3933354231068,42.0228944259295],[-76.3954799109975,42.0222781822392],[-76.396745595012,42.0218882989848],[-76.3968739328251,42.0216899272794]]]},"properties":{"id":"ny-stn-nichols-public-36","sourceId":"ny-stn-nichols-public","sourceUrl":"https://services2.arcgis.com/qO6xd1V1VbSyViir/arcgis/rest/services/Fiber_Route/FeatureServer/0","source":"Southern Tier Central Regional Planning","name":"STN Nichols FTTH route","carrier":"STN (as published)","category":"unknown","routeStatus":"Published FTTH route; operational status not established","states":["NY"],"evidence":"publisher_route","retrievedAt":"2026-09-20T23:14:40.303Z","dataDate":null,"metadataModified":"2022-08-31T15:56:40.000Z","publishedLineParts":1,"networkType":"Local FTTH, not a national backbone","serviceability":"Unconfirmed","routeDiversity":"Unconfirmed"}},{"type":"Feature","bbox":[-76.4132772229137,42.0213698396908,-76.280373578686,42.0791298610837],"geometry":{"type":"MultiLineString","coordinates":[[[-76.4132772229137,42.0280481727485],[-76.4090864509592,42.0281422770753],[-76.4074425654303,42.0283267572116],[-76.4043210249209,42.0287890438712],[-76.4017201659164,42.028403786093],[-76.3960642282589,42.027450468293],[-76.3913919799734,42.0264881269751],[-76.3883367971157,42.0257740141142],[-76.3860796101827,42.0255678710279],[-76.3818679550929,42.0248428899052],[-76.3753516937012,42.0234724782515],[-76.3722594795925,42.0224866163009],[-76.3670795448309,42.0218204129045],[-76.3654887182943,42.0217048218792],[-76.3614132388184,42.0213698396908],[-76.3586907389413,42.0230581637989],[-76.3550995618963,42.0257670107175],[-76.3534547609841,42.0271654439465],[-76.3527789494127,42.0286803678327],[-76.352467339112,42.0305255478595],[-76.3507656299266,42.0335352052779],[-76.349109317104,42.036741633096],[-76.3463683739159,42.0416312113238],[-76.3417408653248,42.0486753912869],[-76.3404152025954,42.050814124318],[-76.3389059242219,42.0541963900033],[-76.3357805173635,42.05807537324],[-76.333911769146,42.0602851503046],[-76.3324225267966,42.0624974641397],[-76.3295754997599,42.0644376328375],[-76.3256532369388,42.0632529512237],[-76.3229341901857,42.0630046958688],[-76.321209632351,42.0634806807284],[-76.3177856829843,42.065274635243],[-76.3074885589872,42.0696289412338],[-76.3013555449468,42.0732624372888],[-76.2981802258946,42.074841219159],[-76.2843267417562,42.0779235419163],[-76.280373578686,42.0791298610837]]]},"properties":{"id":"ny-stn-nichols-public-37","sourceId":"ny-stn-nichols-public","sourceUrl":"https://services2.arcgis.com/qO6xd1V1VbSyViir/arcgis/rest/services/Fiber_Route/FeatureServer/0","source":"Southern Tier Central Regional Planning","name":"STN Nichols FTTH route","carrier":"STN (as published)","category":"unknown","routeStatus":"Published FTTH route; operational status not established","states":["NY"],"evidence":"publisher_route","retrievedAt":"2026-09-20T23:14:40.303Z","dataDate":null,"metadataModified":"2022-08-31T15:56:40.000Z","publishedLineParts":1,"networkType":"Local FTTH, not a national backbone","serviceability":"Unconfirmed","routeDiversity":"Unconfirmed"}},{"type":"Feature","bbox":[-76.3280051251673,42.0261578517916,-76.3140308616406,42.0414683272017],"geometry":{"type":"MultiLineString","coordinates":[[[-76.3140308616406,42.0414683272017],[-76.3154086248599,42.0400544170103],[-76.3161692751233,42.0392157698765],[-76.3171532034473,42.0382122990746],[-76.3183508382824,42.0369305771348],[-76.3194470380506,42.0366086988025],[-76.3198937747329,42.0362456080364],[-76.3204100239503,42.0358018858111],[-76.3216717068685,42.0349107890891],[-76.3222592418953,42.034361190859],[-76.3228316492926,42.0335888882915],[-76.3231452511583,42.032923463795],[-76.3238650604157,42.0320378181186],[-76.3241092710189,42.0312989639231],[-76.3244265272312,42.0305162402768],[-76.3246525882725,42.0298551888963],[-76.3269093458107,42.0275736613062],[-76.3280051251673,42.0261578517916]]]},"properties":{"id":"ny-stn-nichols-public-38","sourceId":"ny-stn-nichols-public","sourceUrl":"https://services2.arcgis.com/qO6xd1V1VbSyViir/arcgis/rest/services/Fiber_Route/FeatureServer/0","source":"Southern Tier Central Regional Planning","name":"STN Nichols FTTH route","carrier":"STN (as published)","category":"unknown","routeStatus":"Published FTTH route; operational status not established","states":["NY"],"evidence":"publisher_route","retrievedAt":"2026-09-20T23:14:40.303Z","dataDate":null,"metadataModified":"2022-08-31T15:56:40.000Z","publishedLineParts":1,"networkType":"Local FTTH, not a national backbone","serviceability":"Unconfirmed","routeDiversity":"Unconfirmed"}},{"type":"Feature","bbox":[-76.3279943795199,42.026153030521,-76.3279679726438,42.0261855101961],"geometry":{"type":"MultiLineString","coordinates":[[[-76.3279943795199,42.026153030521],[-76.3279679726438,42.0261855101961]]]},"properties":{"id":"ny-stn-nichols-public-39","sourceId":"ny-stn-nichols-public","sourceUrl":"https://services2.arcgis.com/qO6xd1V1VbSyViir/arcgis/rest/services/Fiber_Route/FeatureServer/0","source":"Southern Tier Central Regional Planning","name":"STN Nichols FTTH route","carrier":"STN (as published)","category":"unknown","routeStatus":"Published FTTH route; operational status not established","states":["NY"],"evidence":"publisher_route","retrievedAt":"2026-09-20T23:14:40.303Z","dataDate":null,"metadataModified":"2022-08-31T15:56:40.000Z","publishedLineParts":1,"networkType":"Local FTTH, not a national backbone","serviceability":"Unconfirmed","routeDiversity":"Unconfirmed"}},{"type":"Feature","bbox":[-76.3064054530626,42.01738139819,-76.3059658570884,42.0232485979648],"geometry":{"type":"MultiLineString","coordinates":[[[-76.3064054530626,42.0232485979648],[-76.3063610780842,42.0217036426707],[-76.3062335783993,42.0207025901837],[-76.3060776506289,42.0189786362315],[-76.3060147227449,42.0179115232869],[-76.3059658570884,42.01738139819]]]},"properties":{"id":"ny-stn-nichols-public-40","sourceId":"ny-stn-nichols-public","sourceUrl":"https://services2.arcgis.com/qO6xd1V1VbSyViir/arcgis/rest/services/Fiber_Route/FeatureServer/0","source":"Southern Tier Central Regional Planning","name":"STN Nichols FTTH route","carrier":"STN (as published)","category":"unknown","routeStatus":"Published FTTH route; operational status not established","states":["NY"],"evidence":"publisher_route","retrievedAt":"2026-09-20T23:14:40.303Z","dataDate":null,"metadataModified":"2022-08-31T15:56:40.000Z","publishedLineParts":1,"networkType":"Local FTTH, not a national backbone","serviceability":"Unconfirmed","routeDiversity":"Unconfirmed"}},{"type":"Feature","bbox":[-76.3059658570884,42.01738139819,-76.30007255399,42.0181488969288],"geometry":{"type":"MultiLineString","coordinates":[[[-76.3059658570884,42.01738139819],[-76.304833218059,42.0174595769066],[-76.3035966888671,42.0176373620514],[-76.3025272103854,42.0178803961904],[-76.3013019083378,42.0181488969288],[-76.3003932193088,42.0180550007181],[-76.30007255399,42.0177728027014]]]},"properties":{"id":"ny-stn-nichols-public-41","sourceId":"ny-stn-nichols-public","sourceUrl":"https://services2.arcgis.com/qO6xd1V1VbSyViir/arcgis/rest/services/Fiber_Route/FeatureServer/0","source":"Southern Tier Central Regional Planning","name":"STN Nichols FTTH route","carrier":"STN (as published)","category":"unknown","routeStatus":"Published FTTH route; operational status not established","states":["NY"],"evidence":"publisher_route","retrievedAt":"2026-09-20T23:14:40.303Z","dataDate":null,"metadataModified":"2022-08-31T15:56:40.000Z","publishedLineParts":1,"networkType":"Local FTTH, not a national backbone","serviceability":"Unconfirmed","routeDiversity":"Unconfirmed"}},{"type":"Feature","bbox":[-76.3059658220541,42.0066912736748,-76.3049247932174,42.0173810831791],"geometry":{"type":"MultiLineString","coordinates":[[[-76.3049247932174,42.0066912736748],[-76.3050906150324,42.0075796186944],[-76.3052983836795,42.008629964157],[-76.3054388981562,42.0098227850628],[-76.30548997277,42.0102978701765],[-76.3055175833886,42.0106844691398],[-76.3056452357871,42.0114320623252],[-76.3056954911373,42.0122548349857],[-76.3054488380148,42.0123461500587],[-76.305512521382,42.0129648507436],[-76.3056483143136,42.0139390167361],[-76.3056904426054,42.0145283338584],[-76.3057470786892,42.0153479803293],[-76.3057642149515,42.0159204382697],[-76.305800526652,42.0164527018997],[-76.305964912959,42.0173810831791],[-76.3059658220541,42.0173810351266]]]},"properties":{"id":"ny-stn-nichols-public-42","sourceId":"ny-stn-nichols-public","sourceUrl":"https://services2.arcgis.com/qO6xd1V1VbSyViir/arcgis/rest/services/Fiber_Route/FeatureServer/0","source":"Southern Tier Central Regional Planning","name":"STN Nichols FTTH route","carrier":"STN (as published)","category":"unknown","routeStatus":"Published FTTH route; operational status not established","states":["NY"],"evidence":"publisher_route","retrievedAt":"2026-09-20T23:14:40.303Z","dataDate":null,"metadataModified":"2022-08-31T15:56:40.000Z","publishedLineParts":1,"networkType":"Local FTTH, not a national backbone","serviceability":"Unconfirmed","routeDiversity":"Unconfirmed"}},{"type":"Feature","bbox":[-76.2876621702364,42.0134764712596,-76.2828007699898,42.0215946028257],"geometry":{"type":"MultiLineString","coordinates":[[[-76.2876621702364,42.0134764712596],[-76.2866163776338,42.0145558371396],[-76.2858185559822,42.015388090095],[-76.285512261013,42.0160482507438],[-76.2851137638614,42.0168884983231],[-76.2848331373532,42.0181561521025],[-76.2845098597336,42.0193861560274],[-76.2841124962559,42.02024845933],[-76.2835343827598,42.0211189387397],[-76.2828007699898,42.0215946028257]]]},"properties":{"id":"ny-stn-nichols-public-43","sourceId":"ny-stn-nichols-public","sourceUrl":"https://services2.arcgis.com/qO6xd1V1VbSyViir/arcgis/rest/services/Fiber_Route/FeatureServer/0","source":"Southern Tier Central Regional Planning","name":"STN Nichols FTTH route","carrier":"STN (as published)","category":"unknown","routeStatus":"Published FTTH route; operational status not established","states":["NY"],"evidence":"publisher_route","retrievedAt":"2026-09-20T23:14:40.303Z","dataDate":null,"metadataModified":"2022-08-31T15:56:40.000Z","publishedLineParts":1,"networkType":"Local FTTH, not a national backbone","serviceability":"Unconfirmed","routeDiversity":"Unconfirmed"}}]}