{"type":"FeatureCollection","features":[{"type":"Feature","geometry":{"type":"MultiLineString","coordinates":[[[-97.51490399999999,35.46855899999999],[-97.515049,35.46855899999999],[-97.51504800000001,35.468604],[-97.515146,35.46866800000002],[-97.51513799999998,35.46931199999999],[-97.51505599999999,35.46939899999999],[-97.514932,35.46948499999999],[-97.514778,35.46952400000002],[-97.51459699999998,35.46954900000001],[-97.514524,35.46954900000001],[-97.514501,35.47085800000001],[-97.514501,35.47116499999998],[-97.51469299999997,35.47120899999999]],[[-97.51382299999999,35.46808699999999],[-97.51382299999999,35.46819899999998],[-97.51389,35.46819899999998],[-97.51391799999999,35.468217],[-97.51392099999998,35.46828500000002],[-97.513986,35.468333],[-97.514828,35.46835799999999],[-97.514828,35.46845999999999],[-97.5149,35.468459],[-97.5149,35.468547]],[[-97.514891,35.46855399999998],[-97.514891,35.46859400000001],[-97.514712,35.46859400000001],[-97.51470800000001,35.46896500000001],[-97.514818,35.46896500000001]]]},"properties":{"id":"logix-public-routes-20260918-9b614cc1b28b121c36b9","sourceId":"logix-public-routes-20260918","source":"LOGIX public network map","sourceUrl":"https://logix.com/network-maps/","name":"LOGIX (as published) published routes","carrier":"LOGIX (as published)","category":"unknown","routeStatus":"Status not established","evidence":"publisher_route","dataDate":null,"metadataModified":null,"retrievedAt":"2026-09-18T19:56:04.130240+00:00","networkType":"Published fiber route; precision and network class unverified","serviceability":"Unconfirmed","routeDiversity":"Unconfirmed","states":["OK"],"publishedLineParts":3},"bbox":[-97.515146,35.46808699999999,-97.51382299999999,35.47120899999999]},{"type":"Feature","geometry":{"type":"MultiLineString","coordinates":[[[-97.64963999999999,35.61064700000001],[-97.64959100000002,35.61061999999998],[-97.649625,35.611385],[-97.64888399999998,35.61169000000002],[-97.648366,35.61169000000002],[-97.648366,35.611724]],[[-97.647479,35.61054099999999],[-97.647483,35.61057700000001],[-97.647479,35.61135399999999],[-97.647663,35.61153799999999],[-97.64835399999998,35.61153799999999],[-97.64835399999998,35.61171899999998]]]},"properties":{"id":"logix-public-routes-20260918-2da8ccaabd8cdd656059","sourceId":"logix-public-routes-20260918","source":"LOGIX public network map","sourceUrl":"https://logix.com/network-maps/","name":"LOGIX (as published) published routes","carrier":"LOGIX (as published)","category":"unknown","routeStatus":"Status not established","evidence":"publisher_route","dataDate":null,"metadataModified":null,"retrievedAt":"2026-09-18T19:56:04.130240+00:00","networkType":"Published fiber route; precision and network class unverified","serviceability":"Unconfirmed","routeDiversity":"Unconfirmed","states":["OK"],"publishedLineParts":2},"bbox":[-97.64963999999999,35.61054099999999,-97.647479,35.611724]},{"type":"Feature","geometry":{"type":"MultiLineString","coordinates":[[[-95.98977199999999,36.14998900000003],[-95.989919,36.14994000000001],[-95.989676,36.14947699999999],[-95.989707,36.14946499999999],[-95.99022,36.15041300000001],[-95.98900099999999,36.15078499999998],[-95.989475,36.15165599999998],[-95.98822200000001,36.15207800000001],[-95.98699,36.15249699999998],[-95.98611500000001,36.15281099999999],[-95.98599799999998,36.152617]]]},"properties":{"id":"logix-public-routes-20260918-3a488a3d5d1a42e5c14f","sourceId":"logix-public-routes-20260918","source":"LOGIX public network map","sourceUrl":"https://logix.com/network-maps/","name":"LOGIX (as published) published routes","carrier":"LOGIX (as published)","category":"unknown","routeStatus":"Status not established","evidence":"publisher_route","dataDate":null,"metadataModified":null,"retrievedAt":"2026-09-18T19:56:04.130240+00:00","networkType":"Published fiber route; precision and network class unverified","serviceability":"Unconfirmed","routeDiversity":"Unconfirmed","states":["OK"],"publishedLineParts":1},"bbox":[-95.99022,36.14946499999999,-95.98599799999998,36.15281099999999]}]}