{"type":"FeatureCollection","features":[{"type":"Feature","geometry":{"type":"MultiLineString","coordinates":[[[-97.51490399999999,35.46855899999999],[-97.51469299999997,35.47120899999999]],[[-97.51382299999999,35.46808699999999],[-97.5149,35.468547]],[[-97.514891,35.46855399999998],[-97.514818,35.46896500000001]]]},"properties":{"id":"logix-public-routes-20260918-9b614cc1b28b121c36b9","sourceId":"logix-public-routes-20260918","category":"unknown","states":["OK"],"routeStatus":"Status not established","carrier":"LOGIX (as published)","publishedLineParts":3},"bbox":[-97.515146,35.46808699999999,-97.51382299999999,35.47120899999999]},{"type":"Feature","geometry":{"type":"MultiLineString","coordinates":[[[-97.64963999999999,35.61064700000001],[-97.648366,35.611724]],[[-97.647479,35.61054099999999],[-97.64835399999998,35.61171899999998]]]},"properties":{"id":"logix-public-routes-20260918-2da8ccaabd8cdd656059","sourceId":"logix-public-routes-20260918","category":"unknown","states":["OK"],"routeStatus":"Status not established","carrier":"LOGIX (as published)","publishedLineParts":2},"bbox":[-97.64963999999999,35.61054099999999,-97.647479,35.611724]},{"type":"Feature","geometry":{"type":"LineString","coordinates":[[-95.98977199999999,36.14998900000003],[-95.98599799999998,36.152617]]},"properties":{"id":"logix-public-routes-20260918-3a488a3d5d1a42e5c14f","sourceId":"logix-public-routes-20260918","category":"unknown","states":["OK"],"routeStatus":"Status not established","carrier":"LOGIX (as published)","publishedLineParts":1},"bbox":[-95.99022,36.14946499999999,-95.98599799999998,36.15281099999999]}]}