{"type":"FeatureCollection","features":[{"type":"Feature","geometry":{"type":"MultiLineString","coordinates":[[[-71.927193625,41.8491402940001],[-71.926597574,41.848409546],[-71.915885147,41.8496070100001],[-71.896809146,41.8468610130001],[-71.8899791439999,41.846712014],[-71.879547147,41.842704008],[-71.873185153,41.839213003],[-71.8696301579999,41.8383840120001],[-71.861176153,41.839974006],[-71.853188154,41.840236012],[-71.844354154,41.8417520130001],[-71.827904156,41.845913012],[-71.820904158,41.8488240140001],[-71.795095168,41.8488000050001],[-71.751462168,41.8547350090001],[-71.7263781739999,41.855547006],[-71.7222711759999,41.854480004],[-71.6957681809999,41.842931015],[-71.690345172,41.8434050110001],[-71.6852241779999,41.8419030090001],[-71.679813178,41.842527009],[-71.6764681829999,41.8418330040001],[-71.677293188,41.850375006],[-71.676314186,41.857441006],[-71.673346178,41.8768690150001],[-71.670055184,41.882281014],[-71.670661189,41.8903980160001],[-71.668569178,41.897179012],[-71.669759186,41.900054003],[-71.666698181,41.905666011],[-71.667112187,41.907521006],[-71.656809187,41.905289004],[-71.63824019,41.904457005],[-71.636496189,41.903848011],[-71.630509192,41.8979120180001],[-71.6268711829999,41.8952480130001],[-71.624714194,41.8944500110001],[-71.6166271929999,41.896075005],[-71.61534619,41.895827011],[-71.5976401999999,41.887944008],[-71.5836041919999,41.884227013],[-71.575910202,41.8790570130001],[-71.5642141929999,41.874929008],[-71.554264212,41.872238014],[-71.553064198,41.8713520150001],[-71.547436212,41.870234011],[-71.518949208,41.869640014]]]},"properties":{"id":"uniti-national-20260919-6f38229f429a277d65b2","sourceId":"uniti-national-20260919","source":"Uniti Wholesale national core network","sourceUrl":"https://www.unitiwholesale.com/network-map/","name":"Uniti Wholesale national core network","carrier":"Uniti Wholesale","category":"unknown","routeStatus":"Publisher network map; current operating status unverified","evidence":"publisher_route","geometryQuality":"publisher_geometry_unverified","dataDate":null,"metadataModified":"2025-07-31T17:08:54+00:00","retrievedAt":"2026-09-19T13:31:22.089263+00:00","networkType":"Carrier-published national core geometry; generalized paths, not a survey","serviceability":"Unconfirmed","routeDiversity":"Unconfirmed","states":["CT","RI"],"publishedLineParts":1,"importBatch":"20260919","sourceRecordIds":["15184"]},"bbox":[-71.927193625,41.8383840120001,-71.518949208,41.907521006]},{"type":"Feature","geometry":{"type":"MultiLineString","coordinates":[[[-71.4766228129999,41.94370538],[-71.454230227,41.9403750110001],[-71.450563234,41.9403820140001],[-71.444491225,41.941471016],[-71.427633239,41.9491160090001],[-71.420082239,41.951086016],[-71.403531234,41.950371015],[-71.383462241,41.9530110160001],[-71.346126258,41.948617014],[-71.329688255,41.9512860130001],[-71.324838256,41.952889011],[-71.309273258,41.954915016],[-71.3083492599999,41.9522680110001],[-71.302560264,41.948765016],[-71.298726269,41.950460014],[-71.29670327,41.947995011],[-71.295974262,41.944353016],[-71.294688267,41.9439440130001],[-71.293549261,41.940157012],[-71.294008263,41.9391570160001],[-71.2900972689999,41.9369950110001],[-71.288339005,41.9366878110001],[-71.260030279,41.975586019],[-71.25424428,41.9846230200001],[-71.246678274,41.9942720120001],[-71.224065289,42.0267910200001],[-71.224493283,42.0270700120001],[-71.2085232859999,42.0485060190001],[-71.197613297,42.069588013],[-71.1903383,42.1152430160001],[-71.184423295,42.124209014],[-71.176985305,42.1331680150001],[-71.1602138759999,42.148197252],[-71.1580273069999,42.148639013],[-71.1555543109999,42.1528110150001],[-71.1562873089999,42.153205014],[-71.153879312,42.15799102],[-71.153519311,42.160769019],[-71.154527308,42.170336014],[-71.154078313,42.1703120180001],[-71.15535431,42.18829702],[-71.1551003069999,42.192314018],[-71.1252083219999,42.255370015],[-71.11985932,42.280294015],[-71.119135327,42.2922420150001],[-71.117108323,42.295996019],[-71.106609326,42.312086019],[-71.104286326,42.3174700170001],[-71.0992863229999,42.3241080170001],[-71.0973173259999,42.329291014],[-71.095560329,42.331588018],[-71.075728334,42.34757202],[-71.065404357,42.3470560760001],[-71.063580354,42.3479970720001],[-71.0622133589999,42.3536940760001],[-71.0605374049999,42.3554208140001],[-71.0595192229999,42.35458959]]]},"properties":{"id":"uniti-national-20260919-e72c6f43ae971bba1937","sourceId":"uniti-national-20260919","source":"Uniti Wholesale national core network","sourceUrl":"https://www.unitiwholesale.com/network-map/","name":"Uniti Wholesale national core network","carrier":"Uniti Wholesale","category":"unknown","routeStatus":"Publisher network map; current operating status unverified","evidence":"publisher_route","geometryQuality":"publisher_geometry_unverified","dataDate":null,"metadataModified":"2025-07-31T17:08:54+00:00","retrievedAt":"2026-09-19T13:31:22.089263+00:00","networkType":"Carrier-published national core geometry; generalized paths, not a survey","serviceability":"Unconfirmed","routeDiversity":"Unconfirmed","states":["MA","RI"],"publishedLineParts":1,"importBatch":"20260919","sourceRecordIds":["15187"]},"bbox":[-71.4766228129999,41.9366878110001,-71.0595192229999,42.3554208140001]},{"type":"Feature","geometry":{"type":"MultiLineString","coordinates":[[[-71.464006226,41.9330280120001],[-71.476622817,41.94370538]],[[-71.518949214,41.8696400110001],[-71.507775216,41.8684830120001],[-71.496149218,41.863995012],[-71.482092713,41.8565546130001],[-71.4753442219999,41.854560012],[-71.468785224,41.853979012],[-71.464926224,41.851538012],[-71.4558462259999,41.847854012],[-71.4489352269999,41.8439890130001],[-71.440845651,41.8404769690001],[-71.4386532299999,41.832514013],[-71.4354063,41.8280265650001],[-71.428706231,41.8314270130001],[-71.424400233,41.831854013],[-71.423455233,41.830311013],[-71.423809144,41.829495786]],[[-71.4239326919999,41.8294905230001],[-71.4234472329999,41.829321013],[-71.420455233,41.833077013],[-71.416761234,41.831770013],[-71.4151262359999,41.834920013],[-71.415156235,41.836762013],[-71.419406234,41.844088013],[-71.4247712329999,41.8509820130001],[-71.428756232,41.8589130130001],[-71.431080233,41.8730960130001],[-71.435329231,41.8809600120001],[-71.43895823,41.8897340120001],[-71.44535223,41.8981960130001],[-71.456844227,41.923405012],[-71.463508894,41.9323364050001]]]},"properties":{"id":"uniti-national-20260919-71eebcea3ea0a7f7d9c1","sourceId":"uniti-national-20260919","source":"Uniti Wholesale national core network","sourceUrl":"https://www.unitiwholesale.com/network-map/","name":"Uniti Wholesale national core network","carrier":"Uniti Wholesale","category":"unknown","routeStatus":"Publisher network map; current operating status unverified","evidence":"publisher_route","geometryQuality":"publisher_geometry_unverified","dataDate":null,"metadataModified":"2025-07-31T17:08:54+00:00","retrievedAt":"2026-09-19T13:31:22.089263+00:00","networkType":"Carrier-published national core geometry; generalized paths, not a survey","serviceability":"Unconfirmed","routeDiversity":"Unconfirmed","states":["RI"],"publishedLineParts":3,"importBatch":"20260919","sourceRecordIds":["15177","15180","15191"]},"bbox":[-71.518949214,41.8280265650001,-71.4151262359999,41.94370538]},{"type":"Feature","geometry":{"type":"MultiLineString","coordinates":[[[-71.927193625,41.8491402940001],[-71.927168635,41.8485513420001],[-71.9266584869999,41.8486222450001],[-71.926597574,41.848409546],[-71.918213151,41.849604001],[-71.915885147,41.8496070100001],[-71.896809146,41.8468610130001],[-71.894031148,41.8467030130001],[-71.8899791439999,41.846712014],[-71.8861681559999,41.845461005],[-71.879547147,41.842704008],[-71.8764771529999,41.841073001],[-71.873185153,41.839213003],[-71.871671152,41.8386250020001],[-71.8696301579999,41.8383840120001],[-71.861176153,41.839974006],[-71.856399153,41.840030008],[-71.853188154,41.840236012],[-71.844354154,41.8417520130001],[-71.836245162,41.844079005],[-71.827904156,41.845913012],[-71.8255181609999,41.846649003],[-71.8220081549999,41.8479910140001],[-71.820904158,41.8488240140001],[-71.8182171559999,41.848980005],[-71.810285159,41.848505007],[-71.805747173,41.848455003],[-71.800845166,41.8488580110001],[-71.797663155,41.848695014],[-71.795095168,41.8488000050001],[-71.794452168,41.8489000110001],[-71.784615162,41.850249009],[-71.77658517,41.851368011],[-71.763629167,41.853021008],[-71.7560781719999,41.8538740080001],[-71.751462168,41.8547350090001],[-71.749095167,41.8546340150001],[-71.746429173,41.8549650080001],[-71.737040173,41.855284011],[-71.7263781739999,41.855547006],[-71.724285169,41.854990012],[-71.7222711759999,41.854480004],[-71.7169021679999,41.852172012],[-71.709239181,41.8488340110001],[-71.703430173,41.846269013],[-71.6982171769999,41.844089011],[-71.6957681809999,41.842931015],[-71.690345172,41.8434050110001],[-71.6852241779999,41.8419030090001],[-71.679813178,41.842527009],[-71.6764681829999,41.8418330040001],[-71.6773021879999,41.8466020070001],[-71.677293188,41.850375006],[-71.676314186,41.857441006],[-71.674726184,41.866596003],[-71.674143188,41.872171006],[-71.673346178,41.8768690150001],[-71.670055184,41.882281014],[-71.670356179,41.886308011],[-71.6701301809999,41.8876880020001],[-71.670661189,41.8903980160001],[-71.6699761839999,41.892325003],[-71.668963183,41.8946130100001],[-71.668569178,41.897179012],[-71.669759186,41.900054003],[-71.668034179,41.9030540090001],[-71.666698181,41.905666011],[-71.666863179,41.9067640040001],[-71.667112187,41.907521006],[-71.6654851869999,41.90720401],[-71.664279181,41.9071650180001],[-71.656809187,41.905289004],[-71.6492331809999,41.904602013],[-71.643257186,41.904704015],[-71.63824019,41.904457005],[-71.636496189,41.903848011],[-71.632388196,41.900113005],[-71.630509192,41.8979120180001],[-71.6268711829999,41.8952480130001],[-71.624714194,41.8944500110001],[-71.6196492019999,41.8953780160001],[-71.6166271929999,41.896075005],[-71.61534619,41.895827011],[-71.6111861969999,41.8941110050001],[-71.6078711979999,41.8925170090001],[-71.603293197,41.890624012],[-71.5976401999999,41.887944008],[-71.591897202,41.8866870140001],[-71.588047192,41.885721011],[-71.5836041919999,41.884227013],[-71.580014204,41.881952008],[-71.577595205,41.880119006],[-71.575910202,41.8790570130001],[-71.572959199,41.8780940120001],[-71.5692972099999,41.8765400080001],[-71.566076203,41.875617014],[-71.5642141929999,41.874929008],[-71.554264212,41.872238014],[-71.553064198,41.8713520150001],[-71.5504192,41.8707850100001],[-71.547436212,41.870234011],[-71.537739206,41.869994008],[-71.524408217,41.869991009],[-71.518949208,41.869640014]]]},"properties":{"id":"uniti-regional-20260919-ec58963283ec1e7918f0","sourceId":"uniti-regional-20260919","source":"Uniti Wholesale regional transport network","sourceUrl":"https://www.unitiwholesale.com/network-map/","name":"Uniti Wholesale regional transport network","carrier":"Uniti Wholesale","category":"unknown","routeStatus":"Publisher network map; current operating status unverified","evidence":"publisher_route","geometryQuality":"publisher_geometry_unverified","dataDate":null,"metadataModified":"2025-06-13T12:55:45+00:00","retrievedAt":"2026-09-19T13:31:26.703698+00:00","networkType":"Carrier-published regional transport geometry; not a surveyed cable alignment","serviceability":"Unconfirmed","routeDiversity":"Unconfirmed","states":["CT","RI"],"publishedLineParts":1,"importBatch":"20260919","sourceRecordIds":["68870"]},"bbox":[-71.927193625,41.8383840120001,-71.518949208,41.907521006]},{"type":"Feature","geometry":{"type":"MultiLineString","coordinates":[[[-71.518949214,41.8696400110001],[-71.516108215,41.8692740110001],[-71.514133214,41.8688900120001],[-71.511900215,41.868519012],[-71.508561215,41.868636012],[-71.507775216,41.8684830120001],[-71.505554216,41.867639012],[-71.503410216,41.8668920120001],[-71.500160217,41.8654050120001],[-71.496149218,41.863995012],[-71.494949219,41.863431012],[-71.493584218,41.8625470120001],[-71.492723218,41.8621310120001],[-71.490445219,41.860821012],[-71.48692922,41.8588700120001],[-71.4853482199999,41.8580170120001],[-71.48375422,41.8572030120001],[-71.482092713,41.8565546130001],[-71.479027221,41.8557390120001],[-71.476956222,41.855118012],[-71.4753442219999,41.854560012],[-71.468785224,41.853979012],[-71.468045224,41.8536710130001],[-71.467074224,41.852665012],[-71.464926224,41.851538012],[-71.463660224,41.8510470120001],[-71.461159225,41.8497700120001],[-71.4558462259999,41.847854012],[-71.453385227,41.846590012],[-71.452004227,41.8460120120001],[-71.451287227,41.8455620120001],[-71.4489352269999,41.8439890130001],[-71.447097228,41.843177013],[-71.440845651,41.8404769690001],[-71.43990423,41.8373840130001],[-71.43943023,41.8356580130001],[-71.4392152299999,41.8346030120001],[-71.4386532299999,41.832514013],[-71.4376182299999,41.831047013],[-71.43659623,41.829628012],[-71.4354063,41.8280265650001],[-71.434606231,41.8283880130001],[-71.432650231,41.829572012],[-71.4304272319999,41.8306350130001],[-71.429201231,41.8311790130001],[-71.428706231,41.8314270130001],[-71.4280642319999,41.831302013],[-71.424400233,41.831854013],[-71.423455233,41.830311013],[-71.423662233,41.829385012],[-71.423809144,41.829495786]]]},"properties":{"id":"uniti-regional-20260919-2bb5bbe0095bcaeb4a6b","sourceId":"uniti-regional-20260919","source":"Uniti Wholesale regional transport network","sourceUrl":"https://www.unitiwholesale.com/network-map/","name":"Uniti Wholesale regional transport network","carrier":"Uniti Wholesale","category":"unknown","routeStatus":"Publisher network map; current operating status unverified","evidence":"publisher_route","geometryQuality":"publisher_geometry_unverified","dataDate":null,"metadataModified":"2025-06-13T12:55:45+00:00","retrievedAt":"2026-09-19T13:31:26.703698+00:00","networkType":"Carrier-published regional transport geometry; not a surveyed cable alignment","serviceability":"Unconfirmed","routeDiversity":"Unconfirmed","states":["RI"],"publishedLineParts":1,"importBatch":"20260919","sourceRecordIds":["68869"]},"bbox":[-71.518949214,41.8280265650001,-71.423455233,41.8696400110001]}]}