{"type":"FeatureCollection","features":[{"type":"Feature","geometry":{"type":"MultiLineString","coordinates":[[[-112.545757246,41.896097453],[-112.54958761,41.896183337],[-112.566539138,41.8940270650001],[-112.574070766,41.894346517],[-112.577053377,41.8967263860001],[-112.583640869,41.904376507],[-112.58580809,41.905749918],[-112.613531347,41.9128241130001],[-112.620547993,41.916001657],[-112.653828776,41.934137772],[-112.675200576,41.9537209010001],[-112.687345594,41.95849208],[-112.687409968,41.9929010070001],[-112.686894984,41.9946233580001],[-112.687302679,42.00007716],[-112.695027426,42.0000452680001],[-112.695435121,42.004701363],[-112.694877223,42.0559915160001],[-112.694641189,42.0574731830001],[-112.692946036,42.058174175],[-112.659407761,42.0584290780001],[-112.657455116,42.0594486850001],[-112.656532438,42.0607231700001],[-112.656017455,42.168467859],[-112.660630845,42.175655987],[-112.682281594,42.200188064],[-112.689491358,42.203716848],[-112.699855393,42.2124743730001],[-112.706829123,42.217114892],[-112.717472107,42.219975315],[-112.72858716,42.226108899],[-112.732878685,42.2294137960001],[-112.740775093,42.2322736630001],[-112.74388645,42.2349427550001],[-112.74542067,42.238016837],[-112.74768445,42.239756368],[-112.750838722,42.243799202],[-112.754196841,42.2521461580001],[-112.758220147,42.254075887],[-112.76216835,42.2600314680001],[-112.762940825,42.264501755],[-112.769914555,42.2777440130001],[-112.77195303,42.2797285240001],[-112.778851658,42.284054541],[-112.780739929,42.286618261],[-112.781179811,42.289356485],[-112.782746218,42.2923564880001],[-112.78988088,42.300093933],[-112.799644797,42.3137764730001]]]},"properties":{"id":"uniti-national-20260919-632598df99651754e202","sourceId":"uniti-national-20260919","source":"Uniti Wholesale national core network","sourceUrl":"https://www.unitiwholesale.com/network-map/","name":"Uniti Wholesale national core network","carrier":"Uniti Wholesale","category":"unknown","routeStatus":"Publisher network map; current operating status unverified","evidence":"publisher_route","geometryQuality":"publisher_geometry_unverified","dataDate":null,"metadataModified":"2025-07-31T17:08:54+00:00","retrievedAt":"2026-09-19T13:31:22.089263+00:00","networkType":"Carrier-published national core geometry; generalized paths, not a survey","serviceability":"Unconfirmed","routeDiversity":"Unconfirmed","states":["ID","UT"],"publishedLineParts":1,"importBatch":"20260919","sourceRecordIds":["14802"]},"bbox":[-112.799644797,41.8940270650001,-112.545757246,42.3137764730001]},{"type":"Feature","geometry":{"type":"MultiLineString","coordinates":[[[-114.002112544,39.054067471],[-114.091638589,39.060912032]]]},"properties":{"id":"uniti-national-20260919-d838cdeecaf39ba08968","sourceId":"uniti-national-20260919","source":"Uniti Wholesale national core network","sourceUrl":"https://www.unitiwholesale.com/network-map/","name":"Uniti Wholesale national core network","carrier":"Uniti Wholesale","category":"unknown","routeStatus":"Publisher network map; current operating status unverified","evidence":"publisher_route","geometryQuality":"publisher_geometry_unverified","dataDate":null,"metadataModified":"2025-07-31T17:08:54+00:00","retrievedAt":"2026-09-19T13:31:22.089263+00:00","networkType":"Carrier-published national core geometry; generalized paths, not a survey","serviceability":"Unconfirmed","routeDiversity":"Unconfirmed","states":["NV","UT"],"publishedLineParts":1,"importBatch":"20260919","sourceRecordIds":["27308"]},"bbox":[-114.091638589,39.054067471,-114.002112544,39.060912032]},{"type":"Feature","geometry":{"type":"MultiLineString","coordinates":[[[-113.495009214,39.082975742],[-113.547158734,39.087616593],[-113.555177232,39.087286589],[-113.560827672,39.084892005],[-113.567230408,39.0873874210001],[-113.569998528,39.084721211],[-113.573764516,39.0837256390001],[-113.578344245,39.085897028],[-113.588758732,39.0822477000001],[-113.591499411,39.0835910260001],[-113.600163923,39.0836481200001],[-113.608096674,39.078850123],[-113.652893713,39.070929483],[-113.701952044,39.078738711],[-113.809889518,39.041113435],[-113.817390003,39.0398029830001],[-114.16373876,39.066273891],[-114.202724817,39.084940396],[-114.226807571,39.088978378],[-114.239967264,39.0972708200001]]]},"properties":{"id":"uniti-national-20260919-34c2bfaf536830efbb30","sourceId":"uniti-national-20260919","source":"Uniti Wholesale national core network","sourceUrl":"https://www.unitiwholesale.com/network-map/","name":"Uniti Wholesale national core network","carrier":"Uniti Wholesale","category":"unknown","routeStatus":"Publisher network map; current operating status unverified","evidence":"publisher_route","geometryQuality":"publisher_geometry_unverified","dataDate":null,"metadataModified":"2025-07-31T17:08:54+00:00","retrievedAt":"2026-09-19T13:31:22.089263+00:00","networkType":"Carrier-published national core geometry; generalized paths, not a survey","serviceability":"Unconfirmed","routeDiversity":"Unconfirmed","states":["NV","UT"],"publishedLineParts":1,"importBatch":"20260919","sourceRecordIds":["14826"]},"bbox":[-114.239967264,39.0398029830001,-113.495009214,39.0972708200001]},{"type":"Feature","geometry":{"type":"MultiLineString","coordinates":[[[-113.917662137,39.047572964],[-114.002112544,39.054067471]],[[-113.754642918,39.061505125],[-113.813940317,39.040669111],[-113.819413473,39.040059247],[-113.833643648,39.041071061]],[[-113.833643648,39.041071061],[-113.917662137,39.047572964]]]},"properties":{"id":"uniti-national-20260919-2ca73cde2d41d15e5239","sourceId":"uniti-national-20260919","source":"Uniti Wholesale national core network","sourceUrl":"https://www.unitiwholesale.com/network-map/","name":"Uniti Wholesale national core network","carrier":"Uniti Wholesale","category":"unknown","routeStatus":"Publisher network map; current operating status unverified","evidence":"publisher_route","geometryQuality":"publisher_geometry_unverified","dataDate":null,"metadataModified":"2025-07-31T17:08:54+00:00","retrievedAt":"2026-09-19T13:31:22.089263+00:00","networkType":"Carrier-published national core geometry; generalized paths, not a survey","serviceability":"Unconfirmed","routeDiversity":"Unconfirmed","states":["UT"],"publishedLineParts":3,"importBatch":"20260919","sourceRecordIds":["27265","27299","27306"]},"bbox":[-114.002112544,39.040059247,-113.754642918,39.061505125]},{"type":"Feature","geometry":{"type":"MultiLineString","coordinates":[[[-113.495316464,39.083592862],[-113.543643292,39.087848791]],[[-113.607023993,39.080320182],[-113.609593332,39.0794718510001],[-113.628151822,39.076888683],[-113.652742086,39.071236646],[-113.657590821,39.071602904],[-113.658181341,39.072161781],[-113.674935555,39.07525094]],[[-113.543643292,39.087848791],[-113.552697084,39.088361181],[-113.562331865,39.085908353],[-113.567357536,39.087514883],[-113.569971893,39.0848126650001],[-113.573700746,39.084294006],[-113.578523494,39.086184592],[-113.584212935,39.0839450440001],[-113.585274615,39.08294771],[-113.588374433,39.082326953],[-113.591373054,39.0834342740001],[-113.601273248,39.083824156],[-113.605767499,39.080597332],[-113.607023993,39.080320182]],[[-113.674935555,39.07525094],[-113.699719507,39.0796713710001],[-113.703219706,39.0795590280001],[-113.754642918,39.061505125]]]},"properties":{"id":"uniti-national-20260919-22a504acdd7b89bd1ee6","sourceId":"uniti-national-20260919","source":"Uniti Wholesale national core network","sourceUrl":"https://www.unitiwholesale.com/network-map/","name":"Uniti Wholesale national core network","carrier":"Uniti Wholesale","category":"unknown","routeStatus":"Publisher network map; current operating status unverified","evidence":"publisher_route","geometryQuality":"publisher_geometry_unverified","dataDate":null,"metadataModified":"2025-07-31T17:08:54+00:00","retrievedAt":"2026-09-19T13:31:22.089263+00:00","networkType":"Carrier-published national core geometry; generalized paths, not a survey","serviceability":"Unconfirmed","routeDiversity":"Unconfirmed","states":["UT"],"publishedLineParts":4,"importBatch":"20260919","sourceRecordIds":["27264","27302","27311","27314"]},"bbox":[-113.754642918,39.061505125,-113.495316464,39.088361181]},{"type":"Feature","geometry":{"type":"MultiLineString","coordinates":[[[-113.494250428,39.083988154],[-113.494043659,39.083989601]],[[-113.350963505,39.02644998],[-113.365594268,39.02331603],[-113.367451676,39.0235850940001],[-113.37878028,39.029487155],[-113.384057421,39.0236277240001],[-113.40289185,39.041598729],[-113.402481388,39.042091563],[-113.414121416,39.048298155]],[[-113.494250428,39.083988154],[-113.495316463,39.083592862]],[[-113.414121416,39.048298155],[-113.443541137,39.0639296200001],[-113.494799424,39.0834924540001],[-113.494250428,39.083988154]],[[-113.275860601,39.049883972],[-113.303538312,39.040202949],[-113.337066944,39.036689865],[-113.34064291,39.034994248],[-113.344024343,39.029490099],[-113.34563437,39.027982482],[-113.350963505,39.02644998]]]},"properties":{"id":"uniti-national-20260919-118e23137028cebfe1e3","sourceId":"uniti-national-20260919","source":"Uniti Wholesale national core network","sourceUrl":"https://www.unitiwholesale.com/network-map/","name":"Uniti Wholesale national core network","carrier":"Uniti Wholesale","category":"unknown","routeStatus":"Publisher network map; current operating status unverified","evidence":"publisher_route","geometryQuality":"publisher_geometry_unverified","dataDate":null,"metadataModified":"2025-07-31T17:08:54+00:00","retrievedAt":"2026-09-19T13:31:22.089263+00:00","networkType":"Carrier-published national core geometry; generalized paths, not a survey","serviceability":"Unconfirmed","routeDiversity":"Unconfirmed","states":["UT"],"publishedLineParts":5,"importBatch":"20260919","sourceRecordIds":["27268","27274","27296","27312","27313"]},"bbox":[-113.495316463,39.02331603,-113.275860601,39.083989601]},{"type":"Feature","geometry":{"type":"MultiLineString","coordinates":[[[-112.707570944,39.3308722940001],[-112.716975441,39.3307808020001],[-112.723656236,39.3291757160001],[-112.751593214,39.3153080370001],[-112.80434954,39.3041363500001],[-113.167341719,39.092577863],[-113.250752629,39.058430875],[-113.289210703,39.044345809],[-113.306163823,39.0389642330001],[-113.336954703,39.0361293340001],[-113.34040607,39.033899569],[-113.343694699,39.028364063],[-113.34627316,39.0267618770001],[-113.364709719,39.0229139730001],[-113.368412267,39.0232744680001],[-113.44515978,39.064260913],[-113.494959557,39.082977374]],[[-113.200362464,39.0793771830001],[-113.254985784,39.057276315],[-113.2728146,39.050513987],[-113.275860601,39.049883972]],[[-113.06227,39.1549159],[-113.13002,39.1153232]],[[-112.994376874,39.1945216990001],[-113.062269227,39.1549159310001]],[[-113.130018534,39.1153231690001],[-113.165668925,39.0939838190001],[-113.200362464,39.0793771830001]]]},"properties":{"id":"uniti-national-20260919-515ea686e9212d2398e8","sourceId":"uniti-national-20260919","source":"Uniti Wholesale national core network","sourceUrl":"https://www.unitiwholesale.com/network-map/","name":"Uniti Wholesale national core network","carrier":"Uniti Wholesale","category":"unknown","routeStatus":"Publisher network map; current operating status unverified","evidence":"publisher_route","geometryQuality":"publisher_geometry_unverified","dataDate":null,"metadataModified":"2025-07-31T17:08:54+00:00","retrievedAt":"2026-09-19T13:31:22.089263+00:00","networkType":"Carrier-published national core geometry; generalized paths, not a survey","serviceability":"Unconfirmed","routeDiversity":"Unconfirmed","states":["UT"],"publishedLineParts":5,"importBatch":"20260919","sourceRecordIds":["14825","27260","27272","27275","27309"]},"bbox":[-113.494959557,39.0229139730001,-112.707570944,39.3308722940001]},{"type":"Feature","geometry":{"type":"MultiLineString","coordinates":[[[-112.927442215,39.2335498620001],[-112.994376874,39.1945216990001]]]},"properties":{"id":"uniti-national-20260919-05ef610c5735bf9762b8","sourceId":"uniti-national-20260919","source":"Uniti Wholesale national core network","sourceUrl":"https://www.unitiwholesale.com/network-map/","name":"Uniti Wholesale national core network","carrier":"Uniti Wholesale","category":"unknown","routeStatus":"Publisher network map; current operating status unverified","evidence":"publisher_route","geometryQuality":"publisher_geometry_unverified","dataDate":null,"metadataModified":"2025-07-31T17:08:54+00:00","retrievedAt":"2026-09-19T13:31:22.089263+00:00","networkType":"Carrier-published national core geometry; generalized paths, not a survey","serviceability":"Unconfirmed","routeDiversity":"Unconfirmed","states":["UT"],"publishedLineParts":1,"importBatch":"20260919","sourceRecordIds":["27293"]},"bbox":[-112.994376874,39.1945216990001,-112.927442215,39.2335498620001]},{"type":"Feature","geometry":{"type":"MultiLineString","coordinates":[[[-112.78959,39.3076724000001],[-112.8011,39.3052897000001],[-112.80566,39.3037433000001],[-112.85945,39.2725988]],[[-112.859446644,39.272598804],[-112.927442215,39.2335498620001]]]},"properties":{"id":"uniti-national-20260919-0f89d3b0a05e24c55c5d","sourceId":"uniti-national-20260919","source":"Uniti Wholesale national core network","sourceUrl":"https://www.unitiwholesale.com/network-map/","name":"Uniti Wholesale national core network","carrier":"Uniti Wholesale","category":"unknown","routeStatus":"Publisher network map; current operating status unverified","evidence":"publisher_route","geometryQuality":"publisher_geometry_unverified","dataDate":null,"metadataModified":"2025-07-31T17:08:54+00:00","retrievedAt":"2026-09-19T13:31:22.089263+00:00","networkType":"Carrier-published national core geometry; generalized paths, not a survey","serviceability":"Unconfirmed","routeDiversity":"Unconfirmed","states":["UT"],"publishedLineParts":2,"importBatch":"20260919","sourceRecordIds":["27270","27291"]},"bbox":[-112.927442215,39.2335498620001,-112.78959,39.3076724000001]},{"type":"Feature","geometry":{"type":"MultiLineString","coordinates":[[[-112.707125465,39.331641693],[-112.708604468,39.331499315],[-112.708673229,39.3310194410001],[-112.717335934,39.3308962570001],[-112.723929796,39.329201492],[-112.75173428,39.3154535690001],[-112.7895852,39.307672387]],[[-112.513016938,39.389868366],[-112.54471336,39.367596114]],[[-112.637596914,39.330737082],[-112.708480233,39.331156299],[-112.70712547,39.3316416910001]],[[-112.54471336,39.367596114],[-112.551091189,39.3633603320001],[-112.562675982,39.3633457340001],[-112.575667056,39.364453052],[-112.576830987,39.365012345],[-112.575817962,39.3664861990001],[-112.576261255,39.366885649],[-112.583006106,39.367081614]],[[-112.70712547,39.3316416910001],[-112.707049933,39.3316744430001]],[[-112.583006106,39.367081614],[-112.595467058,39.367133959],[-112.595643854,39.3511607250001],[-112.611767896,39.332044088],[-112.615367381,39.330640417],[-112.637596914,39.330737082]]]},"properties":{"id":"uniti-national-20260919-d9279b1f318003ea758c","sourceId":"uniti-national-20260919","source":"Uniti Wholesale national core network","sourceUrl":"https://www.unitiwholesale.com/network-map/","name":"Uniti Wholesale national core network","carrier":"Uniti Wholesale","category":"unknown","routeStatus":"Publisher network map; current operating status unverified","evidence":"publisher_route","geometryQuality":"publisher_geometry_unverified","dataDate":null,"metadataModified":"2025-07-31T17:08:54+00:00","retrievedAt":"2026-09-19T13:31:22.089263+00:00","networkType":"Carrier-published national core geometry; generalized paths, not a survey","serviceability":"Unconfirmed","routeDiversity":"Unconfirmed","states":["UT"],"publishedLineParts":6,"importBatch":"20260919","sourceRecordIds":["27288","27297","27298","27300","27301","27304"]},"bbox":[-112.7895852,39.307672387,-112.513016938,39.389868366]},{"type":"Feature","geometry":{"type":"MultiLineString","coordinates":[[[-112.407992951,39.4847205740001],[-112.460953531,39.434963618]],[[-112.460953531,39.434963618],[-112.486131967,39.4117557920001],[-112.492176162,39.4054827080001],[-112.493228171,39.406125041],[-112.505976557,39.394914191],[-112.513016938,39.389868366]]]},"properties":{"id":"uniti-national-20260919-a91093e246fbb9758a3a","sourceId":"uniti-national-20260919","source":"Uniti Wholesale national core network","sourceUrl":"https://www.unitiwholesale.com/network-map/","name":"Uniti Wholesale national core network","carrier":"Uniti Wholesale","category":"unknown","routeStatus":"Publisher network map; current operating status unverified","evidence":"publisher_route","geometryQuality":"publisher_geometry_unverified","dataDate":null,"metadataModified":"2025-07-31T17:08:54+00:00","retrievedAt":"2026-09-19T13:31:22.089263+00:00","networkType":"Carrier-published national core geometry; generalized paths, not a survey","serviceability":"Unconfirmed","routeDiversity":"Unconfirmed","states":["UT"],"publishedLineParts":2,"importBatch":"20260919","sourceRecordIds":["27259","27273"]},"bbox":[-112.513016938,39.389868366,-112.407992951,39.4847205740001]},{"type":"Feature","geometry":{"type":"MultiLineString","coordinates":[[[-111.952775003,39.691099976],[-111.953906183,39.6953008930001],[-111.953752531,39.697763681],[-111.990366931,39.69671236],[-112.037906323,39.665578128],[-112.044401896,39.665390373],[-112.052694613,39.667446189],[-112.060184289,39.661581251],[-112.068551012,39.6581085070001],[-112.076075066,39.6520649920001],[-112.084440161,39.642078403],[-112.115309839,39.631387203],[-112.118443235,39.628710971],[-112.148141883,39.595603312],[-112.166363796,39.5876182530001],[-112.171698623,39.5803208140001],[-112.182998266,39.5759798810001],[-112.204739812,39.558710885],[-112.219721627,39.5528884340001],[-112.246259314,39.5401243970001],[-112.283454846,39.534681182],[-112.328799247,39.5330815190001],[-112.364479441,39.525333711],[-112.372413496,39.52429958],[-112.372499256,39.515370239],[-112.397890921,39.4946819360001],[-112.504073474,39.3965331140001],[-112.54954534,39.363386115],[-112.577288613,39.3650031920001],[-112.576214681,39.3667860080001],[-112.595767097,39.36710794],[-112.595113561,39.351303132],[-112.611429199,39.3322547440001],[-112.613238538,39.331046101],[-112.616146429,39.330548187],[-112.707494853,39.330883687]],[[-112.353522589,39.526996271],[-112.363145203,39.5256841730001],[-112.364252362,39.5244848140001],[-112.371586994,39.5244213950001],[-112.37199369,39.516706684],[-112.373265094,39.5143445360001],[-112.385441636,39.5063806960001],[-112.407992951,39.4847205740001]],[[-112.271071201,39.5364259990001],[-112.289891996,39.5340410530001],[-112.328899788,39.5328927850001],[-112.353522589,39.526996271]]]},"properties":{"id":"uniti-national-20260919-bf641ddcd855b7840463","sourceId":"uniti-national-20260919","source":"Uniti Wholesale national core network","sourceUrl":"https://www.unitiwholesale.com/network-map/","name":"Uniti Wholesale national core network","carrier":"Uniti Wholesale","category":"unknown","routeStatus":"Publisher network map; current operating status unverified","evidence":"publisher_route","geometryQuality":"publisher_geometry_unverified","dataDate":null,"metadataModified":"2025-07-31T17:08:54+00:00","retrievedAt":"2026-09-19T13:31:22.089263+00:00","networkType":"Carrier-published national core geometry; generalized paths, not a survey","serviceability":"Unconfirmed","routeDiversity":"Unconfirmed","states":["UT"],"publishedLineParts":3,"importBatch":"20260919","sourceRecordIds":["14827","27269","27279"]},"bbox":[-112.707494853,39.330548187,-111.952775003,39.697763681]},{"type":"Feature","geometry":{"type":"MultiLineString","coordinates":[[[-112.114304807,41.550392806],[-112.112545307,41.550167903],[-112.111890849,41.55128395],[-112.177905248,41.5651165080001],[-112.177894519,41.5932220760001],[-112.178581163,41.593446742],[-112.178752824,41.6107437420001],[-112.177937434,41.611000434],[-112.178229794,41.6233064300001],[-112.188261236,41.6231380080001],[-112.189130271,41.667305657],[-112.198968594,41.6671774230001],[-112.19927973,41.681722333],[-112.21892419,41.6814579100001],[-112.219846868,41.7107141920001],[-112.222786563,41.7116512630001],[-112.226563107,41.716528614],[-112.227442869,41.719259449],[-112.238160955,41.7245606220001],[-112.246325584,41.7296291580001],[-112.25468333,41.738740308],[-112.256464313,41.7420145630001],[-112.26037899,41.7536432200001],[-112.259361093,41.7536672310001],[-112.268578486,41.7755440380001],[-112.272977301,41.783064655],[-112.276989878,41.787368611],[-112.277676522,41.7868886310001],[-112.282654693,41.7912563240001],[-112.289413846,41.795031819],[-112.305828933,41.7994149530001],[-112.310764188,41.8014624460001],[-112.321771952,41.804629533],[-112.333080123,41.8064849250001],[-112.333294699,41.8073326300001],[-112.348057548,41.8136020950001],[-112.360073821,41.8158090570001],[-112.364923245,41.816032948],[-112.388054571,41.8166086620001],[-112.403933217,41.8149134870001],[-112.407924337,41.8157450890001],[-112.411228811,41.817536192],[-112.412902506,41.815777073],[-112.413567693,41.815857034],[-112.416078236,41.8184796990001],[-112.421592847,41.8222535900001],[-112.435690509,41.837986399],[-112.439917663,41.83977688],[-112.440690137,41.8437093690001],[-112.465731192,41.871501649],[-112.480494041,41.8812636380001],[-112.534481438,41.896279169],[-112.540682694,41.8969180500001],[-112.545757246,41.896097453]]]},"properties":{"id":"uniti-national-20260919-dd31ea931f6009395021","sourceId":"uniti-national-20260919","source":"Uniti Wholesale national core network","sourceUrl":"https://www.unitiwholesale.com/network-map/","name":"Uniti Wholesale national core network","carrier":"Uniti Wholesale","category":"unknown","routeStatus":"Publisher network map; current operating status unverified","evidence":"publisher_route","geometryQuality":"publisher_geometry_unverified","dataDate":null,"metadataModified":"2025-07-31T17:08:54+00:00","retrievedAt":"2026-09-19T13:31:22.089263+00:00","networkType":"Carrier-published national core geometry; generalized paths, not a survey","serviceability":"Unconfirmed","routeDiversity":"Unconfirmed","states":["UT"],"publishedLineParts":1,"importBatch":"20260919","sourceRecordIds":["14801"]},"bbox":[-112.545757246,41.550167903,-112.111890849,41.8969180500001]},{"type":"Feature","geometry":{"type":"MultiLineString","coordinates":[[[-112.082038224,39.644575494],[-112.086980538,39.6409375690001],[-112.113171472,39.6325430370001],[-112.119217951,39.6292322990001],[-112.12901103,39.617335707],[-112.14182896,39.6036043240001],[-112.144128689,39.6001539860001]],[[-112.204912266,39.559106968],[-112.216409394,39.5546179400001],[-112.234988923,39.544386202],[-112.245276518,39.540214345],[-112.251537451,39.538856541],[-112.271071201,39.5364259990001]],[[-112.14413,39.600154],[-112.14626,39.5970538],[-112.14798,39.5957786000001],[-112.1658,39.5875964000001],[-112.17263,39.5804291000001],[-112.18461,39.5750990000001],[-112.19127,39.5691242],[-112.20491,39.559107]],[[-112.01601258,39.679775664],[-112.03668895,39.6665127410001],[-112.038936855,39.665761982],[-112.045624228,39.6653118720001],[-112.051834956,39.667332458],[-112.054517785,39.6667726150001],[-112.059467481,39.6625436800001],[-112.069676094,39.6575129980001],[-112.07791596,39.6509651710001],[-112.082038224,39.644575494]]]},"properties":{"id":"uniti-national-20260919-79704519e5bebd4c53e6","sourceId":"uniti-national-20260919","source":"Uniti Wholesale national core network","sourceUrl":"https://www.unitiwholesale.com/network-map/","name":"Uniti Wholesale national core network","carrier":"Uniti Wholesale","category":"unknown","routeStatus":"Publisher network map; current operating status unverified","evidence":"publisher_route","geometryQuality":"publisher_geometry_unverified","dataDate":null,"metadataModified":"2025-07-31T17:08:54+00:00","retrievedAt":"2026-09-19T13:31:22.089263+00:00","networkType":"Carrier-published national core geometry; generalized paths, not a survey","serviceability":"Unconfirmed","routeDiversity":"Unconfirmed","states":["UT"],"publishedLineParts":4,"importBatch":"20260919","sourceRecordIds":["27262","27271","27281","27289"]},"bbox":[-112.271071201,39.5364259990001,-112.01601258,39.679775664]},{"type":"Feature","geometry":{"type":"MultiLineString","coordinates":[[[-112.040804535,41.0942417150001],[-112.04061866,41.096176791],[-112.044953101,41.0958210360001],[-112.051063162,41.1050417380001],[-112.058197823,41.1287808050001],[-112.057951061,41.2067674140001],[-112.042549847,41.255822841],[-112.037281999,41.2706377260001],[-112.029228011,41.319263477],[-112.037301445,41.3357234690001],[-112.045063742,41.33581611],[-112.045466074,41.340516468],[-112.043561709,41.341003804],[-112.043041361,41.3539712310001],[-112.050133108,41.3541242470001],[-112.049618124,41.375804633],[-112.044157158,41.378706881],[-112.043025267,41.380264622],[-112.042537107,41.388825496],[-112.050910947,41.408072276],[-112.052032108,41.4178323150001],[-112.058742982,41.429332474],[-112.058490855,41.441297073],[-112.057637914,41.443014164],[-112.05519979,41.4741431320001],[-112.067001487,41.4812569160001],[-112.067022945,41.5099854380001],[-112.078288201,41.509949285],[-112.077590828,41.512998182],[-112.077644472,41.52051336],[-112.078958751,41.531147995],[-112.078390125,41.534762088],[-112.078819277,41.5384081010001],[-112.101124483,41.548313137],[-112.111821112,41.551291979],[-112.112523849,41.5501076850001],[-112.114304807,41.550392806]]]},"properties":{"id":"uniti-national-20260919-0027e819564bdf477122","sourceId":"uniti-national-20260919","source":"Uniti Wholesale national core network","sourceUrl":"https://www.unitiwholesale.com/network-map/","name":"Uniti Wholesale national core network","carrier":"Uniti Wholesale","category":"unknown","routeStatus":"Publisher network map; current operating status unverified","evidence":"publisher_route","geometryQuality":"publisher_geometry_unverified","dataDate":null,"metadataModified":"2025-07-31T17:08:54+00:00","retrievedAt":"2026-09-19T13:31:22.089263+00:00","networkType":"Carrier-published national core geometry; generalized paths, not a survey","serviceability":"Unconfirmed","routeDiversity":"Unconfirmed","states":["UT"],"publishedLineParts":1,"importBatch":"20260919","sourceRecordIds":["14790"]},"bbox":[-112.114304807,41.0942417150001,-112.029228011,41.551291979]},{"type":"Feature","geometry":{"type":"MultiLineString","coordinates":[[[-111.845010386,39.76443219],[-111.843497883,39.7554467570001],[-111.875707746,39.7552754070001],[-111.875423252,39.733388125],[-111.884831917,39.733230271],[-111.884840072,39.72256191],[-111.894220092,39.7224681020001],[-111.894240067,39.7213857830001]],[[-111.951859992,39.691335656],[-111.952620707,39.691229562],[-111.953562893,39.693858424],[-111.953604619,39.697682634],[-111.988794786,39.6965243240001],[-111.992985398,39.6947795340001],[-112.01601258,39.679775664]],[[-111.951859993,39.6913356530001],[-111.951857517,39.691295681]],[[-111.894240067,39.7213857830001],[-111.89395494,39.7100281530001],[-111.898369634,39.709873717],[-111.919186997,39.703415217],[-111.933214266,39.7002711960001],[-111.940777562,39.697316739],[-111.946937534,39.6980777630001],[-111.953226106,39.69764654],[-111.953346239,39.693891223],[-111.952558577,39.6914814],[-111.951859993,39.6913356530001]]]},"properties":{"id":"uniti-national-20260919-3b3a8c20076bf5dc3ac7","sourceId":"uniti-national-20260919","source":"Uniti Wholesale national core network","sourceUrl":"https://www.unitiwholesale.com/network-map/","name":"Uniti Wholesale national core network","carrier":"Uniti Wholesale","category":"unknown","routeStatus":"Publisher network map; current operating status unverified","evidence":"publisher_route","geometryQuality":"publisher_geometry_unverified","dataDate":null,"metadataModified":"2025-07-31T17:08:54+00:00","retrievedAt":"2026-09-19T13:31:22.089263+00:00","networkType":"Carrier-published national core geometry; generalized paths, not a survey","serviceability":"Unconfirmed","routeDiversity":"Unconfirmed","states":["UT"],"publishedLineParts":4,"importBatch":"20260919","sourceRecordIds":["27266","27287","27294","27315"]},"bbox":[-112.01601258,39.679775664,-111.843497883,39.76443219]},{"type":"Feature","geometry":{"type":"MultiLineString","coordinates":[[[-111.712916767,40.2772838540001],[-111.713521803,40.275356318],[-111.717296626,40.2756561680001],[-111.717163409,40.2751283110001],[-111.721186868,40.2750066250001],[-111.673842587,40.22642979],[-111.669576165,40.2256826650001],[-111.661861285,40.2259484940001],[-111.653951756,40.224607082],[-111.647103543,40.2187771650001],[-111.642138429,40.2091681690001],[-111.637730281,40.192599628],[-111.637210958,40.156688102],[-111.637645305,40.1483471110001],[-111.639672136,40.144974964],[-111.654180599,40.144475689],[-111.655545968,40.1358968100001],[-111.65956051,40.135840934],[-111.660064367,40.123132914],[-111.679388371,40.122572473],[-111.68031089,40.1081990000001],[-111.710957592,40.107178452],[-111.711432336,40.0981723450001],[-111.73014497,40.0979185160001],[-111.732206459,40.072129886],[-111.732491154,40.0559786480001],[-111.747312553,40.056259115],[-111.751633124,40.051187284],[-111.752840122,40.0441713390001],[-111.759599133,40.0442302800001],[-111.762199499,40.0412521530001],[-111.777861969,40.040880384],[-111.778844593,40.0221738640001],[-111.781584451,40.018087139],[-111.780944743,40.011988741],[-111.777722706,40.01188395],[-111.776711358,39.9717098350001],[-111.799017547,39.95578566],[-111.807809577,39.94674038],[-111.812717892,39.9353513670001],[-111.81139922,39.928134377],[-111.817809997,39.9202849600001],[-111.832826226,39.893156267],[-111.841963895,39.8743307730001],[-111.849672085,39.8545793750001],[-111.855035941,39.8208676610001],[-111.855171312,39.8118122710001],[-111.851637087,39.794720146],[-111.847726307,39.779904871],[-111.843517341,39.755311562],[-111.875564416,39.75519072],[-111.875972851,39.733399579],[-111.884523042,39.733121929],[-111.88487349,39.7224855470001],[-111.893959442,39.722200152],[-111.89418522,39.7100626160001],[-111.898033836,39.7101504300001],[-111.941077239,39.6975954070001],[-111.946057016,39.6981827710001],[-111.952840774,39.6978790960001],[-111.953213688,39.695252881],[-111.952142113,39.691373258]],[[-111.799550112,39.954905319],[-111.801092881,39.9537017310001],[-111.80527283,39.95336805],[-111.806710641,39.952467347],[-111.807440267,39.949160858],[-111.806860568,39.946378349],[-111.810671699,39.9411152260001],[-111.812379975,39.9360938990001],[-111.811479086,39.929086635],[-111.811965593,39.9271518460001],[-111.816305253,39.9222373800001],[-111.817765263,39.918056129],[-111.83257327,39.8926578100001]],[[-111.853922647,39.8283199300001],[-111.855180096,39.8207532070001],[-111.855029617,39.811931513],[-111.847363404,39.778581691],[-111.845010386,39.76443219]],[[-111.780473417,40.0118312280001],[-111.777389432,40.011855677],[-111.777023767,39.9724019390001],[-111.78319518,39.972366466],[-111.783311701,39.970790556],[-111.789376111,39.970795755],[-111.789698379,39.968455409],[-111.791074095,39.967391406],[-111.797330965,39.9572463320001],[-111.799550112,39.954905319]],[[-111.83257327,39.8926578100001],[-111.839201231,39.881331984],[-111.848668057,39.8583238580001],[-111.853922647,39.8283199300001]]]},"properties":{"id":"uniti-national-20260919-ed0e07b4f750fd0a9299","sourceId":"uniti-national-20260919","source":"Uniti Wholesale national core network","sourceUrl":"https://www.unitiwholesale.com/network-map/","name":"Uniti Wholesale national core network","carrier":"Uniti Wholesale","category":"unknown","routeStatus":"Publisher network map; current operating status unverified","evidence":"publisher_route","geometryQuality":"publisher_geometry_unverified","dataDate":null,"metadataModified":"2025-07-31T17:08:54+00:00","retrievedAt":"2026-09-19T13:31:22.089263+00:00","networkType":"Carrier-published national core geometry; generalized paths, not a survey","serviceability":"Unconfirmed","routeDiversity":"Unconfirmed","states":["UT"],"publishedLineParts":5,"importBatch":"20260919","sourceRecordIds":["14828","27276","27277","27305","27310"]},"bbox":[-111.953213688,39.691373258,-111.637210958,40.2772838540001]},{"type":"Feature","geometry":{"type":"MultiLineString","coordinates":[[[-111.734273403,40.056365514],[-111.747304344,40.056150331],[-111.751904277,40.05087616],[-111.752121011,40.0437610440001],[-111.759351167,40.0438089420001],[-111.762070323,40.0412673280001],[-111.777760581,40.0410928840001],[-111.778289137,40.022619795],[-111.780716419,40.01815256],[-111.780473417,40.0118312280001]]]},"properties":{"id":"uniti-national-20260919-e99f82d1c342bb476372","sourceId":"uniti-national-20260919","source":"Uniti Wholesale national core network","sourceUrl":"https://www.unitiwholesale.com/network-map/","name":"Uniti Wholesale national core network","carrier":"Uniti Wholesale","category":"unknown","routeStatus":"Publisher network map; current operating status unverified","evidence":"publisher_route","geometryQuality":"publisher_geometry_unverified","dataDate":null,"metadataModified":"2025-07-31T17:08:54+00:00","retrievedAt":"2026-09-19T13:31:22.089263+00:00","networkType":"Carrier-published national core geometry; generalized paths, not a survey","serviceability":"Unconfirmed","routeDiversity":"Unconfirmed","states":["UT"],"publishedLineParts":1,"importBatch":"20260919","sourceRecordIds":["27295"]},"bbox":[-111.780716419,40.0118312280001,-111.734273403,40.056365514]},{"type":"Feature","geometry":{"type":"MultiLineString","coordinates":[[[-111.891721588,40.766727642],[-111.891640029,40.7654981210001],[-111.911499245,40.764873455],[-111.913305972,40.7607589400001],[-111.908399806,40.7496826570001],[-111.903752739,40.745118716],[-111.903389504,40.74193226],[-111.904124215,40.737673967],[-111.904013949,40.7264523280001],[-111.908491387,40.72562745],[-111.905299667,40.7196148],[-111.90202524,40.698660675],[-111.903464324,40.688773842],[-111.901059534,40.6744672720001],[-111.902495304,40.6350467240001],[-111.90164972,40.621627249],[-111.906373069,40.6141525570001],[-111.900237695,40.5876615350001],[-111.898055988,40.5588169960001],[-111.88960795,40.5273581540001],[-111.891262418,40.491663052],[-111.903566459,40.4800086760001],[-111.913127342,40.463587546],[-111.913732438,40.4557246680001],[-111.911698288,40.449635889],[-111.889322176,40.431475052],[-111.885112416,40.4315436430001],[-111.868603069,40.421591834],[-111.857265288,40.4037528040001],[-111.844976841,40.3964371000001],[-111.801084633,40.3790681140001],[-111.794116024,40.3789549480001],[-111.788800264,40.3781383130001],[-111.780135983,40.3727402800001],[-111.748758529,40.365508106],[-111.745749533,40.363616095],[-111.744279749,40.3609808030001],[-111.742970016,40.355623682],[-111.734762155,40.311832468],[-111.729357481,40.3118436630001],[-111.729225598,40.3094403210001],[-111.731113907,40.309456712],[-111.731089718,40.304760958],[-111.733205208,40.304626334],[-111.733886068,40.3039666430001],[-111.733654415,40.2847459880001],[-111.726937537,40.275108441],[-111.713712997,40.2754706640001],[-111.713108993,40.2772799750001]],[[-111.687855398,40.24133254],[-111.687355171,40.241514038],[-111.690091695,40.245055956],[-111.696641715,40.2444069600001],[-111.710155551,40.256287527],[-111.715198105,40.2595871450001],[-111.727074926,40.274838619],[-111.716903989,40.2751332990001],[-111.71687482,40.2757632],[-111.719433313,40.276933074],[-111.724183504,40.282596067],[-111.724411492,40.3121832410001],[-111.702409332,40.3121627880001],[-111.702106242,40.3127620490001],[-111.708412115,40.327136576],[-111.721364503,40.342939093],[-111.723759715,40.3449527340001],[-111.718754714,40.3448954940001],[-111.724065487,40.353922412],[-111.733190363,40.361251806],[-111.733201091,40.3662997540001],[-111.738957112,40.3663242770001],[-111.738978569,40.3688991970001],[-111.739847606,40.370905931],[-111.739649122,40.390132404],[-111.742685382,40.392199792],[-111.773144548,40.391970993],[-111.773284023,40.4320234190001],[-111.837753599,40.4318396720001],[-111.865895336,40.433044228],[-111.88668782,40.431745757],[-111.887417381,40.432770653],[-111.890249793,40.4327910690001],[-111.892180984,40.433797575],[-111.896563713,40.4381786600001],[-111.901182478,40.445219239],[-111.901976412,40.4501343480001],[-111.903338974,40.450705848],[-111.911158955,40.449794507],[-111.912946647,40.451297755],[-111.913896148,40.459204308],[-111.912855452,40.4640857420001],[-111.909175461,40.469538163],[-111.905988996,40.4727783880001],[-111.90209443,40.479184923],[-111.89756686,40.482628693],[-111.896064823,40.485435806],[-111.891488974,40.4904316060001],[-111.890442912,40.494199119],[-111.890754049,40.4995267190001],[-111.889040117,40.5007035470001],[-111.887680238,40.500713746],[-111.887752657,40.5026655630001],[-111.889812594,40.504913039],[-111.890577023,40.5070849850001],[-111.890523379,40.5239809290001],[-111.888499652,40.5252888310001],[-111.888500993,40.5267781570001],[-111.919030839,40.5266109630001],[-111.921490152,40.527132389],[-111.923932974,40.525909642],[-111.929141824,40.5259381860001],[-111.929399316,40.638091186],[-111.939116755,40.6381158720001],[-111.939296347,40.732695317],[-111.93917397,40.7335865520001],[-111.909733039,40.7336155140001],[-111.911264581,40.7336383790001],[-111.911100966,40.751732831],[-111.912578863,40.751767373],[-111.89379267,40.751781597],[-111.896643859,40.751812075],[-111.896689457,40.7583930480001],[-111.899438721,40.7583767940001],[-111.89918324,40.769217778],[-111.899827641,40.771445382],[-111.883730363,40.7715703060001],[-111.883796078,40.769429675],[-111.887989712,40.769459764],[-111.885540722,40.7690959170001]]]},"properties":{"id":"uniti-national-20260919-c8aa1ce5b40d04358754","sourceId":"uniti-national-20260919","source":"Uniti Wholesale national core network","sourceUrl":"https://www.unitiwholesale.com/network-map/","name":"Uniti Wholesale national core network","carrier":"Uniti Wholesale","category":"unknown","routeStatus":"Publisher network map; current operating status unverified","evidence":"publisher_route","geometryQuality":"publisher_geometry_unverified","dataDate":null,"metadataModified":"2025-07-31T17:08:54+00:00","retrievedAt":"2026-09-19T13:31:22.089263+00:00","networkType":"Carrier-published national core geometry; generalized paths, not a survey","serviceability":"Unconfirmed","routeDiversity":"Unconfirmed","states":["UT"],"publishedLineParts":2,"importBatch":"20260919","sourceRecordIds":["14829","27284"]},"bbox":[-111.939296347,40.24133254,-111.687355171,40.7715703060001]},{"type":"Feature","geometry":{"type":"MultiLineString","coordinates":[[[-111.888657427,40.767050645],[-111.888193557,40.7670608],[-111.888116732,40.7497650220001],[-111.88509178,40.749863255]],[[-111.889196117,40.7668687600001],[-111.888657427,40.767050645]],[[-111.949772317,40.758537543],[-111.943929392,40.7584714070001],[-111.943936286,40.7621834020001]],[[-111.911147224,40.7672354250001],[-111.902589626,40.7672534870001],[-111.902504705,40.769393576],[-111.896637439,40.7694226630001]],[[-112.010971975,40.780486903],[-112.011001767,40.781502652],[-112.005658817,40.781486618],[-112.005615901,40.781047711],[-112.005755375,40.787294757],[-112.011232436,40.7924446750001],[-112.01572781,40.8225766830001],[-111.973011032,40.826936388],[-111.949750962,40.8574990380001],[-111.905113727,40.9198264870001],[-111.901610769,40.919790006],[-111.898086352,40.937400085],[-111.898317022,40.9412862340001],[-111.903574142,40.9624108900001],[-111.910671253,40.962406839],[-111.912967219,40.961183463],[-111.963961277,41.0120073900001],[-112.043848033,41.09409479],[-112.040804535,41.0942417150001]],[[-111.919563317,40.764894387],[-111.911113878,40.7649053690001],[-111.911147224,40.7672354250001]],[[-111.919524763,40.7704377700001],[-111.919532105,40.7716313770001],[-111.936277848,40.7716337910001]],[[-111.943936291,40.7621834060001],[-111.943995967,40.7689604540001]],[[-112.010971975,40.7804869010001],[-112.01172726,40.7804856660001],[-112.011803657,40.7811720110001],[-112.02516599,40.7811496730001],[-112.024824773,40.7520114710001],[-111.967861772,40.7610661620001],[-111.957402686,40.758768608]],[[-111.919563316,40.7648943840001],[-111.919783076,40.767061082]],[[-111.953222765,40.758528208],[-111.949772317,40.758537543]],[[-111.943995967,40.7689604540001],[-111.94404021,40.771684674],[-111.936277848,40.7716337910001]],[[-111.896637434,40.769422665],[-111.893954002,40.7694187050001],[-111.893816722,40.7670849190001],[-111.889285618,40.76711471]],[[-111.889175908,40.766955276],[-111.889285618,40.76711471]],[[-111.957403088,40.7587685760001],[-111.953222764,40.7585282050001]],[[-111.919783076,40.767061082],[-111.919524763,40.7704377700001]],[[-111.885516455,40.7684573380001],[-111.885170791,40.7670405590001],[-111.88785375,40.767120982]],[[-111.885516455,40.7684573380001],[-111.885515486,40.768444124]],[[-111.885515486,40.768444124],[-111.885693816,40.768443119]],[[-111.889389997,40.766855496],[-111.889450001,40.7667773210001]],[[-111.887939112,40.765029677],[-111.888690415,40.7649894780001]],[[-111.887939112,40.765029677],[-111.88785375,40.767120982]],[[-111.889450001,40.7667773210001],[-111.889673748,40.7649786070001]],[[-111.889673748,40.7649786070001],[-111.888690415,40.7649894780001]],[[-111.889196117,40.766868759],[-111.888249902,40.7670595660001],[-111.88829165,40.764865345]],[[-111.889747276,40.764951115],[-111.888291699,40.7648653200001]],[[-111.889673748,40.7649786070001],[-111.889747276,40.764951115]],[[-111.889101376,40.7670710250001],[-111.889285618,40.76711471]],[[-111.889101142,40.7670706580001],[-111.888885401,40.7670747490001]],[[-111.885564894,40.768373892],[-111.885693816,40.768443119]],[[-111.885545479,40.768374022],[-111.885564894,40.768373892]],[[-111.88553442,40.768362972],[-111.885545479,40.768374022]],[[-111.88553442,40.768362972],[-111.885637266,40.7672324850001],[-111.888885401,40.7670747490001]],[[-111.885516455,40.7684573390001],[-111.885540722,40.7690959170001]],[[-111.885515486,40.768444125],[-111.885693816,40.768443119]],[[-111.885516455,40.7684573390001],[-111.885515486,40.768444125]]]},"properties":{"id":"uniti-national-20260919-f5a2383bfbe42069ec12","sourceId":"uniti-national-20260919","source":"Uniti Wholesale national core network","sourceUrl":"https://www.unitiwholesale.com/network-map/","name":"Uniti Wholesale national core network","carrier":"Uniti Wholesale","category":"unknown","routeStatus":"Publisher network map; current operating status unverified","evidence":"publisher_route","geometryQuality":"publisher_geometry_unverified","dataDate":null,"metadataModified":"2025-07-31T17:08:54+00:00","retrievedAt":"2026-09-19T13:31:22.089263+00:00","networkType":"Carrier-published national core geometry; generalized paths, not a survey","serviceability":"Unconfirmed","routeDiversity":"Unconfirmed","states":["UT"],"publishedLineParts":36,"importBatch":"20260919","sourceRecordIds":["14402","14418","14789","14791","14792","14793","14794","14795","14796","14797","14798","14799","14800","14803","14805","14806","17930","17931","17932","17933","17934","17935","17936","17937","17939","17988","17989","26773","26784","26785","26787","26789","26790","27280","27285","27307"]},"bbox":[-112.043848033,40.7497650220001,-111.88509178,41.0942417150001]},{"type":"Feature","geometry":{"type":"MultiLineString","coordinates":[[[-111.687855398,40.24133254],[-111.681399345,40.234442769]],[[-111.63773024,40.1880994800001],[-111.637495321,40.151836297],[-111.638060085,40.147700351],[-111.6395485,40.144539394],[-111.654885845,40.1445137040001],[-111.655221985,40.136305494],[-111.658804825,40.1362798440001]],[[-111.68139935,40.23444277],[-111.675028156,40.227902547],[-111.67255375,40.226461412],[-111.669422659,40.225812256],[-111.657479106,40.225493688],[-111.651634574,40.2234383320001],[-111.649593659,40.2218105900001],[-111.643795162,40.2138883900001],[-111.637874035,40.193316043],[-111.63773024,40.1880994800001]],[[-111.709610175,40.107461884],[-111.711627373,40.1074620650001],[-111.711669249,40.098192372],[-111.731032558,40.098082332],[-111.731447152,40.076968327],[-111.732323575,40.0721250070001],[-111.732389024,40.05748407],[-111.734273403,40.056365514]],[[-111.687855398,40.24133254],[-111.687822777,40.241301793]],[[-111.658804825,40.1362798440001],[-111.660165585,40.136028815],[-111.660364957,40.123129341],[-111.679619494,40.1228600480001],[-111.679563943,40.108219627],[-111.709610175,40.107461884]]]},"properties":{"id":"uniti-national-20260919-bd6aac1e01606a9a10aa","sourceId":"uniti-national-20260919","source":"Uniti Wholesale national core network","sourceUrl":"https://www.unitiwholesale.com/network-map/","name":"Uniti Wholesale national core network","carrier":"Uniti Wholesale","category":"unknown","routeStatus":"Publisher network map; current operating status unverified","evidence":"publisher_route","geometryQuality":"publisher_geometry_unverified","dataDate":null,"metadataModified":"2025-07-31T17:08:54+00:00","retrievedAt":"2026-09-19T13:31:22.089263+00:00","networkType":"Carrier-published national core geometry; generalized paths, not a survey","serviceability":"Unconfirmed","routeDiversity":"Unconfirmed","states":["UT"],"publishedLineParts":6,"importBatch":"20260919","sourceRecordIds":["27261","27263","27267","27278","27286","27303"]},"bbox":[-111.734273403,40.056365514,-111.637495321,40.24133254]},{"type":"Feature","geometry":{"type":"MultiLineString","coordinates":[[[-111.885091778,40.7498632520001],[-111.849323998,40.7496269980001],[-111.845325996,40.7497889970001],[-111.845335004,40.750835002],[-111.814788993,40.751033998],[-111.809104844,40.7502440970001],[-111.807475545,40.7505131660001],[-111.805349331,40.752060629],[-111.801027003,40.7517069990001],[-111.794635347,40.7537946780001],[-111.793201362,40.7554843350001],[-111.786128612,40.759722858],[-111.781216287,40.7605196900001],[-111.780624602,40.761072299],[-111.781623002,40.763632998],[-111.780186996,40.7653030000001],[-111.774782998,40.765431998],[-111.769422998,40.766404004],[-111.759583003,40.770031003],[-111.756625002,40.7696639970001],[-111.750937001,40.771323002],[-111.745827,40.771501995],[-111.740844002,40.773996003],[-111.737037,40.774582003],[-111.731493,40.7766800030001],[-111.730012997,40.778249003],[-111.723069005,40.781706999],[-111.716458001,40.786691002],[-111.716166997,40.7860029980001],[-111.719064996,40.781828004],[-111.721346007,40.7806660040001],[-111.722534997,40.7762190030001],[-111.726439996,40.772348999],[-111.725835004,40.772133996],[-111.722864999,40.7742320020001],[-111.713736,40.776689],[-111.709050995,40.779943997],[-111.708237993,40.7796389980001],[-111.708313,40.776191999],[-111.707654999,40.775819004],[-111.702039,40.7795869970001],[-111.700292003,40.779272995],[-111.699857003,40.778237],[-111.703102005,40.777740996],[-111.706721004,40.7742840010001],[-111.710837995,40.773185996],[-111.709935003,40.764149999],[-111.708492002,40.7587599990001],[-111.709813995,40.7556850030001],[-111.712559,40.752700997],[-111.708839998,40.751079997],[-111.702264001,40.750723996],[-111.688221002,40.7440399970001],[-111.680815005,40.744259002],[-111.675862001,40.7426099990001],[-111.674945,40.741315],[-111.672296002,40.7401250010001],[-111.669302004,40.739740995],[-111.659838999,40.7435330000001],[-111.651918998,40.744782996],[-111.649686996,40.7462210030001],[-111.645961,40.7472820020001],[-111.645142995,40.7473529970001],[-111.644437001,40.745787001],[-111.641543001,40.7464640000001],[-111.638401001,40.745777999],[-111.634329002,40.748170998],[-111.629302996,40.7490170040001],[-111.626359995,40.751678],[-111.624518003,40.750342001],[-111.622634001,40.750190998],[-111.620508004,40.751208996],[-111.62033,40.752404997],[-111.619157004,40.752943003],[-111.607638998,40.749544998],[-111.602689005,40.7493380000001],[-111.599050999,40.749922005],[-111.587703002,40.7548769970001],[-111.581574997,40.755926999],[-111.579193005,40.755754999],[-111.57519,40.7544460020001],[-111.572558994,40.752598998],[-111.572134999,40.7544630020001],[-111.570371004,40.7539249970001],[-111.554723,40.736683004],[-111.547562002,40.7298299980001],[-111.539183003,40.7259389970001],[-111.529831002,40.7234640020001],[-111.530425999,40.722595997],[-111.525206001,40.721244004],[-111.520162996,40.7210770030001],[-111.517563995,40.721643998],[-111.507257,40.726668004],[-111.492918999,40.727035003],[-111.494967996,40.729755997],[-111.494802997,40.7318870010001],[-111.474505997,40.741984001],[-111.473781002,40.744835005],[-111.471613997,40.747016999],[-111.469958004,40.7532730020001],[-111.472133002,40.757387],[-111.470898003,40.7644849980001],[-111.468978999,40.766643996],[-111.468768999,40.7685180010001],[-111.470156999,40.7709639990001],[-111.468140998,40.776852003],[-111.461731002,40.779522001],[-111.459403,40.7815029970001],[-111.458316999,40.783810997],[-111.454135,40.7864139980001],[-111.452723997,40.790465001],[-111.449960994,40.792566998],[-111.449954003,40.794416002],[-111.448882995,40.7964800010001],[-111.439447999,40.804030997],[-111.434672,40.805803999],[-111.411503005,40.810896003],[-111.405777004,40.810995999],[-111.394929005,40.822475],[-111.392179004,40.828300003],[-111.387986997,40.841615996],[-111.388824002,40.845028003],[-111.386639004,40.8564929990001],[-111.395430995,40.900203],[-111.387854996,40.901335004],[-111.387172997,40.9026499980001],[-111.386160001,40.9027500030001],[-111.381534998,40.905863001],[-111.380075003,40.9133820010001],[-111.371486003,40.914298003],[-111.369636003,40.915861998],[-111.360121998,40.918841],[-111.359658994,40.9200969980001],[-111.358569001,40.920646999],[-111.358800999,40.924631999],[-111.349131003,40.9249320010001],[-111.341468001,40.9237930000001],[-111.339011995,40.922459997],[-111.336129005,40.919038002],[-111.331340002,40.9180739970001],[-111.329675,40.918453],[-111.327362006,40.921541001],[-111.325483997,40.9223440000001],[-111.322192002,40.9218359980001],[-111.302954005,40.924254002],[-111.294127999,40.932998001],[-111.291253994,40.936790998],[-111.283980002,40.940934],[-111.284954654,40.943086006]],[[-111.88829165,40.764865345],[-111.888116732,40.749765021],[-111.849323998,40.7496269970001],[-111.845325996,40.7497889960001],[-111.845335004,40.750835001],[-111.814788993,40.751033997],[-111.809104844,40.7502440960001],[-111.807475545,40.750513165],[-111.805767768,40.751977093],[-111.801027003,40.751706998],[-111.794635347,40.753794677],[-111.793201362,40.7554843340001],[-111.786128612,40.759722857],[-111.781216287,40.760519689],[-111.780624602,40.761072298],[-111.781623002,40.7636329970001],[-111.780186996,40.765302999],[-111.774782998,40.7654319970001],[-111.769422998,40.766404003],[-111.759583003,40.770031002],[-111.756625002,40.7696639960001],[-111.750937001,40.771323001],[-111.745827,40.771501995],[-111.740844002,40.773996003],[-111.737037,40.774582002],[-111.732206995,40.776322996],[-111.730012997,40.778249002],[-111.723069005,40.7817069980001],[-111.716458001,40.7866910010001],[-111.716166997,40.786002997],[-111.719064996,40.781828003],[-111.721346007,40.7806660030001],[-111.722534997,40.776219002],[-111.726439996,40.772348998],[-111.725835004,40.772133995],[-111.722864999,40.774232001],[-111.713736,40.776688999],[-111.709050995,40.779943996],[-111.708237993,40.779638997],[-111.708313,40.7761919980001],[-111.707654999,40.775819003],[-111.702039,40.779586996],[-111.700292003,40.7792729940001],[-111.699857003,40.7782369990001],[-111.703102005,40.777740995],[-111.706721004,40.7742840000001],[-111.710837995,40.7731859950001],[-111.709935003,40.7641499980001],[-111.708492002,40.7587599980001],[-111.709813995,40.7556850020001],[-111.712559,40.752700996],[-111.708839998,40.751079996],[-111.702264001,40.750723995],[-111.688221002,40.744039996],[-111.680815005,40.744259001],[-111.675862001,40.742609998],[-111.674945,40.7413149990001],[-111.672296002,40.740125],[-111.669302004,40.739740994],[-111.659838999,40.743532999],[-111.651918998,40.744782995],[-111.649686996,40.746221002],[-111.645961,40.747282001],[-111.645142995,40.7473529960001],[-111.644437001,40.7457870000001],[-111.641543001,40.7464639990001],[-111.638401001,40.745777998],[-111.634329002,40.748170998],[-111.629302996,40.7490170030001],[-111.626359995,40.751677999],[-111.624518003,40.750342],[-111.622634001,40.7501909970001],[-111.620508004,40.7512089950001],[-111.62033,40.752404996],[-111.619157004,40.752943003],[-111.607638998,40.749544997],[-111.602689005,40.749337999],[-111.599050999,40.749922004],[-111.587703002,40.7548769960001],[-111.581574997,40.7559269980001],[-111.579193005,40.755754998],[-111.57519,40.7544460010001],[-111.572558994,40.752598997],[-111.572134999,40.754463001],[-111.570371004,40.7539249960001],[-111.554723,40.736683003],[-111.547562002,40.729829997],[-111.539183003,40.725938996],[-111.529831002,40.723464001],[-111.530425999,40.7225959960001],[-111.525206001,40.721244003],[-111.520162996,40.7210770020001],[-111.517563995,40.7216439970001],[-111.507257,40.726668003],[-111.492918999,40.727035002],[-111.494967996,40.7297559960001],[-111.494802997,40.731887],[-111.474505997,40.7419840000001],[-111.473781002,40.744835004],[-111.471613997,40.747016998],[-111.469958004,40.753273001],[-111.472133002,40.757386999],[-111.470898003,40.7644849970001],[-111.468978999,40.766643995],[-111.468768999,40.768518],[-111.470156999,40.7709639980001],[-111.468140998,40.7768520020001],[-111.461731002,40.779522],[-111.459403,40.781502996],[-111.458316999,40.783810996],[-111.454135,40.7864139970001],[-111.452723997,40.790465],[-111.449960994,40.7925669970001],[-111.449954003,40.7944160010001],[-111.448882995,40.79648],[-111.439447999,40.8040309960001],[-111.434672,40.805803998],[-111.411503005,40.810896002],[-111.405777004,40.8109959980001],[-111.394929005,40.8224749990001],[-111.392179004,40.828300002],[-111.387986997,40.841615995],[-111.388824002,40.845028002],[-111.386639004,40.8564929980001],[-111.395430995,40.900202999],[-111.387854996,40.901335004],[-111.387172997,40.902649997],[-111.386160001,40.9027500020001],[-111.381534998,40.9058630000001],[-111.380075003,40.9133820000001],[-111.371486003,40.9142980020001],[-111.369636003,40.915861997],[-111.360121998,40.9188409990001],[-111.359658994,40.920096997],[-111.358569001,40.9206469980001],[-111.358800999,40.9246319980001],[-111.349131003,40.9249320000001],[-111.341468001,40.9237929990001],[-111.339011995,40.922459996],[-111.336129005,40.919038001],[-111.331340002,40.918073996],[-111.329675,40.9184529990001],[-111.327362006,40.921541],[-111.325483997,40.9223439990001],[-111.322192002,40.9218359980001],[-111.302954005,40.9242540010001],[-111.294127999,40.932998],[-111.291253994,40.9367909970001],[-111.283980002,40.940933999],[-111.284951132,40.943079433]]]},"properties":{"id":"uniti-national-20260919-635581560941f842185a","sourceId":"uniti-national-20260919","source":"Uniti Wholesale national core network","sourceUrl":"https://www.unitiwholesale.com/network-map/","name":"Uniti Wholesale national core network","carrier":"Uniti Wholesale","category":"unknown","routeStatus":"Publisher network map; current operating status unverified","evidence":"publisher_route","geometryQuality":"publisher_geometry_unverified","dataDate":null,"metadataModified":"2025-07-31T17:08:54+00:00","retrievedAt":"2026-09-19T13:31:22.089263+00:00","networkType":"Carrier-published national core geometry; generalized paths, not a survey","serviceability":"Unconfirmed","routeDiversity":"Unconfirmed","states":["UT"],"publishedLineParts":2,"importBatch":"20260919","sourceRecordIds":["14438","17987"]},"bbox":[-111.88829165,40.7210770020001,-111.283980002,40.943086006]},{"type":"Feature","geometry":{"type":"MultiLineString","coordinates":[[[-111.266177002,40.951464995],[-111.269123,40.950499],[-111.283973,40.9409760010001],[-111.284413,40.9431690000001],[-111.284951132,40.9430794310001]],[[-111.266177002,40.951464994],[-111.269123,40.950498999],[-111.283973,40.940976],[-111.284413,40.9431689990001],[-111.284951132,40.9430794300001]]]},"properties":{"id":"uniti-national-20260919-ce37c2602cc9f52f04b9","sourceId":"uniti-national-20260919","source":"Uniti Wholesale national core network","sourceUrl":"https://www.unitiwholesale.com/network-map/","name":"Uniti Wholesale national core network","carrier":"Uniti Wholesale","category":"unknown","routeStatus":"Publisher network map; current operating status unverified","evidence":"publisher_route","geometryQuality":"publisher_geometry_unverified","dataDate":null,"metadataModified":"2025-07-31T17:08:54+00:00","retrievedAt":"2026-09-19T13:31:22.089263+00:00","networkType":"Carrier-published national core geometry; generalized paths, not a survey","serviceability":"Unconfirmed","routeDiversity":"Unconfirmed","states":["UT"],"publishedLineParts":2,"importBatch":"20260919","sourceRecordIds":["14420","17896"]},"bbox":[-111.284951132,40.940976,-111.266177002,40.951464995]},{"type":"Feature","geometry":{"type":"MultiLineString","coordinates":[[[-111.046761006,41.0086410000001],[-111.046872997,41.0058460050001],[-111.050210995,41.0027929990001],[-111.055677001,41.002089004],[-111.059882994,40.999294998],[-111.060108993,40.997165997],[-111.063290001,40.989593003],[-111.063305002,40.987914999],[-111.066534005,40.9833760010001],[-111.071248998,40.9821709990001],[-111.078877997,40.981442004],[-111.081162,40.9792940030001],[-111.081716004,40.977092997],[-111.082656004,40.976036003],[-111.094769,40.9713590040001],[-111.095330995,40.969306003],[-111.097166001,40.9667680000001],[-111.097204002,40.9646609960001],[-111.098151001,40.9636039970001],[-111.103475996,40.9616809990001],[-111.113268001,40.9618319950001],[-111.115556,40.9611930020001],[-111.118529998,40.958452004],[-111.121518001,40.9571529990001],[-111.125453997,40.9527390050001],[-111.127463994,40.9483279990001],[-111.129863996,40.946588999],[-111.136050996,40.939560998],[-111.144308997,40.936421001],[-111.147593996,40.936227998],[-111.153063001,40.9371159990001],[-111.156284004,40.9401699950001],[-111.158664999,40.940927996],[-111.168452002,40.9409759960001],[-111.174974998,40.9402210020001],[-111.183827997,40.9411770030001],[-111.185966001,40.9406179980001],[-111.196190003,40.9471669960001],[-111.206189003,40.9553329990001],[-111.227610002,40.9605289960001],[-111.236331,40.963379999],[-111.240643995,40.9631729970001],[-111.247225995,40.960456998],[-111.259722997,40.9537450010001],[-111.266177,40.951465]],[[-111.046761006,41.0086410000001],[-111.046872997,41.005846004],[-111.050210995,41.0027929980001],[-111.055677001,41.002089003],[-111.059882994,40.999294997],[-111.060108993,40.997165996],[-111.063290001,40.989593002],[-111.063305002,40.9879149980001],[-111.066534005,40.9833760000001],[-111.071248998,40.9821709980001],[-111.078877997,40.981442003],[-111.081162,40.9792940020001],[-111.081716004,40.9770929960001],[-111.082656004,40.9760360020001],[-111.094769,40.971359003],[-111.095330995,40.9693060020001],[-111.097166001,40.9667679990001],[-111.097204002,40.964660995],[-111.098151001,40.9636039960001],[-111.103475996,40.9616809980001],[-111.113268001,40.9618319950001],[-111.115556,40.961193001],[-111.118529998,40.958452003],[-111.121518001,40.957152998],[-111.125453997,40.9527390040001],[-111.127463994,40.9483279990001],[-111.129863996,40.946588998],[-111.136050996,40.9395609970001],[-111.144308997,40.936421],[-111.147593996,40.9362279970001],[-111.153063001,40.937115998],[-111.156284004,40.940169994],[-111.158664999,40.940927995],[-111.168452002,40.940975995],[-111.174974998,40.9402210010001],[-111.183827997,40.9411770020001],[-111.185966001,40.9406179970001],[-111.196190003,40.947166995],[-111.206189003,40.9553329980001],[-111.227610002,40.9605289950001],[-111.236331,40.9633799980001],[-111.240643995,40.963172996],[-111.247225995,40.9604569970001],[-111.259722997,40.953745],[-111.266177,40.9514649990001]]]},"properties":{"id":"uniti-national-20260919-7289b58ea6a4e239982e","sourceId":"uniti-national-20260919","source":"Uniti Wholesale national core network","sourceUrl":"https://www.unitiwholesale.com/network-map/","name":"Uniti Wholesale national core network","carrier":"Uniti Wholesale","category":"unknown","routeStatus":"Publisher network map; current operating status unverified","evidence":"publisher_route","geometryQuality":"publisher_geometry_unverified","dataDate":null,"metadataModified":"2025-07-31T17:08:54+00:00","retrievedAt":"2026-09-19T13:31:22.089263+00:00","networkType":"Carrier-published national core geometry; generalized paths, not a survey","serviceability":"Unconfirmed","routeDiversity":"Unconfirmed","states":["UT","WY"],"publishedLineParts":2,"importBatch":"20260919","sourceRecordIds":["14405","17895"]},"bbox":[-111.266177,40.9362279970001,-111.046761006,41.0086410000001]}]}