{"type":"FeatureCollection","features":[{"type":"Feature","geometry":{"type":"LineString","coordinates":[[-82.6465492645666,38.16926949981198],[-82.64552977164894,38.169320698422396],[-82.64487100044222,38.1693210004275],[-82.64454999986714,38.16964600025409],[-82.644061999916,38.17016700002808],[-82.64362800001697,38.17059799961317],[-82.64310600046115,38.17097799977259]]},"properties":{"id":"arcgis-229-5-2dbaa741f2a8853f","sourceId":"arcgis-229-5","source":"KYTC - Kentucky Wired \u2014 Aerial","sourceUrl":"https://maps.kytc.ky.gov/arcgis/rest/services/Apps/KYWired/MapServer/5","name":"KYTC - Kentucky Wired \u2014 Aerial","carrier":"Not published","routeStatus":"Construction complete","category":"existing","evidence":"agency_route","dataDate":null,"metadataModified":"2025-02-06T15:08:27+00:00","retrievedAt":"2026-09-18T02:43:58.328068+00:00","networkType":"Published fiber route; network class not specified","serviceability":"Unconfirmed","routeDiversity":"Unconfirmed","states":["KY","WV"]},"bbox":[-82.6465492645666,38.16926949981198,-82.64310600046115,38.17097799977259]},{"type":"Feature","geometry":{"type":"LineString","coordinates":[[-82.5830829504604,38.28941044091293],[-82.58317694993538,38.290131440892665],[-82.5832599502713,38.29078844061357],[-82.58335637482979,38.2915426320101],[-82.5834559507213,38.29220944090829],[-82.58354480050383,38.292885198117965],[-82.58363995084622,38.29357044116762],[-82.58370995054928,38.294501441960236],[-82.58379195042707,38.2954304421192],[-82.58387495104388,38.296442442159034],[-82.58369395083314,38.29706644244273],[-82.58351495104816,38.29767444265337],[-82.58332495132714,38.298301442335685],[-82.5831379508568,38.298939442253584],[-82.58275595098104,38.299574442291465],[-82.5823909502964,38.30019744320363],[-82.58200995117541,38.300848442560905],[-82.58163972613832,38.30151854806282],[-82.58133095061541,38.302253442986945],[-82.58102095019825,38.303006443568584],[-82.58071995042287,38.30374744332478],[-82.58040294985054,38.304523444127575],[-82.58017595086099,38.30508344381734],[-82.57989095020768,38.305797443720515],[-82.57959895062359,38.30652544453164],[-82.57931395065565,38.307227444582246],[-82.57902795011525,38.30794044473941],[-82.5787439505331,38.308687444180066],[-82.57849594974425,38.30938944438871],[-82.57833995062859,38.31002544534899],[-82.57816094987315,38.31072844492147],[-82.5779709500719,38.311465445614],[-82.57780994998849,38.3121044452153],[-82.577682950376,38.31276344580514],[-82.57753594962227,38.31350544602967],[-82.57741495072636,38.31410544584118],[-82.57727394987722,38.31479444626249],[-82.57714494976307,38.31547144595149],[-82.57703195020761,38.316134446316994],[-82.57692094970584,38.31680444582454],[-82.57681895026775,38.317468446453105],[-82.57671995048065,38.31812544632373],[-82.57685094992986,38.3188294469013],[-82.57695495074836,38.319386446367155],[-82.57697095034632,38.32003144714771],[-82.57716895076514,38.320530447271274],[-82.577369950501,38.32103244710482],[-82.5777240487232,38.321655552972125],[-82.57807704971782,38.32229255295037],[-82.57841904897215,38.322923552491964]]},"properties":{"id":"arcgis-229-5-d80c55709f59158b","sourceId":"arcgis-229-5","source":"KYTC - Kentucky Wired \u2014 Aerial","sourceUrl":"https://maps.kytc.ky.gov/arcgis/rest/services/Apps/KYWired/MapServer/5","name":"KYTC - Kentucky Wired \u2014 Aerial","carrier":"Not published","routeStatus":"Construction complete","category":"existing","evidence":"agency_route","dataDate":null,"metadataModified":"2025-02-06T15:08:27+00:00","retrievedAt":"2026-09-18T02:43:58.328068+00:00","networkType":"Published fiber route; network class not specified","serviceability":"Unconfirmed","routeDiversity":"Unconfirmed","states":["KY","WV"]},"bbox":[-82.58387495104388,38.28941044091293,-82.57671995048065,38.322923552491964]},{"type":"Feature","geometry":{"type":"LineString","coordinates":[[-82.62991599946724,38.1719640003082],[-82.62925600011442,38.17208999957807],[-82.62854818658477,38.1722656514756],[-82.62788136477717,38.172272130292384],[-82.62712599926328,38.17229599976985],[-82.6264339992926,38.172335000309694],[-82.62570699997045,38.17240200003194],[-82.62496299998922,38.17246999982195],[-82.62410844003202,38.17263006053896],[-82.62320999942163,38.17283500002948],[-82.62265000028744,38.172950999815924],[-82.62194100018094,38.17311999961828],[-82.62116100041345,38.17348199984658],[-82.62058399938061,38.173747999255234],[-82.62010600020196,38.17399199951759],[-82.61964900003396,38.17423500001581],[-82.61897962367922,38.17455685279011]]},"properties":{"id":"arcgis-229-5-b9122ca959e271c1","sourceId":"arcgis-229-5","source":"KYTC - Kentucky Wired \u2014 Aerial","sourceUrl":"https://maps.kytc.ky.gov/arcgis/rest/services/Apps/KYWired/MapServer/5","name":"KYTC - Kentucky Wired \u2014 Aerial","carrier":"Not published","routeStatus":"Construction complete","category":"existing","evidence":"agency_route","dataDate":null,"metadataModified":"2025-02-06T15:08:27+00:00","retrievedAt":"2026-09-18T02:43:58.328068+00:00","networkType":"Published fiber route; network class not specified","serviceability":"Unconfirmed","routeDiversity":"Unconfirmed","states":["WV"]},"bbox":[-82.62991599946724,38.1719640003082,-82.61897962367922,38.17455685279011]},{"type":"Feature","geometry":{"type":"LineString","coordinates":[[-82.61978599980351,38.17525100023212],[-82.61846417759027,38.17577582953506],[-82.61737900007373,38.17620799971083],[-82.61714719858874,38.176527672751654],[-82.61637767229996,38.17727323849916],[-82.61566100033829,38.177956000338924],[-82.61488973788026,38.17867534890258],[-82.61400044971985,38.17930689168343],[-82.61340941026371,38.17972773506133],[-82.61286099960947,38.18010700028522],[-82.61247304680383,38.18036532488617],[-82.61130799974546,38.18117200018238],[-82.61156200044253,38.18179099955981],[-82.61174699959729,38.182290000318226],[-82.61200474319962,38.182936157592074],[-82.61197416208397,38.18336885480954],[-82.6119520002402,38.183907758458425],[-82.61141099979815,38.183971999665616],[-82.61077199992182,38.18403699981736],[-82.60990900084352,38.18411400030013],[-82.60915100006702,38.18418899981329],[-82.60835800009892,38.184284000261705],[-82.60822499991347,38.184860000556114],[-82.60816193050758,38.18518027032776],[-82.60815300028476,38.18522699938552],[-82.60810400035336,38.18545300075644],[-82.60794100020972,38.18613499933376],[-82.6078219994879,38.186709000327774],[-82.60769999967316,38.187278000227224],[-82.60758799977457,38.18779600022651],[-82.60818200020806,38.18800699953853],[-82.60875072866908,38.18821137793243],[-82.6084260000315,38.188891000351845],[-82.60806700012093,38.189589464229],[-82.60799657738895,38.190518736386615],[-82.6079580005449,38.191093999494555],[-82.60756900000526,38.19198399942424],[-82.6072540000452,38.19267099993092],[-82.60703399954939,38.193180999798415],[-82.60644600089576,38.19313000036111],[-82.60621799956853,38.19388299992307],[-82.60594809244556,38.194639892147386]]},"properties":{"id":"arcgis-229-5-14419b4a8e48edeb","sourceId":"arcgis-229-5","source":"KYTC - Kentucky Wired \u2014 Aerial","sourceUrl":"https://maps.kytc.ky.gov/arcgis/rest/services/Apps/KYWired/MapServer/5","name":"KYTC - Kentucky Wired \u2014 Aerial","carrier":"Not published","routeStatus":"Construction complete","category":"existing","evidence":"agency_route","dataDate":null,"metadataModified":"2025-02-06T15:08:27+00:00","retrievedAt":"2026-09-18T02:43:58.328068+00:00","networkType":"Published fiber route; network class not specified","serviceability":"Unconfirmed","routeDiversity":"Unconfirmed","states":["KY","WV"]},"bbox":[-82.61978599980351,38.17525100023212,-82.60594809244556,38.194639892147386]},{"type":"Feature","geometry":{"type":"LineString","coordinates":[[-82.60594809244556,38.194639892147386],[-82.60582333791719,38.195019613112954]]},"properties":{"id":"arcgis-229-5-a6196b29e9f15aea","sourceId":"arcgis-229-5","source":"KYTC - Kentucky Wired \u2014 Aerial","sourceUrl":"https://maps.kytc.ky.gov/arcgis/rest/services/Apps/KYWired/MapServer/5","name":"KYTC - Kentucky Wired \u2014 Aerial","carrier":"Not published","routeStatus":"Construction complete","category":"existing","evidence":"agency_route","dataDate":null,"metadataModified":"2025-02-06T15:08:27+00:00","retrievedAt":"2026-09-18T02:43:58.328068+00:00","networkType":"Published fiber route; network class not specified","serviceability":"Unconfirmed","routeDiversity":"Unconfirmed","states":["WV"]},"bbox":[-82.60594809244556,38.194639892147386,-82.60582333791719,38.195019613112954]},{"type":"Feature","geometry":{"type":"LineString","coordinates":[[-82.64310600046115,38.17097799977259],[-82.64241899982677,38.171255999880984],[-82.64180600035652,38.17150299991313],[-82.6410449994533,38.171678000133454],[-82.64036699990753,38.17183900003968],[-82.63967200083901,38.17200499992231],[-82.6389419993967,38.17217499996635],[-82.63825999912765,38.17233399949426],[-82.6375569998828,38.17241099983542],[-82.63690200021925,38.172386999549786],[-82.63601299948256,38.172335000214254],[-82.63535700015287,38.1722599998837],[-82.63458000016746,38.17216600024994],[-82.63390299928437,38.172082000235605],[-82.63326699943126,38.172018000675216],[-82.6325219996657,38.171997999993174],[-82.63184300034804,38.17197799993946],[-82.63103700041465,38.17196599993495],[-82.630293000382,38.17195599996749],[-82.62991599946724,38.1719640003082]]},"properties":{"id":"arcgis-229-5-1aa752820efd5215","sourceId":"arcgis-229-5","source":"KYTC - Kentucky Wired \u2014 Aerial","sourceUrl":"https://maps.kytc.ky.gov/arcgis/rest/services/Apps/KYWired/MapServer/5","name":"KYTC - Kentucky Wired \u2014 Aerial","carrier":"Not published","routeStatus":"Construction complete","category":"existing","evidence":"agency_route","dataDate":null,"metadataModified":"2025-02-06T15:08:27+00:00","retrievedAt":"2026-09-18T02:43:58.328068+00:00","networkType":"Published fiber route; network class not specified","serviceability":"Unconfirmed","routeDiversity":"Unconfirmed","states":["KY","WV"]},"bbox":[-82.64310600046115,38.17097799977259,-82.62991599946724,38.17241099983542]},{"type":"Feature","geometry":{"type":"LineString","coordinates":[[-82.64016600151537,38.153640000983586],[-82.64168599933463,38.1532720003757],[-82.64200324634294,38.154215261220905],[-82.64226073805109,38.15497877216482],[-82.64256556723285,38.15603303507732],[-82.64291315904703,38.15671338847609],[-82.64313846382554,38.15717527670948],[-82.64336399957132,38.157650000317275],[-82.6439580002208,38.15875800007323],[-82.64446999984052,38.15942499987991],[-82.64498600022078,38.16032400041515],[-82.64515599994043,38.16131800003849],[-82.64570104663046,38.16297794533092],[-82.64629500038339,38.16295199974256],[-82.64661327181078,38.163739999691124],[-82.64676273762458,38.16416178163966],[-82.64690700003875,38.16454900015034],[-82.64672464445022,38.16531369363738],[-82.6463840004034,38.165958000052754],[-82.6460635423931,38.1665166987889],[-82.6460910002865,38.16710100004671],[-82.64612381262778,38.16741691271858],[-82.64615571108062,38.16770173736385],[-82.6464693276403,38.168482886244405]]},"properties":{"id":"arcgis-229-5-7ae624afe0c4873d","sourceId":"arcgis-229-5","source":"KYTC - Kentucky Wired \u2014 Aerial","sourceUrl":"https://maps.kytc.ky.gov/arcgis/rest/services/Apps/KYWired/MapServer/5","name":"KYTC - Kentucky Wired \u2014 Aerial","carrier":"Not published","routeStatus":"Construction complete","category":"existing","evidence":"agency_route","dataDate":null,"metadataModified":"2025-02-06T15:08:27+00:00","retrievedAt":"2026-09-18T02:43:58.328068+00:00","networkType":"Published fiber route; network class not specified","serviceability":"Unconfirmed","routeDiversity":"Unconfirmed","states":["WV"]},"bbox":[-82.64690700003875,38.1532720003757,-82.64016600151537,38.168482886244405]},{"type":"Feature","geometry":{"type":"LineString","coordinates":[[-82.62734610288472,38.122217864378925],[-82.6279390006879,38.12318599964995],[-82.62842799957107,38.12397400012067],[-82.62880899931453,38.12463399955371],[-82.62898699954225,38.125166999818994],[-82.62920650877969,38.125820310760524],[-82.6292460006675,38.12639400067182],[-82.62927999931941,38.127009000386096],[-82.62876900047092,38.12797600025945],[-82.62880199956876,38.128958999120464],[-82.62895799991864,38.12973800012164],[-82.62913200107381,38.130477000335695],[-82.62929099922691,38.13112900016441],[-82.6294860008716,38.13194799994554],[-82.62967200071952,38.13264099986101],[-82.63010299935632,38.133102000387076],[-82.63054199994455,38.13354899941712],[-82.6309270002246,38.133922000678396],[-82.63140899986067,38.134196999828255],[-82.63219800062645,38.134615999976916],[-82.63311200018487,38.135006001141946],[-82.63390899992869,38.135321000110295],[-82.63484899899424,38.135732999729356],[-82.63565000068667,38.13615900020301],[-82.6362299993468,38.136641999802414],[-82.63669800028907,38.137147999827675],[-82.63706599953501,38.13770799989807],[-82.63735067416125,38.138275631689474],[-82.63762999961406,38.13884499944191],[-82.63798400015347,38.13955199930256],[-82.6381260001894,38.140227999848626],[-82.63829000059754,38.14103100029475],[-82.6384249999946,38.141693000402],[-82.63856300051278,38.142366999566924],[-82.63871400045427,38.14305800022449],[-82.63887799982464,38.14386200047029],[-82.63900299990533,38.14439200012787],[-82.63912899889503,38.14498400016279],[-82.63917300076227,38.14599400054395],[-82.6391630000514,38.14691900016989],[-82.63920099901297,38.14771900004268],[-82.6392310000027,38.148531999442085],[-82.63926200041192,38.14933799970952],[-82.63935100042741,38.1500829992748],[-82.63942300019112,38.15065100009903],[-82.63949700034708,38.15124000028481],[-82.63982504592782,38.15232316348679],[-82.64009049304836,38.153236002939714],[-82.64016600151537,38.153640000983586]]},"properties":{"id":"arcgis-229-5-8097c5f215ab85b5","sourceId":"arcgis-229-5","source":"KYTC - Kentucky Wired \u2014 Aerial","sourceUrl":"https://maps.kytc.ky.gov/arcgis/rest/services/Apps/KYWired/MapServer/5","name":"KYTC - Kentucky Wired \u2014 Aerial","carrier":"Not published","routeStatus":"Construction complete","category":"existing","evidence":"agency_route","dataDate":null,"metadataModified":"2025-02-06T15:08:27+00:00","retrievedAt":"2026-09-18T02:43:58.328068+00:00","networkType":"Published fiber route; network class not specified","serviceability":"Unconfirmed","routeDiversity":"Unconfirmed","states":["KY","WV"]},"bbox":[-82.64016600151537,38.122217864378925,-82.62734610288472,38.153640000983586]},{"type":"Feature","geometry":{"type":"LineString","coordinates":[[-82.60582333791719,38.195019613112954],[-82.60581513960865,38.195044568058364],[-82.60556951317936,38.19579789982467],[-82.60547699947435,38.19623500011366],[-82.60539946374051,38.196900116843544],[-82.6053181345921,38.197713559833275],[-82.60517399932456,38.198383000348905],[-82.60499199986086,38.199186999097705],[-82.60476800096127,38.19918299931412]]},"properties":{"id":"arcgis-229-5-2796351485684b26","sourceId":"arcgis-229-5","source":"KYTC - Kentucky Wired \u2014 Aerial","sourceUrl":"https://maps.kytc.ky.gov/arcgis/rest/services/Apps/KYWired/MapServer/5","name":"KYTC - Kentucky Wired \u2014 Aerial","carrier":"Not published","routeStatus":"Construction complete","category":"existing","evidence":"agency_route","dataDate":null,"metadataModified":"2025-02-06T15:08:27+00:00","retrievedAt":"2026-09-18T02:43:58.328068+00:00","networkType":"Published fiber route; network class not specified","serviceability":"Unconfirmed","routeDiversity":"Unconfirmed","states":["WV"]},"bbox":[-82.60582333791719,38.195019613112954,-82.60476800096127,38.199186999097705]},{"type":"Feature","geometry":{"type":"LineString","coordinates":[[-82.6464693276403,38.168482886244405],[-82.64648190620849,38.168514217480144],[-82.64660800048279,38.16890100002673],[-82.64654929247276,38.16926948792424]]},"properties":{"id":"arcgis-229-5-b607f7d841030cca","sourceId":"arcgis-229-5","source":"KYTC - Kentucky Wired \u2014 Aerial","sourceUrl":"https://maps.kytc.ky.gov/arcgis/rest/services/Apps/KYWired/MapServer/5","name":"KYTC - Kentucky Wired \u2014 Aerial","carrier":"Not published","routeStatus":"Construction complete","category":"existing","evidence":"agency_route","dataDate":null,"metadataModified":"2025-02-06T15:08:27+00:00","retrievedAt":"2026-09-18T02:43:58.328068+00:00","networkType":"Published fiber route; network class not specified","serviceability":"Unconfirmed","routeDiversity":"Unconfirmed","states":["WV"]},"bbox":[-82.64660800048279,38.168482886244405,-82.6464693276403,38.16926948792424]},{"type":"Feature","geometry":{"type":"LineString","coordinates":[[-82.57841904897215,38.322923552491964],[-82.57876304835669,38.32354355244833],[-82.57913104815974,38.324209551571286],[-82.57913791279282,38.324221462456514],[-82.57938004844719,38.324641552897376],[-82.57947504844286,38.32480055171673],[-82.57973804785719,38.324716551992104]]},"properties":{"id":"arcgis-229-5-149ca424b9900325","sourceId":"arcgis-229-5","source":"KYTC - Kentucky Wired \u2014 Aerial","sourceUrl":"https://maps.kytc.ky.gov/arcgis/rest/services/Apps/KYWired/MapServer/5","name":"KYTC - Kentucky Wired \u2014 Aerial","carrier":"Not published","routeStatus":"Construction complete","category":"existing","evidence":"agency_route","dataDate":null,"metadataModified":"2025-02-06T15:08:27+00:00","retrievedAt":"2026-09-18T02:43:58.328068+00:00","networkType":"Published fiber route; network class not specified","serviceability":"Unconfirmed","routeDiversity":"Unconfirmed","states":["KY","WV"]},"bbox":[-82.57973804785719,38.322923552491964,-82.57841904897215,38.32480055171673]},{"type":"Feature","geometry":{"type":"LineString","coordinates":[[-82.60698295303472,38.22074842647704],[-82.60770895223142,38.22022842561431],[-82.60803195299196,38.219977425758884],[-82.60823295269157,38.220194425772746],[-82.60871295359738,38.22071642637045],[-82.60908895365935,38.221137425864455],[-82.60968695397318,38.2218084257596],[-82.61016095409502,38.22232842583586],[-82.610643953731,38.22285542644446],[-82.61131195378573,38.22349942639537],[-82.61183595401927,38.223997426682956],[-82.61236195443904,38.22448842613616],[-82.61270395505882,38.224836426909896],[-82.61260995484916,38.2254384269091],[-82.61249895418248,38.225846426712415],[-82.61238195418403,38.22632742718654],[-82.61226295481981,38.226613427290985],[-82.61288295454604,38.22747542699703],[-82.6131519547015,38.22782842696438],[-82.61361695472952,38.228477427727945],[-82.61400995470855,38.22902642703777],[-82.61418695542788,38.22969442710379],[-82.61438395545821,38.23041542800543],[-82.61424095553919,38.231092427775906],[-82.613521955707,38.23168542839899],[-82.61362295520205,38.231946428058095],[-82.61374895516407,38.23232142804541],[-82.61396895551927,38.23291442788498],[-82.61440095525677,38.233331428582076],[-82.61486895538903,38.23377342856388],[-82.61507295592239,38.23401742827176],[-82.61494395589257,38.23415542795113],[-82.61438395625471,38.23476442891686],[-82.61436395577059,38.23655142853251],[-82.6143739555394,38.23696242860085],[-82.61437836791481,38.2374594285506],[-82.61439695636597,38.23809642927484],[-82.61441295639209,38.23863542921644],[-82.61435090348759,38.239294928140794],[-82.61377595635432,38.239891429829626],[-82.61319258105107,38.24048394893429]]},"properties":{"id":"arcgis-229-5-2167b3e9484941de","sourceId":"arcgis-229-5","source":"KYTC - Kentucky Wired \u2014 Aerial","sourceUrl":"https://maps.kytc.ky.gov/arcgis/rest/services/Apps/KYWired/MapServer/5","name":"KYTC - Kentucky Wired \u2014 Aerial","carrier":"Not published","routeStatus":"Construction complete","category":"existing","evidence":"agency_route","dataDate":null,"metadataModified":"2025-02-06T15:08:27+00:00","retrievedAt":"2026-09-18T02:43:58.328068+00:00","networkType":"Published fiber route; network class not specified","serviceability":"Unconfirmed","routeDiversity":"Unconfirmed","states":["KY","WV"]},"bbox":[-82.61507295592239,38.219977425758884,-82.60698295303472,38.24048394893429]},{"type":"Feature","geometry":{"type":"LineString","coordinates":[[-82.60476800096127,38.19918299931412],[-82.60406099913632,38.19915800040316],[-82.60386700051151,38.19989699963736],[-82.60366200036295,38.20066699976181],[-82.60339199941932,38.201297000000956],[-82.60307600063838,38.201948000340565],[-82.60276299896289,38.2025910005761],[-82.60243100092927,38.20326499924418],[-82.60216200062372,38.20380099972597],[-82.60184999981517,38.204459999458805],[-82.60159599980749,38.204994999952646],[-82.60134499987961,38.205524999972326],[-82.60102300060976,38.20619000022235],[-82.60071400003848,38.206829000083],[-82.60043999977644,38.207493000245755],[-82.60022699949468,38.20819500062577],[-82.6000899995846,38.208900000862506],[-82.60002500046278,38.209583000191664],[-82.60002199989628,38.210264000207296],[-82.60009700041127,38.21095300003162],[-82.60021199499765,38.21165036529973],[-82.60040350451952,38.21231917679305],[-82.60063700061309,38.2129690004209],[-82.60084800065435,38.21360699986838],[-82.60106839569536,38.21429583999374],[-82.60129700092973,38.21479300012558],[-82.60159299974836,38.21529200017644],[-82.6018840000713,38.2157980005349],[-82.60234599420139,38.21634967125258],[-82.60290999941148,38.2169630000193],[-82.60347899981814,38.21748900084773],[-82.60400499975518,38.217998000290706],[-82.60451595134187,38.21847242540712],[-82.60505195142957,38.21895542565765],[-82.60551295229416,38.21939142617752],[-82.60601695199479,38.2198484257102],[-82.60649207211262,38.220299102943095],[-82.60698295303472,38.22074842647704]]},"properties":{"id":"arcgis-229-5-78ad0647aa94e0ac","sourceId":"arcgis-229-5","source":"KYTC - Kentucky Wired \u2014 Aerial","sourceUrl":"https://maps.kytc.ky.gov/arcgis/rest/services/Apps/KYWired/MapServer/5","name":"KYTC - Kentucky Wired \u2014 Aerial","carrier":"Not published","routeStatus":"Construction complete","category":"existing","evidence":"agency_route","dataDate":null,"metadataModified":"2025-02-06T15:08:27+00:00","retrievedAt":"2026-09-18T02:43:58.328068+00:00","networkType":"Published fiber route; network class not specified","serviceability":"Unconfirmed","routeDiversity":"Unconfirmed","states":["WV"]},"bbox":[-82.60698295303472,38.19915800040316,-82.60002199989628,38.22074842647704]},{"type":"Feature","geometry":{"type":"LineString","coordinates":[[-82.61897962367922,38.17455685279011],[-82.61897270606951,38.174625439187565],[-82.61934676573908,38.17495796688912],[-82.61975285188308,38.17520034500098],[-82.61978599980351,38.17525100023212]]},"properties":{"id":"arcgis-229-6-6d69f8946985def8","sourceId":"arcgis-229-6","source":"KYTC - Kentucky Wired \u2014 Underground","sourceUrl":"https://maps.kytc.ky.gov/arcgis/rest/services/Apps/KYWired/MapServer/6","name":"KYTC - Kentucky Wired \u2014 Underground","carrier":"Not published","routeStatus":"Construction complete","category":"existing","evidence":"agency_route","dataDate":null,"metadataModified":"2025-02-06T15:08:27+00:00","retrievedAt":"2026-09-18T02:42:11.427403+00:00","networkType":"Published fiber route; network class not specified","serviceability":"Unconfirmed","routeDiversity":"Unconfirmed","states":["WV"]},"bbox":[-82.61978599980351,38.17455685279011,-82.61897270606951,38.17525100023212]},{"type":"Feature","geometry":{"type":"LineString","coordinates":[[-82.61177331809789,38.10558959090763],[-82.61131224879516,38.105754002508114],[-82.61100234709012,38.106100842379405],[-82.6105617791388,38.106512300404304],[-82.61008868229274,38.106981260357294],[-82.60938072630555,38.107321793586685],[-82.60885343050512,38.107524869849726],[-82.60813778134582,38.10776004955214],[-82.60699952425267,38.10815711056965],[-82.60638857912964,38.10869285346508],[-82.60616230698429,38.10918304451954],[-82.60603837720431,38.10991258732364],[-82.60668910242309,38.110982730890676],[-82.60660257669493,38.11116985634447],[-82.60606060152446,38.111443893651426],[-82.60629250880159,38.111695118586624],[-82.60659240776592,38.11208420107377],[-82.60671948434432,38.11228031699053],[-82.60701774478159,38.112623744575],[-82.60670676599652,38.11298756073495],[-82.60642098675181,38.11312841962428],[-82.60629139309398,38.11318260556233],[-82.60641759561163,38.11333607527214],[-82.60666479221487,38.1136735142639],[-82.60682814276446,38.113892367313085],[-82.6070206023225,38.11416675910336],[-82.60713726922341,38.11432018928594],[-82.60732187840418,38.11460481073647],[-82.6074753519772,38.11476958229038],[-82.60766195990949,38.115065757679695],[-82.6078482219904,38.11528599747609],[-82.60765097710683,38.11538117430691],[-82.60732499376158,38.11553126459178],[-82.60719752102612,38.115588965609426],[-82.60690040863581,38.11572425442515],[-82.60655043937416,38.11588828630071],[-82.60630000883587,38.11601718473804],[-82.60598841470485,38.11615259290964],[-82.60569293275677,38.11628099827003],[-82.60539983763238,38.1164203715654],[-82.6051384862752,38.116527373064244],[-82.60482683644862,38.11666238238708],[-82.6044485091701,38.11686096176497],[-82.60420117692124,38.11696682050775],[-82.60392931886848,38.1170922214542],[-82.60362147969535,38.11723368588518],[-82.60337041943805,38.1173362711377],[-82.60313175593167,38.11742814266728],[-82.60287219312023,38.11710122191966],[-82.6026702725056,38.116835826810856],[-82.60248239525382,38.116555851785215],[-82.60228233684678,38.1162999047568],[-82.6019966474336,38.115956170761514]]},"properties":{"id":"arcgis-229-13-6490587f4e0758ab","sourceId":"arcgis-229-13","source":"KYTC - Kentucky Wired \u2014 Third Party Fiber","sourceUrl":"https://maps.kytc.ky.gov/arcgis/rest/services/Apps/KYWired/MapServer/13","name":"KYTC - Kentucky Wired \u2014 Third Party Fiber","carrier":"Not published","routeStatus":"Unknown","category":"unknown","evidence":"agency_route","dataDate":null,"metadataModified":"2025-02-06T15:08:27+00:00","retrievedAt":"2026-09-18T02:42:43.277545+00:00","networkType":"Published fiber route; network class not specified","serviceability":"Unconfirmed","routeDiversity":"Unconfirmed","states":["KY","WV"]},"bbox":[-82.61177331809789,38.10558959090763,-82.6019966474336,38.11742814266728]},{"type":"Feature","geometry":{"type":"MultiLineString","coordinates":[[[-82.0220819115687,39.1568989612857],[-82.000060300775,39.164602551432],[-81.9730805088392,39.1690113171499],[-81.8461921544339,39.173966409293],[-81.81731070989,39.1875001082102],[-81.7226882666418,39.2506078309218]],[[-82.0220819115687,39.1568989612857],[-82.0319240784003,39.1796885189969],[-82.0331116925284,39.2317687773711],[-82.1080348730116,39.330193428678],[-82.1395835054656,39.3049530735451],[-82.176700353293,39.2560608129399],[-82.2157707188598,39.2258010983371],[-82.2476781842523,39.2207565427869],[-82.3202348133066,39.2428014469209],[-82.4758006955846,39.2519647739572],[-82.5406933486908,39.2792053570809],[-82.5850615088827,39.2675785589945],[-82.6282852630134,39.274837560146],[-82.6732284177507,39.270277932228],[-82.7304719018395,39.2467124448998],[-82.7906800042323,39.264822824763],[-82.9162457250274,39.3027129998934],[-82.9561128684034,39.3238969708778],[-82.9834179573716,39.3419996805076],[-82.9957702596522,39.3691449548448],[-83.0555814081991,39.3681397625073],[-83.0768794547775,39.3643491708955],[-83.1075472118402,39.3960622523619],[-83.186749453399,39.3913682137507],[-83.2103816159363,39.3918944912733],[-83.2236932515667,39.3976447306536],[-83.2599225234692,39.4030808628102],[-83.2816305494652,39.4071312157426],[-83.3138244660422,39.3997077127139],[-83.3501952288902,39.374815886145],[-83.3668467225935,39.3529306691599],[-83.4319660475953,39.3507036477096],[-83.4643992160753,39.3552717694374],[-83.4993828310042,39.3583309360792],[-83.5269174278494,39.3561441350148],[-83.5730169110884,39.3461741607468],[-83.593338320968,39.3370141008188],[-83.5889330690529,39.3048315200306],[-83.5957861025564,39.2716633501954],[-83.6121072480006,39.2328094613971],[-83.6080918271896,39.1808915176374],[-83.599510522216,39.1207942526602],[-83.5874237484586,39.0359745793736],[-83.5833404778943,39.0075792600122],[-83.5713245919926,38.9667002887912],[-83.5704149785972,38.9469735092642],[-83.5524858739473,38.9411791279345],[-83.534258701998,38.9599368023164],[-83.5059423992774,38.9696440464826],[-83.4621778207182,38.9695512157261],[-83.4237039329068,38.9674957426607],[-83.3821347812064,38.9551852660041],[-83.3506918059012,38.9595245132017],[-83.3047266378651,38.947867487673],[-83.2337857716815,38.9093704334902],[-83.179412825337,38.8826106711891],[-83.1360345555875,38.8951592581589],[-83.0992685115566,38.9107340401571],[-83.0615658714342,38.929204576408],[-83.0135700832579,38.9156477403293],[-82.9973987103279,38.8914008077598],[-82.9850935201924,38.8426377716823],[-82.9809292853697,38.8041392817712],[-82.9800558273678,38.7424201208778],[-82.9108060684526,38.7621656444628],[-82.8607762141988,38.7701249670707],[-82.8114939388227,38.7707643719301],[-82.76570844103,38.778743165112],[-82.7325484941627,38.8171615705909],[-82.7192651195311,38.8233150072031],[-82.675608401688,38.8108947166014],[-82.6232608005763,38.8682726761684],[-82.5697031777601,38.8987348689516],[-82.4444731708614,38.8968984291998],[-82.3885502461729,38.882263788853],[-82.3440595396065,38.8543621699322],[-82.3323899102295,38.8465021518061],[-82.2790759734004,38.8407534030505],[-82.2387932073902,38.8015096572131],[-82.1685086350817,38.8170703790201],[-82.1656647045378,38.8718130078857],[-82.122559990657,38.9312160162582],[-82.077831380559,38.9891488729231],[-82.0401215799654,39.0224691551688],[-82.0073724218977,39.0403595488725],[-82.0002199951814,39.0909616252099],[-82.0100722420088,39.1349714364594],[-82.0220819115687,39.1568989612857]]]},"properties":{"id":"arcgis-31-0-045b8deed54d8306","sourceId":"arcgis-31-0","source":"Middle Mile Dashboard Layers - For Public Dashboard \u2014 Existing_IRU_Awarded2","sourceUrl":"https://utility.arcgis.com/usrsvcs/servers/53d104cecb964033a75c5cd05cab3657/rest/services/MM_Dashboard_Layers_ForPublic/FeatureServer/0","name":"Middle Mile Dashboard Layers - For Public Dashboard \u2014 Existing_IRU_Awarded2","carrier":"Horizon Telecom, Inc.","routeStatus":"Existing In-Kind","category":"existing","evidence":"approximate_project_route","dataDate":null,"metadataModified":"2026-08-27T17:32:01+00:00","retrievedAt":"2026-09-18T02:39:05.977734+00:00","networkType":"Middle mile","serviceability":"Unconfirmed","routeDiversity":"Unconfirmed","states":["OH","WV"]},"bbox":[-83.6121072480006,38.7424201208778,-81.7226882666418,39.4071312157426]}]}