{"type":"FeatureCollection","features":[{"type":"Feature","geometry":{"type":"MultiLineString","coordinates":[[[-105.476148000036,43.7604930001093],[-105.476098999632,43.7604329999988]],[[-105.476148000036,43.7604930001093],[-105.485406046338,43.7590799837682]],[[-105.465373999981,44.0615180000565],[-105.465123999735,44.0221470000849],[-105.444445000186,43.9618739997071],[-105.451787000173,43.8933499998001],[-105.465415999813,43.8420139999039],[-105.469940000026,43.8058540000667],[-105.476806999637,43.7854450001333],[-105.476148000036,43.7604930001093]],[[-105.46536499976,44.0615180000565],[-105.465373999981,44.0615180000565]],[[-105.461802999995,44.0958450002324],[-105.465373999981,44.0615180000565]],[[-105.461802999995,44.0958450002324],[-105.461794999599,44.0958450002324]],[[-105.44728700025,44.1519509997363],[-105.461802999995,44.0958450002324]],[[-105.44728700025,44.1519509997363],[-105.447281000402,44.1519509997363]],[[-105.474064000205,44.2449339997476],[-105.47405400016,44.2449379998703]],[[-105.47405400016,44.2449379998703],[-105.473849999945,44.2448939997926]],[[-105.47405400016,44.2449379998703],[-105.473963926086,44.2449635559889]],[[-105.474055999809,44.2449500002368],[-105.47405400016,44.2449379998703]],[[-105.473963926086,44.2449635559889],[-105.473958999725,44.2449339997476],[-105.47405400016,44.2449379998703]],[[-105.473963926086,44.2449635559889],[-105.473948999679,44.2449670001082],[-105.473895999976,44.2449599998968],[-105.468551999606,44.2421929997271],[-105.467333999963,44.2413720000349],[-105.461197999923,44.2346820002634],[-105.437043999749,44.1885830001178],[-105.44728700025,44.1519509997363]],[[-105.478642999771,44.2472400002668],[-105.478648999619,44.2472329996824]],[[-105.478642999771,44.2472400002668],[-105.478508000052,44.2473539998317],[-105.473963926086,44.2449635559889]],[[-105.489981999716,44.2556030000211],[-105.489985999914,44.2555909998977]],[[-105.489981999716,44.2556030000211],[-105.478642999771,44.2472400002668]],[[-105.493704000213,44.2621800000327],[-105.493694999992,44.262182000151]],[[-105.493694999992,44.262182000151],[-105.489981999716,44.2556030000211]],[[-105.493940000214,44.2638029999722],[-105.493965000329,44.2638029999722]],[[-105.493940000214,44.2638029999722],[-105.493694999992,44.262182000151]],[[-105.49406099969,44.2675160001524],[-105.493940000214,44.2638029999722]],[[-105.49406099969,44.2675160001524],[-105.494076999583,44.2675210003157]],[[-105.494175000391,44.2700510000955],[-105.494194999584,44.2700310003005],[-105.494151000101,44.2684309998],[-105.49406099969,44.2675160001524]],[[-105.494175000391,44.2700510000955],[-105.494175000391,44.2700289998061]],[[-105.494329000377,44.2727789998209],[-105.494327999653,44.2727590003111]],[[-105.494329000377,44.2727789998209],[-105.494175000391,44.2700510000955]],[[-105.494428999936,44.2762769999781],[-105.494427000286,44.2762579998704]],[[-105.494428999936,44.2762769999781],[-105.494329000377,44.2727789998209]],[[-105.494439999806,44.277955000224],[-105.494442000355,44.2779310000952]],[[-105.494439999806,44.277955000224],[-105.494428999936,44.2762769999781]],[[-105.494269000102,44.2837470001646],[-105.494330000202,44.283745000137],[-105.4943340004,44.2808940003047],[-105.49512400042,44.278042000287],[-105.494439999806,44.277955000224]],[[-105.494269000102,44.2837470001646],[-105.494283000346,44.2837370000262]],[[-105.494269000102,44.2837470001646],[-105.494296999691,44.2837639997531]],[[-105.494331000026,44.283759999699],[-105.494269000102,44.2837470001646]],[[-105.494331000026,44.283759999699],[-105.494342258612,44.2846915702021]],[[-105.494296999691,44.2837639997531],[-105.49430326544,44.2838984618612]],[[-105.494302282683,44.2838794719351],[-105.494296999691,44.2837639997531]],[[-105.494302282683,44.2838794719351],[-105.494301999714,44.2838739998461],[-105.494296999691,44.2837639997531]],[[-105.49430326544,44.2838984618612],[-105.494302282683,44.2838794719351]],[[-105.49430326544,44.2838984618612],[-105.494305123156,44.2839383439658]],[[-105.494305123156,44.2839383439658],[-105.494302282683,44.2838794719351]],[[-105.494305123156,44.2839383439658],[-105.4943089392,44.2840202341581]],[[-105.494307999562,44.2839929998201],[-105.49430326544,44.2838984618612]],[[-105.494307999562,44.2839929998201],[-105.494305123156,44.2839383439658]],[[-105.4943089392,44.2840202341581],[-105.494307999562,44.2839929998201]],[[-105.4943089392,44.2840202341581],[-105.49431000011,44.2840430002776]],[[-105.49431000011,44.2840430002776],[-105.494307999562,44.2839929998201]],[[-105.49431000011,44.2840430002776],[-105.494309944415,44.2840493778249]],[[-105.494309944415,44.2840493778249],[-105.4943089392,44.2840202341581]],[[-105.494309944415,44.2840493778249],[-105.494309000285,44.2841569998755],[-105.494314000308,44.285021000027]],[[-105.494310474421,44.2841555497049],[-105.49431000011,44.2840430002776]],[[-105.494310474421,44.2841555497049],[-105.494309944415,44.2840493778249]],[[-105.49431199976,44.2845179999295],[-105.494310999935,44.2842150002404],[-105.494310474421,44.2841555497049]],[[-105.49431199976,44.2845179999295],[-105.494310474421,44.2841555497049]],[[-105.494342258612,44.2846915702021],[-105.494335000224,44.2841170002336],[-105.494331000026,44.283759999699]],[[-105.494342258612,44.2846915702021],[-105.49434699992,44.2850860001192],[-105.494355000316,44.2856999997264]],[[-105.494313691288,44.2849433941598],[-105.49431199976,44.2845179999295]],[[-105.494313691288,44.2849433941598],[-105.49431199976,44.2846699998301],[-105.49431199976,44.2845179999295]],[[-105.494285999821,44.2850190000429],[-105.494305999912,44.2850150000743],[-105.494314000308,44.285021000027]],[[-105.494285999821,44.2850190000429],[-105.494288000369,44.2850240000032],[-105.494314000308,44.285021000027]],[[-105.494314000308,44.285021000027],[-105.494314000308,44.2849940002348],[-105.494313691288,44.2849433941598]],[[-105.494314000308,44.285021000027],[-105.494313691288,44.2849433941598]],[[-105.494314000308,44.285021000027],[-105.494285999821,44.2850190000429]],[[-105.494355000316,44.2856999997264],[-105.494342258612,44.2846915702021]],[[-105.494358999616,44.2864970000144],[-105.494355000316,44.2856999997264]],[[-105.494358999616,44.2864970000144],[-105.494347999745,44.2872919998708]],[[-105.494347999745,44.2872919998708],[-105.494360000339,44.2866390002943],[-105.494358999616,44.2864970000144]],[[-105.49455000031,44.2874539998177],[-105.494551999959,44.2874429997164]],[[-105.49455000031,44.2874539998177],[-105.494347999745,44.2872919998708]],[[-105.502346999683,44.2893499997769],[-105.502314999896,44.2873999998851],[-105.49455000031,44.2874539998177]],[[-105.502346999683,44.2893499997769],[-105.50233099979,44.2893370001935]],[[-105.503221000268,44.2903159997998],[-105.502346999683,44.2893499997769]],[[-105.503221000268,44.2903159997998],[-105.503232000138,44.290863000198],[-105.503850999556,44.2908589999843],[-105.503875999671,44.2903279999079],[-105.503221000268,44.2903159997998]]]},"properties":{"id":"arcgis-31-0-4767ae4ae1f2e7f1","sourceId":"arcgis-31-0","category":"existing","states":["WY"],"routeStatus":"Existing In-Kind","carrier":"Visionary Communications, LLC"},"bbox":[-105.503875999671,43.7590799837682,-105.436871000395,44.2908899998647]}]}